
015 
SAUS70 KWBC 110300
METAR
KC62 110255Z AUTO 16011KT 2 1/2SM -RA OVC002 10/10 A2963 RMK AO2
     T01010101=


102 
SAUS70 KWBC 110300
METAR
KLBE 110250Z 00000KT 10SM CLR 13/08 A2991=
KMCX 110255Z AUTO 16011G15KT 4SM BR OVC003 14/13 A2944 RMK AO2
     T01350128=


051 
SAUS80 KWBC 110300
METAR
KM25 110255Z AUTO 10SM SCT015 SCT025 SCT070 21/19 A2962 RMK AO2
     PWINO=


080 
SAUS70 KWBC 110300
METAR
KFDW 110255Z AUTO 13004KT 1/4SM FG OVC002 10/10 A3011 RMK AO1=
KPLD 110255Z AUTO 17012KT 5SM BR OVC004 13/12 A2965 RMK AO2=
KBRY 110255Z AUTO 18010G17KT 10SM OVC013 17/16 A2973 RMK AO1=


718 
SAUS70 KWBC 110300
METAR
KSWF 110245Z 00000KT 10SM OVC050 02/00 A3014=
KW63 110255Z AUTO 00000KT 10SM OVC017 12/09 A3009 RMK AO1=


096 
SAUS70 KWBC 110300
METAR
KLBE 110250Z 00000KT 10SM CLR 13/08 A2991=
KMCX 110255Z AUTO 16011G15KT 4SM BR OVC003 14/13 A2944 RMK AO2
     T01350128=
KPLD 110255Z AUTO 17012KT 5SM BR OVC004 13/12 A2965 RMK AO2=
KSWF 110245Z 00000KT 10SM OVC050 02/00 A3014=
KFFA 110255Z AUTO 18007KT 140V220 10SM BKN031 OVC042 17/15 A3013
     RMK AO2 T01660147=


651 
SAUS70 KWBC 110300
METAR
KGYY 110245Z 150010G18KT 4SM BR OVC004 13/13 A2937=
KANE 110245Z 02012G18KT 1 1/4SM -SN BKN004 OVC009 M01/M01
     A2967=
KCNW 110255Z 17006KT 10SM SKC 22/18 A2975=
KEFT 110255Z AUTO 06011KT 1/2SM RA OVC002 03/02 A2934 RMK AO2
     P0017 60023 T00320023=
KI43 110255Z AUTO 17004KT 10SM OVC015 15/13 A2983 RMK AO2 LTG DSNT
     W=
KS32 110255Z AUTO 25009KT 10SM CLR M12/M12 A2973 RMK AO2 TSNO=
KSUW 110255Z AUTO 00000KT 10SM BKN060 OVC075 M03/M06 A2976 RMK AO2
     T10351057=
KW31 110255Z AUTO 19004KT 10SM OVC014 12/09 A3008 RMK AO1
     T01150087=
KW96 110255Z AUTO 18003KT 10SM OVC006 11/10 A3009 RMK AO1
     T01080101=
KBBG 110245Z 20021G33KT 10SM FEW040 SCT050 BKN070 19/13 A2955 RMK
     LTG DSNT E-S=
KFMH 110245Z 00000KT 8SM FEW026 SCT060 02/02 A3016=
KUES 110245Z 06007KT 2 1/2SM RA OVC003 03/03 A2943=


726 
SAGC31 MWCR 110300
METAR MWCR 110300Z 11007KT 9999 FEW022 26/23 Q1016=


284 
SADR31 MDSD 110300
METAR 
METAR MDPP 110300Z 00000KT 9999 FEW018 22/21 Q1016=
METAR MDST 110300Z 00000KT 9999 SCT017 23/22 Q1017=
METAR MDPC 110300Z 07016KT 9999 FEW018 27/22 Q1016 NOSIG=
METAR MDSD 110300Z 01005KT 9999 FEW016 23/21 Q1016=
METAR MDLR 110300Z 00000KT 9999 FEW017 23/22 Q1015=


293 
SAUS70 KWBC 110300
METAR
K2J9 110255Z AUTO 18004KT 6SM BR OVC003 20/20 A3011 RMK AO2=
KGPH 110255Z AUTO 29012G20KT 10SM SCT018 05/01 A2946 RMK AO2=
KLDJ 110255Z AUTO 00000KT 10SM SCT070 BKN080 07/01 A3012 RMK AO2
     T00650005=
KW13 110255Z AUTO 00000KT 10SM SCT100 07/06 A3003 RMK AO1
     T00710061=
PALP 110245Z 21005KT 7SM OVC055 M26/M29 A2945=
K2C8 110255Z AUTO 10SM CLR M11/M12 A2971 RMK AO2=
KCGF 110245Z 16015G20KT 10SM SCT100 SCT120 12/08 A2973=
KCWA 110247Z 04012G21KT 2 1/2SM -SN OVC010 M02/M03 A2952=
KLAL 110247Z 12008KT 10SM SKC 22/18 A3014=
KLQK 110255Z AUTO 00000KT 1 1/4SM DZ OVC004 10/10 A3010 RMK AO2
     P0003 60003 T01000100=
KOUN 110245Z 31020G25KT 10SM SCT060 09/M01 A2973=
KSPA 110255Z AUTO 00000KT 1SM BR OVC002 10/09 A3010 RMK AO2=
KW75 110255Z AUTO 19006KT 2SM OVC003 11/M04 A3009 RMK AO1 60001
     T01071037=
TJBQ 110250Z 11008KT 10SM CLR 23/21 A3000=
KASG 110248Z 22009G14KT 9SM SCT043 BKN055 BKN075 18/18 A2956=
KBAK 110245Z 16018G26KT 3SM -RA BR OVC003 15/14 A2962 RMK LAST=
KHSA 110248Z 16004KT 5SM BR SCT003 BKIN020 21/20 A2997=
KJVL 110245Z 05009KT 2SM RA OVC004 04/04 A2937=
KSQL 110247Z 29005KT 10SM CLR 09/01 A3025=
KSUA 110250Z 00000KT 7SM SCT022 22/18 A3015=
KAEG 110247Z 34010KT 10SM CLR M02/M18 A3015=
KD50 110255Z AUTO 20010KT 10SM CLR M09/M12 A2970 RMK AO2=
KJYO 110255Z AUTO 00000KT 10SM OVC020 10/06 A3007 RMK AO2=
KPOC 110247Z 00000KT 10SM CLR 09/06 A3016=
KRCZ 110255Z AUTO 19004KT 7SM OVC006 12/11 A3014 RMK AO2
     T01160110=
KSIK 110255Z AUTO 19013G25KT 10SM -RA SCT002 BKN022 OVC110 22/20
     A2956 RMK AO2 TSNO=
KVQQ 110250Z 15003KT 10SM SCT039 20/19 A3014=
KWDG 110245Z 31015G21KT 10SM SKC 06/M02 A2977 RMK LAST=


296 
SAUS80 KWBC 110300
METAR
KESN 110245Z 00000KT 10SM BKN025 10/09 A3013=


420 
SAXX60 KWBC 110300
METAR
KMHR 110245Z E00000KT 10SM SKC 04/00 A3022=


060 
SAHO31 MHTG 110300
METAR MHCA 110300Z 00000KT 9999 FEW030 22/19=


937 
SAES20 MSLP 110300

METAR MSLP 110250Z 02004KT CAVOK 24/21 Q1011 A2986 NOSIG=

METAR MSSS 110250Z NIL=


195 
SAHO31 MHTG 110300
METAR MHRO 110300Z 09012KT 9999 FEW025 27/23 Q1014 A2995 NOSIG=
METAR MHLC 110300Z 31003KT 9999 FEW026 24/22 Q1014 A2995 NOSIG=
METAR MHLM 110300Z 03006KT 9999 FEW025 BKN080 25/22 Q1014 A2994 NOSIG=
METAR MHTG 110300Z 26003KT 9999 BKN030 19/17 Q1021 A3015 NOSIG=


731 
SAUS70 KWBC 110300
METAR
KMMU 110245Z 00000KT 10SM BKN060 03/01 A3013=
KPAO 110247Z VRB04KT 10SM SKC 08/01 A3025=
KCIC 110250Z 00000KT 10SM CLR 06/00 A3021=
KEVB 110247Z 00000KT 10SM CLR 19/19 A3014 RMK LAST=
KNQA 110250Z 19017G26KT 10SM FEW008 BKN036 OVC090 25/19 A2964=
KRHV 110247Z 07007KT 10SM SKC 08/M01 A3024=
KSEE 110247Z 00000KT 10SM SKC 12/07 A3013=
KEMT 110246Z 26003KT 10SM CLR 12/06 A3016=
KWHP 110250Z 00000KT 10SM SKC 11/04 A3019=


278 
SAUS14 KAWN 110300
METAR KAEG 110247Z 34010KT 10SM CLR M02/M18 A3015=
METAR KCIC 110250Z 00000KT 10SM CLR 06/00 A3021=
METAR KCNW 110255Z 17006KT 10SM SKC 22/18 A2975=
METAR KMHR 110245Z E00000KT 10SM SKC 04/00 A3022=
METAR KPAO 110247Z VRB04KT 10SM SKC 08/01 A3025=
METAR KPOC 110247Z 00000KT 10SM CLR 09/06 A3016=
METAR KRHV 110247Z 07007KT 10SM SKC 08/M01 A3024=
METAR KSEE 110247Z 00000KT 10SM SKC 12/07 A3013=
METAR KSQL 110247Z 29005KT 10SM CLR 09/01 A3025=


280 
SAZZ40 KAWN 110300
METAR KFMH 110245Z 00000KT 8SM FEW026 SCT060 02/02 A3016=
METAR MDPC 110300Z 07016KT 9999 FEW018 27/22 Q1016 NOSIG=
METAR MDPP 110300Z 00000KT 9999 FEW018 22/21 Q1016=
METAR MDSD 110300Z 01005KT 9999 FEW016 23/21 Q1016=
METAR MDST 110300Z 00000KT 9999 SCT017 23/22 Q1017=
METAR MWCR 110300Z 11007KT 9999 FEW022 26/23 Q1016=
METAR OJAM 110300Z 00000KT 5000 HZ NSC 08/03 Q1022 NOSIG=
METAR TJBQ 110250Z 11008KT 10SM CLR 23/21 A3000=


923 
SAZS31 NSTU 110300
MTRPPG
METAR NSTU 110250Z 08015KT 12SM FEW018 BKN110 31/26 A2982 RMK SLP098
8/120 T03060263 56008=


953 
SAXN17 KAWN 110300
METAR MDSD 110300Z 01005KT 9999 FEW016 23/21 Q1016=
METAR MHLC 110300Z 31003KT 9999 FEW026 24/22 Q1014 A2995 NOSIG=
METAR MMDO 110245Z 24005KT 10SM SCT070 BKN200 14/1 A3024 RMK 8/078=


954 
SAUS17 KAWN 110300
METAR KFMH 110245Z 00000KT 8SM FEW026 SCT060 02/02 A3016=


957 
SAXX70 KAWN 110300
METAR KQEI 110250Z AUTO 16004KT 8000 HZ CLR 07/02 A3031 RMK A02 TSNO=
METAR KQEJ 110250Z AUTO 23002KT 8000 BKN006 BKN022 05/03 A3030 RMK
      A02 TSNO=
METAR KQEN 110250Z AUTO 26006KT M0400 /CLR 02/00 / RMK A02 TSNO=
METAR KQEP 110250Z AUTO 23004KT 2800 HZ FEW130 07/04 A3034 RMK A02
      TSNO=
METAR KQEQ 110250Z AUTO 11002KT 3200 BR BKN005 04/04 A3038 RMK A02
      TSNO=
METAR KQEV 110250Z AUTO 09002KT 4000 BR BKN028 08/06 A3029 RMK A02
      TSNO=
METAR KQEW 110250Z AUTO 25004KT 6000 HZ FEW140 10/02 A3030 RMK A02
      TSNO=
METAR KQFU 110250Z AUTO 19001KT 2800 BR OVC005 05/04 A3036 RMK A02
      TSNO=
METAR KQFV 110250Z AUTO 9000 HZ CLR 06/01 A3032 RMK / A02=
METAR KQFX 110250Z AUTO 02002KT 3200 HZ BKN022 08/05 A3031 RMK A02
      TSNO=


958 
SANA35 KAWN 110300
METAR MDSD 110300Z 01005KT 9999 FEW016 23/21 Q1016=
METAR MWCR 110300Z 11007KT 9999 FEW022 26/23 Q1016=


148 
SAUS70 KWBC 110300
METAR
KBNL 110255Z AUTO 00000KT 1/4SM FG OVC003 13/13 A3013 RMK AO2=
KGYR 110247Z 00000KT 10SM BKN250 14/06 A3012=
KIUA 110255Z AUTO 14005KT 10SM CLR 04/01 A2994 RMK AO2
     T00380005=
KJSO 110255Z AUTO 18009KT 10SM CLR 23/19 A2978 RMK AO2
     T02310195=
KMNI 110255Z AUTO 00000KT 7SM BKN014 OVC025 12/12 A3015 RMK
     AO2=
KOMH 110255Z AUTO 00000KT 10SM OVC014 07/06 A3007 RMK AO2=
KSAW 110247Z 06007KT 1/2SM SN BKN004 OVC011 M02/M03 A2971=
KFMH 110245Z 00000KT 8SM FEW026 SCT060 02/02 A3016=
TJBQ 110250Z 11008KT 10SM CLR 23/21 A3000=
KAEG 110247Z 34010KT 10SM CLR M02/M18 A3015=
KCIC 110250Z 00000KT 10SM CLR 06/00 A3021=
KCNW 110255Z 17006KT 10SM SKC 22/18 A2975=
KPAO 110247Z VRB04KT 10SM SKC 08/01 A3025=
KPOC 110247Z 00000KT 10SM CLR 09/06 A3016=
KRHV 110247Z 07007KT 10SM SKC 08/M01 A3024=
KSEE 110247Z 00000KT 10SM SKC 12/07 A3013=
KSQL 110247Z 29005KT 10SM CLR 09/01 A3025=
K2C8 110255Z AUTO 10SM CLR M11/M12 A2971 RMK AO2=
KANE 110245Z 02012G18KT 1 1/4SM -SN BKN004 OVC009 M01/M01
     A2967=
KBAK 110245Z 16018G26KT 3SM -RA BR OVC003 15/14 A2962 RMK LAST=
KCGF 110245Z 16015G20KT 10SM SCT100 SCT120 12/08 A2973=
KCWA 110247Z 04012G21KT 2 1/2SM -SN OVC010 M02/M03 A2952=
KD50 110255Z AUTO 20010KT 10SM CLR M09/M12 A2970 RMK AO2=
KEFT 110255Z AUTO 06011KT 1/2SM RA OVC002 03/02 A2934 RMK AO2
     P0017 60023 T00320023=
KFMH 110245Z 00000KT 8SM FEW026 SCT060 02/02 A3016=
KGYY 110245Z 150010G18KT 4SM BR OVC004 13/13 A2937=
KI43 110255Z AUTO 17004KT 10SM OVC015 15/13 A2983 RMK AO2 LTG DSNT
     W=
KJVL 110245Z 05009KT 2SM RA OVC004 04/04 A2937=
KLDJ 110255Z AUTO 00000KT 10SM SCT070 BKN080 07/01 A3012 RMK AO2
     T00650005=
KMMU 110245Z 00000KT 10SM BKN060 03/01 A3013=
KS32 110255Z AUTO 25009KT 10SM CLR M12/M12 A2973 RMK AO2 TSNO=
KSUW 110255Z AUTO 00000KT 10SM BKN060 OVC075 M03/M06 A2976 RMK AO2
     T10351057=
KUES 110245Z 06007KT 2 1/2SM RA OVC003 03/03 A2943=
KBEA 110255Z AUTO 15006KT 10SM CLR 22/22 A2978 RMK AO2
     T02240215=
KCCA 110255Z AUTO 00000KT 5SM BR FEW028 SCT043 OVC050 20/18 A2955
     RMK AO2=
KCPK 110255Z AUTO 00000KT 5SM BR SCT025 SCT033 OVC046 10/09 A3011
     RMK AO2 T00990092=
KDYA 110255Z AUTO 10SM BKN014 OVC019 22/20 A2994 RMK AO2
     T02170204=
KEMV 110255Z AUTO OVC003 09/09 RMK AO2 6//// T00920092 PWINO PNO
     TSNO=
KGEU 110249Z 00000KT 10SM SKC 15/03 A3012 RMK LAST=
KMFV 110255Z AUTO 19008KT 10SM -RA BKN036 BKN046 OVC090 A3009 RMK
     AO2 60001=
KRPD 110255Z AUTO 01010KT 1 1/4SM -SN OVC003 M01/M02 A2966 RMK AO2
     P0008 60019 T10061018=
KTGI 110255Z AUTO 19012G19KT 7SM OVC006 11/10 A3009 RMK AO1 60001
     T01070101=
KVBW 110255Z AUTO 00000KT 10SM SCT036 BKN042 OVC110 08/08 A3002
     RMK AO1 T00820079=
KX07 110255Z AUTO 11004KT 7SM CLR 21/20 A3016 RMK A01=
KFMH 110245Z 00000KT 8SM FEW026 SCT060 02/02 A3016=
KCHD 110247Z VRB04KT 10SM CLR 15/05 A3012=
KDVN 110249Z AUTO 13005KT 10SM -RA BKN014 BKN021 OVC025 11/10
     A2930 RMK AO2 LTG DSNT E AND SE RAB0155E05B23 SLP920 P0002
     60105 T01110100 56046=
KRYY 110250Z 09004KT 1/2SM -RA FG OVC002 12/12 A3006 RMK AO2
     SLP177 P0000 60000 T01170117 55002 $=
KSUN 110250Z 00000KT 10SM SKC M05/M09 A3011=
K1A5 110255Z AUTO 00000KT 7SM BKN010 OVC028 11/10 A3009 RMK AO2
     T01060100=
K27K 110255Z AUTO 18010G15KT 10SM OVC011 15/14 A2977 RMK AO1=
K8W2 110255Z AUTO 00000KT 7SM SCT025 SCT037 BKN060 08/07 A3002 RMK
     AO1 T00760070=
KBBP 110255Z AUTO 00000KT 5SM BR OVC007 11/11 A3015 RMK AO2=
KD55 110255Z AUTO 26005KT 10SM M15/M15 A2969 RMK AO2=
KETB 110255Z AUTO 08009G15KT 3SM RA OVC004 02/02 A2945 RMK AO2=


158 
SAPQ50 KWBC 110300
METAR
PGRO 110250Z 06012KT 7SM BKN015 BKN100 29/24 A2979=


173 
SAUS80 KWBC 110300
METAR
KJDN 110248Z AUTO 00000KT M08/M12 A2976 RMK AO1 SLP128 T10831122
     56002=
KESN 110245Z 00000KT 10SM BKN025 10/09 A3013=
KCLI 110255Z AUTO 07011G19KT 5SM -SN OVC005 00/00 A2952 RMK AO2
     P0003=


182 
SAUS70 KWBC 110300 RRA
METAR
KHFY 110255Z AUTO 15013G18KT 4SM OVC003 15/15 A2959 RMK AO2
     T01480148=
KL18 110255Z AUTO 33003KT 10SM CLR 10/08 A3014 RMK AO2=
KMAO 110255Z AUTO 00000KT 7SM OVC013 11/11 A3015 RMK AO2=
KMCJ 110255Z AUTO 19010G15KT 150V280 5SM BR SCT017 BKN025 OVC050
     25/22 A2982 RMK A01=
KPDC 110255Z AUTO 05005KT 5SM RA OVC008 01/00 A2938 RMK AO2 P0003
     60014 T00110000=
KPTB 110255Z AUTO 00000KT 10SM OVC025 11/09 A3010 RMK AO2
     T01130093 TSNO=
KRID 110255Z AUTO 16012G18KT 1/4SM FG OVC001 12/12 A2968 RMK
     AO2=
KRRL 110255Z AUTO 04011G18KT 2SM -SN OVC011 M02/M02 A2956 RMK AO2
     T10211025 TSNO=
KUNU 110255Z AUTO 06009G14KT 5SM RA OVC005 02/02 A2942 RMK AO2
     P0004 60013 T00180016=
KUNV 110253Z 00000KT 10SM SCT055 05/M01 A3001=
KXSA 110255Z AUTO 16004KT 10SM -RA OVC029 11/11 A3009 RMK AO2
     60003 T01120112=


534 
SASY31 OSDI 110300
OSDI 110300Z 33003KT CAVOK 04/01 Q1023=
OSLK 110300Z 05004KT CAVOK 10/04 Q1019=

846 
SAKA31 PTKK 110300
METAR PTKK 110253Z 35007G23KT 15SM FEW014 SCT120 BKN280 29/26 A2968
RMK SLP052 8/171 T02940260 57025=


245 
SAMP31 LMMM 110300
METAR HLLT NIL=
METAR HLLB NIL=
METAR LMML NIL=

025 
SAKA31 PTSA 110300
METAR PTSA 110252Z 06010KT 10SM -SHRA BKN018TCU BKN130 BKN300 29/26 
A2973 RMK TCU S-SW LAST


200 
SAXX70 KAWN 110300 RRA
METAR KQEY 110250Z AUTO 14001KT 4000 BR BKN003 OVC021 05/05 A3002 RMK
      A02 TSNO=
METAR KQFB 110250Z AUTO 27003KT 6000 HZ CLR 11/04 A3034 RMK A02 TSNO=
METAR KQFT 110250Z AUTO 33003KT 8000 HZ FEW027 07/04 A3031 RMK A02
      TSNO=


975 
SAMO31 ZMUB 110300
METAR ZMUB 110300Z VRB02MPS CAVOK M17/M21 Q1031 NOSIG=

990 
SAMO31 ZMUB 110300
METAR ZMUB 110300Z VRB02MPS CAVOK M17/M21 Q1031 NOSIG RMK QFE664.6 
 70=

403 
SAAJ31 UBBB 110300
METAR UBBL 110300Z 00000KT 3700 BR BKN016 05/05 Q1026
NOSIG RMK MT OP =


648 
SAUS14 KAWN 110300 RRA
METAR KBEA 110255Z AUTO 15006KT 10SM CLR 22/22 A2978 RMK AO2 T02240215=
METAR KCFO 110247Z 27008KT 10SM FEW090 M07/M14 A2993=
METAR KCHD 110247Z VRB04KT 10SM CLR 15/05 A3012=
METAR KDAG 110250Z AUTO 00000KT 10SM CLR 05/M09 A3020 RMK AO2 SLP229
      T00501089 51014=
METAR KEMT 110246Z 26003KT 10SM CLR 12/06 A3016=
METAR KGEU 110249Z 00000KT 10SM SKC 15/03 A3012 RMK LAST=
METAR KGYR 110247Z 00000KT 10SM BKN250 14/06 A3012=
METAR KJCT 110251Z AUTO 29003KT 10SM CLR 17/04 A2986 RMK AO2 SLP083
      T01670039 53035 $=
METAR KJDN 110248Z AUTO 00000KT M08/M12 A2976 RMK AO1 SLP128 T10831122
      56002=
METAR KJSO 110255Z AUTO 18009KT 10SM CLR 23/19 A2978 RMK AO2 T02310195=
METAR KL18 110255Z AUTO 33003KT 10SM CLR 10/08 A3014 RMK AO2=
METAR KLGU 110251Z AUTO 16007KT 10SM OVC060 M03/M08 A3018 RMK AO2 SNE0155
      SLP254 P0000 60000 T10331078 51013=
METAR KMCJ 110255Z AUTO 19010G15KT 150V280 5SM BR SCT017 BKN025 OVC050
      25/22 A2982 RMK A01=
METAR KMYL 110251Z AUTO 17007KT 10SM FEW030 SCT050 OVC095 M04/M08 A3004
      RMK AO2 SLP229 60000 T10391083 50002=
METAR KROW 110251Z 32015KT 10SM CLR 12/M08 A2992 RMK AO2 SLP095 T01221078
      51034=
METAR KSAN 110251Z 00000KT 10SM CLR 12/08 A3015 RMK AO2 SLP209 T01220083
      50006=
METAR KSUN 110250Z 00000KT 10SM SKC M05/M09 A3011=
METAR KTPL 110251Z AUTO 18009KT 10SM CLR 21/18 A2977 RMK AO2 SLP071
      T02060183 51021=
METAR KVCT 110251Z 18013KT 9SM OVC012 24/22 A2980 RMK AO2 SLP088 T02440222
      51018=
METAR KWHP 110250Z 00000KT 10SM SKC 11/04 A3019=


788 
SAKA31 PTYA 110300
METAR PTYA 110252Z 06007KT 12SM FEW017 BKN300 31/25 A2977 RMK SLP081
 8/102 T03110253 57020=


790 
SACH02 SCVM 110300
METAR SCVM 110300Z 31005KT 9999 BKN030 15/11 Q1015=


229 
SAEW KAWN 110300
METAR EDDB 110250Z VRB02KT 0800 R25R/1900N R25L/0800N FZFG OVC001 M01/M02
      Q1006 TEMPO 0500 FZFG=
METAR EDDF 110250Z 31006KT 9999 FEW006 BKN032 02/01 Q1006 NOSIG=
METAR EDDH 110250Z VRB02KT 5000 BR BKN043 01/01 Q1006 TEMPO 3000 BKN004=
METAR EDDP 110250Z 35006KT 0300 R08R/1600D R08L/0500N FZFG OVC001 M04/M04
      Q1005 TEMPO 0100 FZFG=
METAR EDDR 110250Z 28006KT 9999 BKN007 01/00 Q1007=
METAR EKAH 110250Z AUTO 28003KT 2300 -SN OVC003/// 00/00 Q1004=
METAR EKBI 110250Z AUTO 26004KT 3700 -RA BR OVC038/// 00/00 Q1005=
METAR EKCH 110250Z 24002KT 5000 -SHRA BKN007 00/00 Q1004 TEMPO BKN004=
METAR EKEB 110250Z AUTO 00000KT 6000 OVC056/// 00/M00 Q1005=
METAR EKKA 110250Z AUTO 25007KT 2700 BR FEW006/// FEW013/// FEW036///
      BKN044/// 01/00 Q1004=
METAR EKRK 110250Z AUTO 21001KT 1800 -SN BKN006/// OVC042/// M00/M01
      Q1004=
METAR EKRN 110250Z AUTO 22009KT 190V250 8000 DZ OVC008/// 02/01 Q1005=
METAR EKSB 110250Z AUTO 27004KT 9000 OVC057/// 03/01 Q1005=
METAR EKSP 110250Z 24005KT 5000 BR NSC 01/M00 Q1005=
METAR EKVD 110250Z AUTO 26004KT //// ///////// 01/00 Q1005=
METAR EKVG 110250Z AUTO 13006KT 9999 OVC006/// 05/05 Q0997 RMK BKN009///
      WIND SKEID 14013KT=
METAR EKYT 110250Z AUTO 00000KT 1600 BR FEW006/// SCT075/// OVC090///
      M00/M00 Q1004=
METAR LSGG 110250Z AUTO 21004KT 160V260 9999 -SN FEW015 BKN050 BKN085
      01/00 Q1013 NOSIG=
METAR LSZA 110250Z AUTO VRB02KT 9999 NCD M03/M04 Q1004=
METAR LSZB 110250Z AUTO 21004KT 160V260 9999 FEW042 SCT047 BKN075 03/M02
      Q1010 RESN=
METAR LSZH 110250Z AUTO 24010KT 210V280 9999 -SNRA FEW010 BKN015 02/M00
      Q1009 RESN TEMPO 4000 BKN012=


424 
SAUS80 KWBC 110300 RRA
METAR
KCDJ 110252Z AUTO 30009G21KT 09/06 A2938 RMK AO1 PK WND 31028/0231
     SLP953 T00890056 53014=
KN60 110252Z AUTO 27009KT M08/M11 A2974 RMK AO1 SLP107 T10831111
     58002=


431 
SAPQ50 KWBC 110300
METAR
PTKK 110253Z 35007G23KT 15SM FEW014 SCT120 BKN280 29/26 A2968 RMK
     SLP052 8/171 T02940260 57025=
PTSA 110252Z 06010KT 10SM -SHRA BKN018TCU BKN130 BKN300 29/26
     A2973 RMK TCU S-SW LAST=
PTYA 110252Z 06007KT 12SM FEW017 BKN300 31/25 A2977 RMK SLP081
     8/102 T03110253 57020=


440 
SAUS80 KWBC 110300
METAR
K6R6 110251Z AUTO 34013KT 21/02 A2988 RMK AO1 SLP090 T02110022
     51027=
KATT 110251Z AUTO VRB03KT 8SM CLR 22/18 A2979 RMK AO2 SLP079
     T02220178 53024=
KABE 110251Z 08003KT 10SM OVC050 06/01 A3012 RMK AO2 SLP202
     T00560006 55007=
KALB 110251Z 00000KT 10SM SCT060 SCT220 02/M02 A3012 RMK AO2
     SLP201 T00171017 55003=
KBDL 110251Z 29003KT 10SM BKN060 M01/M03 A3017 RMK AO2 SLP217
     T10111033 51001=
KBKW 110251Z AUTO 15009KT 10SM SCT024 13/12 A2996 RMK AO2 SLP139
     60000 T01330122 58015 TSNO=
KCAK 110251Z 16013KT 9SM BKN090 OVC120 12/09 A2978 RMK AO2 RAE34
     SLP086 P0005 60005 T01170089 58037=
KCON 110251Z AUTO 00000KT 10SM CLR M04/M06 A3018 RMK AO2 SLP224
     T10441061 57002=
KCRP 110251Z 17010KT 8SM FEW190 BKN250 23/22 A2979 RMK AO2 SLP085
     T02330222 51021=
KEKN 110251Z AUTO 00000KT 10SM SCT040 BKN060 BKN080 09/06 A2995
     RMK AO2 SLP150 T00890061 56014=
KELP 110251Z 04010KT 10SM FEW060 FEW200 12/00 A3005 RMK AO2 SLP139
     T01170000 51028=
KHSE 110251Z AUTO 19012KT 10SM FEW037 SCT110 21/16 A3016 RMK AO2
     SLP213 60000 T02060161 50002=
KHTS 110251Z 19007KT 10SM -RA SCT019 BKN050 OVC085 16/13 A2983 RMK
     AO2 RAB50 SLP098 P0000 60000 T01610133 56018=
KIGM 110251Z AUTO 05008KT 10SM CLR 02/M06 A3021 RMK AO2 SLP212
     T00221061 53022=
KMYL 110251Z AUTO 17007KT 10SM FEW030 SCT050 OVC095 M04/M08 A3004
     RMK AO2 SLP229 60000 T10391083 50002=
KORF 110251Z 00000KT 9SM SCT025 BKN037 OVC050 10/10 A3010 RMK AO2
     SLP193 T01000100 58012=
KOXR 110251Z 00000KT 10SM CLR 11/07 A3017 RMK AO2 SLP215 T01110072
     51017 $=
KPTS 110255Z AUTO 28006KT 10SM CLR 08/03 A2954 RMK AO2
     T00840032=
KPVD 110251Z 35005KT 10SM OVC024 04/01 A3017 RMK AO2 SLP215
     T00440006 58003=
KROW 110251Z 32015KT 10SM CLR 12/M08 A2992 RMK AO2 SLP095
     T01221078 51034=
KSAD 110251Z AUTO 32009KT 10SM CLR 10/03 A3008 RMK AO2 SLP170
     T01000028 51016=
KSAN 110251Z 00000KT 10SM CLR 12/08 A3015 RMK AO2 SLP209 T01220083
     50006=
KSAT 110251Z 30004KT 10SM SCT250 19/17 A2979 RMK AO2 SLP072
     T01940172 53016=
KTEB 110251Z 00000KT 10SM SCT065 BKN080 06/00 A3011 RMK AO2 SLP194
     T00560000 58011=
KVCT 110251Z 18013KT 9SM OVC012 24/22 A2980 RMK AO2 SLP088
     T02440222 51018=
KYNG 110251Z 13010KT 10SM -RA SCT018 OVC075 11/07 A2981 RMK AO2
     RAB28 PRESFR SLP099 P0000 60000 T01110072 58033=
KGDP 110251Z AUTO 26030G39KT 10SM CLR 08/01 A3001 RMK AO2 PK WND
     27048/0212 SLP130 T00780011 51019=
KSNT 110251Z AUTO 13003KT M08/M12 A3004 RMK AO1 SLP220 T10781122
     53008=
KCLI 110255Z AUTO 07011G19KT 5SM -SN OVC005 00/00 A2952 RMK AO2
     P0003=
KHTS 110251Z 19007KT 10SM -RA SCT019 BKN050 OVC085 16/13 A2983 RMK
     AO2 RAB50 SLP098 P0000 60000 T01610133 56018=
KYNG 110251Z 13010KT 10SM -RA SCT018 OVC075 11/07 A2981 RMK AO2
     RAB28 PRESFR SLP099 P0000 60000 T01110072 58033=
KBDL 110251Z 29003KT 10SM BKN060 M01/M03 A3017 RMK AO2 SLP217
     T10111033 51001=
KPVD 110251Z 35005KT 10SM OVC024 04/01 A3017 RMK AO2 SLP215
     T00440006 58003=
KTEB 110251Z 00000KT 10SM SCT065 BKN080 06/00 A3011 RMK AO2 SLP194
     T00560000 58011=
KJDN 110248Z AUTO 00000KT M08/M12 A2976 RMK AO1 SLP128 T10831122
     56002=
KMYL 110251Z AUTO 17007KT 10SM FEW030 SCT050 OVC095 M04/M08 A3004
     RMK AO2 SLP229 60000 T10391083 50002=
KROW 110251Z 32015KT 10SM CLR 12/M08 A2992 RMK AO2 SLP095
     T01221078 51034=
KSAN 110251Z 00000KT 10SM CLR 12/08 A3015 RMK AO2 SLP209 T01220083
     50006=
KVCT 110251Z 18013KT 9SM OVC012 24/22 A2980 RMK AO2 SLP088
     T02440222 51018=


441 
SAUS70 KWBC 110300
METAR
KBCT 110253Z 10004KT 10SM FEW020 24/21 A3014=
KDAG 110250Z AUTO 00000KT 10SM CLR 05/M09 A3020 RMK AO2 SLP229
     T00501089 51014=
KOCF 110251Z AUTO 13003KT 10SM BKN043 22/19 A3014 RMK AO2 SLP207
     T02220194 51008 $=
KOXC 110251Z AUTO 08004KT 10SM OVC055 01/M01 A3013 RMK AO2 SLP222
     T00061006 58001 FZRANO=
KTPL 110251Z AUTO 18009KT 10SM CLR 21/18 A2977 RMK AO2 SLP071
     T02060183 51021=
PAMD 110251Z AUTO 06022G32KT 10SM BKN011 BKN015 OVC022 02/01 A2849
     RMK AO2 PK WND 05032/0247 UPB10E16RAB16E48 SLP636 P0000 60000
     T00220006 53012 FZRANO=
K1P1 110255Z AUTO 00000KT 10SM BKN048 M02/M04 A3016 RMK AO2
     T10221044=
K24A 110255Z AUTO 35003KT 10SM OVC019 14/12 A3008 RMK AO2 LTG DSNT
     NW T01370120=
KACT 110251Z 24006KT 9SM CLR 21/17 A2975 RMK AO2 SLP068 T02110172
     52027=
KBAZ 110251Z AUTO 00000KT 8SM CLR 20/18 A2978 RMK AO2 SLP076
     T02000178 53022=
KBED 110251Z 00000KT 10SM BKN065 M02/M04 A3018 RMK AO2 SLP232
     T10171039 54000 $=
KBGD 110251Z AUTO 32012G19KT 10SM OVC100 06/M04 A2995 RMK AO2
     PRESRR SLP129 T00561044 51067=
KBHK 110251Z AUTO 25011KT 10SM CLR M06/M12 A2979 RMK AO2 SLP127
     T10561117 51002=
KBKS 110255Z AUTO 18008KT 10SM CLR 23/21 A2978 RMK AO2
     T02260211=
KCLE 110251Z 16014G21KT 10SM SCT110 OVC150 12/08 A2971 RMK AO2
     RAE18 SLP079 P0000 60000 T01220083 58045=
KCMH 110251Z 14008KT 6SM BR OVC011 12/11 A2977 RMK AO2 SLP080
     60006 T01220111 58033=
KCPF 110255Z AUTO 19005G19KT 10SM BKN050 OVC075 17/17 A2988 RMK
     AO2=
KDAW 110251Z AUTO 00000KT 10SM FEW008 SCT022 M03/M05 A3018 RMK AO2
     SLP220 T10281050 58001=
KDLL 110255Z AUTO 06010KT 4SM UP OVC004 00/00 A2941 RMK AO2 P0005
     60014 T10051005=
KERI 110251Z 15011G39KT 10SM BKN048 BKN055 11/04 A2982 RMK AO2 PK
     WND 15039/0243 SLP101 T01110044 58039=
KEWR 110251Z 02006KT 10SM SCT060 BKN090 BKN220 07/01 A3011 RMK AO2
     SLP196 T00670006 58015=
KGGI 110255Z AUTO 34009KT 1SM BR OVC002 04/04 A2931 RMK AO2 60001
     T00400036=
KGWW 110255Z AUTO 00000KT 4SM OVC004 11/11 A3013 RMK AO2
     T01060106=
KHDO 110251Z AUTO 36008KT 9SM CLR 18/16 A2979 RMK AO2 SLP075
     T01780156 52017=
KIFA 110255Z AUTO 01010KT 5SM BR OVC003 00/00 A2940 RMK AO2
     T00001003=
KILG 110251Z 04004KT 9SM -RA BKN035 OVC046 07/04 A3011 RMK AO2
     RAE16B45 SLP195 P0003 60004 T00720044 58004=
KJCT 110251Z AUTO 29003KT 10SM CLR 17/04 A2986 RMK AO2 SLP083
     T01670039 53035 $=
KLGA 110251Z 06005KT 10SM BKN065 BKN080 08/03 A3011 RMK AO2 SLP196
     T00780028 58010=
KLGU 110251Z AUTO 16007KT 10SM OVC060 M03/M08 A3018 RMK AO2
     SNE0155 SLP254 P0000 60000 T10331078 51013=
KMDZ 110255Z AUTO 02012KT 1/4SM OVC007 M03/M03 A2956 RMK AO2 P0002
     60004 T10261027 PWINO=
KMPV 110251Z AUTO 35003KT 10SM OVC045 M01/M04 A3015 RMK AO2 SLP226
     T10111039 55001=
KMWC 110245Z 04008KT 2SM -RA BR OVC004 04/03 A2944=
KOIC 110255Z AUTO 00000KT 10SM OVC048 00/M01 A3009 RMK AO2
     T00001014 PWINO=
KORD 110251Z 10006KT 1 1/4SM RA BR OVC002 08/07 A2932 RMK AO2
     PRESFR SLP932 P0003 60028 T00830067 58082=
KOXV 110255Z AUTO 33014KT 3/4SM BR OVC002 04/04 A2931 RMK AO2=
KPBH 110255Z AUTO 03007KT 1 1/4SM -SN OVC009 M03/M03 A2963 RMK AO2
     P0004 60012 T10301030=
KPHX 110251Z 30006KT 10SM OVC170 16/04 A3009 RMK AO2 SLP185
     T01560039 51017 $=
KPIT 110251Z 14003KT 8SM -RA FEW030 OVC085 11/07 A2988 RMK AO2
     RAB47 SLP128 P0000 60000 T01110072 57019=
KPPF 110252Z AUTO 31016G25KT 10SM FEW110 06/00 A2962 RMK AO2 PK
     WND 29028/0154 SLP029 T00610000 53063=


442 
SAUS70 KWBC 110300 RRA
METAR
KPRO 110255Z AUTO 36018G21KT 2 1/2SM BR OVC003 01/00 A2941 RMK AO2
     T00050002=
KPWM 110251Z 36003KT 10SM BKN050 BKN100 M03/M06 A3021 RMK AO2
     SLP231 T10331056 55004=
KRDU 110251Z 21005KT 10SM OVC014 13/10 A3012 RMK AO2 SLP197
     T01330100 55005=
KRHP 110255Z AUTO 27003KT 2 1/2SM -RA OVC017 12/11 A3003 RMK AO2
     P0003 60003 T01160109=
KSIF 110255Z AUTO 24003KT 10SM OVC010 11/07 A3010 RMK AO2
     T01140074=
KSJT 110251Z AUTO 26004KT 10SM CLR 17/03 A2985 RMK AO2 SLP096
     T01720033 51031 $=
KSLK 110251Z AUTO 00000KT 10SM OVC035 01/M01 A3002 RMK AO2 SLP184
     T00061011 58004=
KSTL 110251Z 23010G21KT 5SM TSRA FEW039 BKN048CB OVC110 17/13
     A2945 RMK AO2 PK WND 24034/0213 WSHFT 0200 LTG DSNT NE AND E
     SLP971 OCNL LTGICCCCG ALQDS TS ALQDS MOV NE P0057 60057
     T01670133 55007=
KY51 110255Z AUTO 06009KT 10SM OVC007 00/00 A2939 RMK AO1 60001
     T00000000=
PABA 110252Z AUTO 27024KT 1/2SM SN FZFG SCT015 OVC021 M18/M21
     A2938 RMK AO2 PK WND 27026/0252 SLP956 P0000 60000 T11831206
     51009 FZRANO=
KAHN 110251Z AUTO 06003KT 1/2SM FG VV002 11/11 A3008 RMK AO2
     SLP188 60001 T01060106 58008=
KCSG 110251Z AUTO 12004KT 5SM BR BKN007 19/18 A3004 RMK AO2 SLP171
     T01890178 50003=
KD55 110255Z AUTO 26005KT 10SM M15/M15 A2969 RMK AO2=
KDVN 110249Z AUTO 13005KT 10SM -RA BKN014 BKN021 OVC025 11/10
     A2930 RMK AO2 LTG DSNT E AND SE RAB0155E05B23 SLP920 P0002
     60105 T01110100 56046=
KETB 110255Z AUTO 08009G15KT 3SM RA OVC004 02/02 A2945 RMK AO2=
KHFY 110255Z AUTO 15013G18KT 4SM OVC003 15/15 A2959 RMK AO2
     T01480148=
KIUA 110255Z AUTO 14005KT 10SM CLR 04/01 A2994 RMK AO2
     T00380005=
KORD 110251Z 10006KT 1 1/4SM RA BR OVC002 08/07 A2932 RMK AO2
     PRESFR SLP932 P0003 60028 T00830067 58082=
KOXC 110251Z AUTO 08004KT 10SM OVC055 01/M01 A3013 RMK AO2 SLP222
     T00061006 58001 FZRANO=
KOXV 110255Z AUTO 33014KT 3/4SM BR OVC002 04/04 A2931 RMK AO2=
KPDC 110255Z AUTO 05005KT 5SM RA OVC008 01/00 A2938 RMK AO2 P0003
     60014 T00110000=
KRID 110255Z AUTO 16012G18KT 1/4SM FG OVC001 12/12 A2968 RMK
     AO2=
KRPD 110255Z AUTO 01010KT 1 1/4SM -SN OVC003 M01/M02 A2966 RMK AO2
     P0008 60019 T10061018=
KRRL 110255Z AUTO 04011G18KT 2SM -SN OVC011 M02/M02 A2956 RMK AO2
     T10211025 TSNO=
KSAW 110247Z 06007KT 1/2SM SN BKN004 OVC011 M02/M03 A2971=
KUNU 110255Z AUTO 06009G14KT 5SM RA OVC005 02/02 A2942 RMK AO2
     P0004 60013 T00180016=
KUNV 110253Z 00000KT 10SM SCT055 05/M01 A3001=
KCLE 110251Z 16014G21KT 10SM SCT110 OVC150 12/08 A2971 RMK AO2
     RAE18 SLP079 P0000 60000 T01220083 58045=
KERI 110251Z 15011G39KT 10SM BKN048 BKN055 11/04 A2982 RMK AO2 PK
     WND 15039/0243 SLP101 T01110044 58039=
KIFA 110255Z AUTO 01010KT 5SM BR OVC003 00/00 A2940 RMK AO2
     T00001003=
KILG 110251Z 04004KT 9SM -RA BKN035 OVC046 07/04 A3011 RMK AO2
     RAE16B45 SLP195 P0003 60004 T00720044 58004=
KLGA 110251Z 06005KT 10SM BKN065 BKN080 08/03 A3011 RMK AO2 SLP196
     T00780028 58010=
KMPV 110251Z AUTO 35003KT 10SM OVC045 M01/M04 A3015 RMK AO2 SLP226
     T10111039 55001=
KMWC 110245Z 04008KT 2SM -RA BR OVC004 04/03 A2944=
KPBH 110255Z AUTO 03007KT 1 1/4SM -SN OVC009 M03/M03 A2963 RMK AO2
     P0004 60012 T10301030=
KPIT 110251Z 14003KT 8SM -RA FEW030 OVC085 11/07 A2988 RMK AO2
     RAB47 SLP128 P0000 60000 T01110072 57019=
KPRO 110255Z AUTO 36018G21KT 2 1/2SM BR OVC003 01/00 A2941 RMK AO2
     T00050002=
KPWM 110251Z 36003KT 10SM BKN050 BKN100 M03/M06 A3021 RMK AO2
     SLP231 T10331056 55004=
KSLK 110251Z AUTO 00000KT 10SM OVC035 01/M01 A3002 RMK AO2 SLP184
     T00061011 58004=


452 
SAXX60 KWBC 110300 CCA
METAR
PHBK 110251Z AUTO 00000KT 5SM -RA OVC037 25/22 A3003 RMK AO2 RAB43
     SLP172 P0000 60000 T02500217 53001=


454 
SAGU31 MGGT 110300

METAR MGGT 110300Z 02014KT CAVOK 18/13 Q1021 A3015 FEW100=


455 
SAXX60 KWBC 110300
METAR
PHBK 110251Z AUTO 00000KT 5SM -RA OVC037 25/22 A3003 RMK AO2 RAB43
     SLP172 P0000 60000 T02500217 53001=


456 
SAUS70 KWBC 110300 RRB
METAR
KY51 110255Z AUTO 06009KT 10SM OVC007 00/00 A2939 RMK AO1 60001
     T00000000=
KBEA 110255Z AUTO 15006KT 10SM CLR 22/22 A2978 RMK AO2
     T02240215=
KCHD 110247Z VRB04KT 10SM CLR 15/05 A3012=
KDAG 110250Z AUTO 00000KT 10SM CLR 05/M09 A3020 RMK AO2 SLP229
     T00501089 51014=
KEMT 110246Z 26003KT 10SM CLR 12/06 A3016=
KGEU 110249Z 00000KT 10SM SKC 15/03 A3012 RMK LAST=
KGYR 110247Z 00000KT 10SM BKN250 14/06 A3012=
KJCT 110251Z AUTO 29003KT 10SM CLR 17/04 A2986 RMK AO2 SLP083
     T01670039 53035 $=
KJSO 110255Z AUTO 18009KT 10SM CLR 23/19 A2978 RMK AO2
     T02310195=
KL18 110255Z AUTO 33003KT 10SM CLR 10/08 A3014 RMK AO2=
KLGU 110251Z AUTO 16007KT 10SM OVC060 M03/M08 A3018 RMK AO2
     SNE0155 SLP254 P0000 60000 T10331078 51013=
KMCJ 110255Z AUTO 19010G15KT 150V280 5SM BR SCT017 BKN025 OVC050
     25/22 A2982 RMK A01=
KSUN 110250Z 00000KT 10SM SKC M05/M09 A3011=
KTPL 110251Z AUTO 18009KT 10SM CLR 21/18 A2977 RMK AO2 SLP071
     T02060183 51021=
KWHP 110250Z 00000KT 10SM SKC 11/04 A3019=


567 
SAMX52 MMGL 110300
METAR COR MMSP 110252Z 07006KT 8SM  SKC 18/M05 A3017 
      RMK SLP122 52009 965 CI=





TX_OPMET


572 
SAGU31 MGGT 110300
 
METAR MGMM 110300Z 00000KT CAVOK 22/21 Q1015 A2997=
METAR MGHT 110300Z 00000KT CAVOK 17/10
METAR MGPB 110300Z NIL=
METAR MGGT 110300Z 02014KT CAVOK 18/13 Q1021 A3015 FEW100=


574 
SAKA31 PTRO 110300
METAR PTRO 110250Z 04007KT 14SM BKN015TCU BKN120 BKN300 30/25 A2978 
RMK TCU SW-W


918 
SAPK31 OPKC 110300
METAR OPKC 110255Z 00000KT 4000 HZ NSC 11/02 Q1020 NOSIG=


927 
SAGU31 MGGT 110300
METAR MGMM 110300Z 00000KT CAVOK 22/21 Q1015 A2997=
METAR MGHT 110300Z 00000KT CAVOK 17/10=
METAR MGPB 110300Z NIL=
METAR MGGT 110300Z 02014KT CAVOK 18/13 Q1021 A3015 FEW100=


679 
SAPM31 MPTO 110300
METAR MPPA 110300Z 01008KT 9999 FEW020 26/23 Q1009=


778 
SAID32 WADL 110300
METAR WADL 110300Z 24007KT 2000 RA OVC016 25/24 Q1011 TEMPO TL0430
RA=

779 
SAMZ40 FQMA 110300
METAR FQTT 110300Z 13004KT CAVOK 29/17 Q1011=

729 
SAES20 MSLP 110300
METAR

MSAC 110250Z NIL=
MSSA 110250Z NIL=
MSSS 110250Z NIL=
MSSM 110250Z NIL=
MSLU 110250Z NIL=
MSLP 110250Z 02004KT CAVOK 24/21 Q1011 A2986 NOSIG= 


798 
SACH01 SCEL 110300
METAR SCEL 110300Z 16007KT CAVOK 15/11 Q1014 NOSIG=


804 
SAMX52 MMGL 110300
METAR COR MMSP 110252Z 07006KT 8SM  SKC 13/M01 A3017 
      RMK SLP122 52009 965 CI=





TX_OPMET


912 
SANA14 KAWN 110300
METAR MSLP 110250Z 02004KT CAVOK 24/21 Q1011 A2986 NOSIG=


914 
SARS18 KAWN 110300
METAR EETN 110250Z 12011KT 9999 OVC005 M02/M02 Q1014=
METAR EFHK 110250Z 10012KT 9999 OVC005 M00/M01 Q1016 NOSIG=
METAR EVLA 110250Z AUTO 12004KT 9999 -RA BKN009/// BKN063/// OVC073///
      01/00 Q1008=
METAR EVRA 110250Z 12007KT 090V150 9999 -SN OVC005 01/00 Q1010 NOSIG=
METAR EYKA 110250Z 00000KT 0800 R08/P2000N FG VV008 02/01 Q1008=
METAR EYPA 110250Z 17004KT 9999 OVC004 01/00 Q1009=
METAR EYVI 110250Z 11005KT 5000 -RA BR OVC006 03/03 Q1008 NOSIG=


918 
SAZZ40 KAWN 110300 RRA
METAR BGBW 110250Z AUTO 00000KT 9999NDV BKN160/// M02/M10 Q0981=
METAR BGGH 110250Z AUTO 06005KT 9999NDV SCT190/// M06/M10 Q0987=
METAR BGJN 110250Z AUTO 09015KT 9999NDV NCD M03/M16 Q0991=
METAR BGKK 110250Z AUTO 07022G35KT 9999NDV FEW043/// FEW051/// BKN130///
      02/M06 Q0983=
METAR BGSF 110250Z AUTO 08009KT 9999NDV BKN120/// M11/M16 Q0989=
METAR EFOU 110250Z AUTO 13006KT 6000 -FZDZSN OVC007 M03/M04 Q1019=
METAR KSAN 110251Z 00000KT 10SM CLR 12/08 A3015 RMK AO2 SLP209 T01220083
      50006=
METAR LLBG 110250Z VRB03KT CAVOK 11/08 Q1016 NOSIG=
METAR MHCA 110300Z 00000KT 9999 FEW030 22/19=
METAR MHLC 110300Z 31003KT 9999 FEW026 24/22 Q1014 A2995 NOSIG=
METAR MHLM 110300Z 03006KT 9999 FEW025 BKN080 25/22 Q1014 A2994 NOSIG=
METAR MHRO 110300Z 09012KT 9999 FEW025 27/23 Q1014 A2995 NOSIG=
METAR MHTG 110300Z 26003KT 9999 BKN030 19/17 Q1021 A3015 NOSIG=
METAR MSLP 110250Z 02004KT CAVOK 24/21 Q1011 A2986 NOSIG=
METAR NSTU 110250Z 08015KT 12SM FEW018 BKN110 31/26 A2982 RMK SLP098
      8/120 T03060263 56008=
METAR OJAQ 110300Z 36005KT CAVOK 15/04 Q1017 NOSIG=
METAR OSDI 110300Z 33003KT CAVOK 04/01 Q1023=
METAR OSLK 110300Z 05004KT CAVOK 10/04 Q1019=
METAR PABA 110252Z AUTO 27024KT 1/2SM SN FZFG SCT015 OVC021 M18/M21
      A2938 RMK AO2 PK WND 27026/0252 SLP956 P0000 60000 T11831206
      51009 FZRANO=
METAR ROTM 110256Z 07009KT 9999 FEW035 SCT050 23/15 A3024 RMK SLP226
      T02330150 57010=


156 
SAPM31 MPTO 110300
METAR MPMG 110300Z 31005KT 9999 FEW030 26/23 Q1010 NOSIG=


160 
SATO31 NFTF 110300
METAR NFTV 110300Z 36008KT 9999 FEW009 BKN016TCU 27/24 Q1011=
METAR NFTL 110300Z 11006KT 9999 FEW016 28/22 Q1011=
METAR NFTF 110300Z 10011G21KT 9999 FEW018TCU 29/25 Q1012=


710 
SAAJ31 UBBB 110300
METAR UBEE 110300Z 31004KT 2000 BR SCT023
OVC100 08/08 Q1026 NOSIG=


026 
SAFJ31 NFNA 110300
METAR NFNA 110300Z 08009KT 9999 SCT020 SCT048 30/23 Q1009=


242 
SAUS14 KAWN 110300 RRB
METAR KACT 110251Z 24006KT 9SM CLR 21/17 A2975 RMK AO2 SLP068 T02110172
      52027=
METAR KBAZ 110251Z AUTO 00000KT 8SM CLR 20/18 A2978 RMK AO2 SLP076
      T02000178 53022=
METAR KBGD 110251Z AUTO 32012G19KT 10SM OVC100 06/M04 A2995 RMK AO2
      PRESRR SLP129 T00561044 51067=
METAR KBHK 110251Z AUTO 25011KT 10SM CLR M06/M12 A2979 RMK AO2 SLP127
      T10561117 51002=
METAR KBKS 110255Z AUTO 18008KT 10SM CLR 23/21 A2978 RMK AO2 T02260211=
METAR KCRP 110251Z 17010KT 8SM FEW190 BKN250 23/22 A2979 RMK AO2 SLP085
      T02330222 51021=
METAR KELP 110251Z 04010KT 10SM FEW060 FEW200 12/00 A3005 RMK AO2 SLP139
      T01170000 51028=
METAR KHDO 110251Z AUTO 36008KT 9SM CLR 18/16 A2979 RMK AO2 SLP075
      T01780156 52017=
METAR KIGM 110251Z AUTO 05008KT 10SM CLR 02/M06 A3021 RMK AO2 SLP212
      T00221061 53022=
METAR KOXR 110251Z 00000KT 10SM CLR 11/07 A3017 RMK AO2 SLP215 T01110072
      51017 $=
METAR KPHX 110251Z 30006KT 10SM OVC170 16/04 A3009 RMK AO2 SLP185 T01560039
      51017 $=
METAR KSAD 110251Z AUTO 32009KT 10SM CLR 10/03 A3008 RMK AO2 SLP170
      T01000028 51016=
METAR KSAT 110251Z 30004KT 10SM SCT250 19/17 A2979 RMK AO2 SLP072 T01940172
      53016=
METAR KSJT 110251Z AUTO 26004KT 10SM CLR 17/03 A2985 RMK AO2 SLP096
      T01720033 51031 $=
METAR KSMX 110251Z 30006KT 10SM CLR 09/03 A3017 RMK AO2 SLP221 T00890033
      53019 $=


483 
SAUS14 KAWN 110300 RRC
METAR KABI 110252Z 26009KT 8SM FEW110 19/03 A2983 RMK AO2 SLP080 T01940028
      51027=
METAR KADS 110247Z 00000KT 13SM SKC 24/07 A2972=
METAR KATT 110251Z AUTO VRB03KT 8SM CLR 22/18 A2979 RMK AO2 SLP079
      T02220178 53024=
METAR KBLU 110252Z AUTO 00000KT 10SM CLR M01/M03 A3015 RMK AO2 SLP238
      T10111033 53006=
METAR KGDP 110251Z AUTO 26030G39KT 10SM CLR 08/01 A3001 RMK AO2 PK
      WND 27048/0212 SLP130 T00780011 51019=
METAR KHRL 110252Z 18019G31KT 10SM BKN019 26/23 A2979 RMK AO2 PK WND
      17031/0244 SLP087 T02560228 51022=
METAR KLAA 110253Z AUTO 34008G19KT 10SM FEW110 00/M09 A2993 RMK AO2
      SLP143 60000 T00001094 51044=
METAR KLKV 110253Z AUTO 19008KT 10SM CLR M03/M10 A3015 RMK AO2 SLP258
      T10281100 53002 FZRANO=
METAR KLND 110253Z AUTO 00000KT 10SM CLR M07/M18 A2990 RMK AO2 SLP177
      T10671178 51011=
METAR KMLF 110252Z AUTO 28007KT 10SM CLR M11/M14 A3026 RMK AO2 SLP305
      T11111144 53019=
METAR KMWH 110252Z 18013KT 10SM SCT090 04/M01 A2994 RMK AO2 SLP153
      T00391011 56022=
METAR KSMO 110251Z 31004KT 10SM CLR 12/08 A3016 RMK AO2 SLP214 T01220083
      51020 $=
METAR KSNT 110251Z AUTO 13003KT M08/M12 A3004 RMK AO1 SLP220 T10781122
      53008=
METAR KSPS 110252Z 26012KT 10SM BKN023 OVC120 21/02 A2973 RMK AO2 SLP057
      T02060022 53034=
METAR KTRM 110252Z AUTO 00000KT 10SM CLR 09/01 A3015 RMK AO2 SLP209
      T00940011 51018=


484 
SAPM31 MPTO 110300
METAR MPDA 110300Z 27004KT 230V320 9999 FEW020 25/24 Q1009=


352 
SALC31 TLPL 110300
METAR TLPL 110300Z 08017KT 9999 FEW026 26/23 Q1012 NOSIG=

540 
SAUS70 KWBC 110300 RRA
METAR
KMSS 110253Z AUTO 04007KT 7SM OVC044 M02/M04 A3011 RMK AO2 SLP201
     T10221044 51007=
KMWH 110252Z 18013KT 10SM SCT090 04/M01 A2994 RMK AO2 SLP153
     T00391011 56022=
KOKB 110252Z AUTO 33003KT 10SM CLR 08/08 A3014 RMK AO2 SLP204
     T00830083 50007=
KOKC 110252Z 34018G26KT 10SM SCT065 SCT250 08/M02 A2976 RMK AO2 PK
     WND 33031/0153 SLP074 T00781017 53065=
KOMA 110252Z 33021G31KT 2SM -SN BR BKN007 BKN011 OVC015 00/M02
     A2955 RMK AO2 PK WND 34031/0244 SLP013 P0002 60003 I3000
     T00001017 53018=
KORB 110253Z AUTO 00000KT 10SM M07/M07 A2972 RMK AO2=
KORE 110252Z AUTO 00000KT 6SM BR CLR M03/M04 A3016 RMK AO2 SLP220
     I1000 I3000 T10281044 50000=
KOTM 110253Z AUTO 33007KT 1/4SM FG VV002 07/07 A2926 RMK AO2
     RAE0158 SLP912 P0000 60002 T00720072 56028=
KPWK 110252Z 09007KT 3SM -RA BR OVC004 09/08 A2933 RMK AO2
     RAE43B52 SLP934 P0016 60045 T00890078 56068=
KPYM 110252Z AUTO 00000KT 4SM BR FEW026 SCT065 02/01 A3016 RMK AO2
     SLP215 T00170006 55001=
KRAP 110252Z 28006KT 10SM CLR M10/M11 A2984 RMK AO2 SLP154 I1000
     I3001 T11001106 50007 $=
KSGF 110252Z 20013KT 10SM CLR 14/11 A2947 RMK AO2 PK WND
     21034/0204 RAE01 TSE0159 SLP973 P0000 60020 T01440111
     55002=
KSMO 110251Z 31004KT 10SM CLR 12/08 A3016 RMK AO2 SLP214 T01220083
     51020 $=
KSPI 110252Z 20019G39KT 9SM VCTS RA SCT045 SCT075 OVC090 15/13
     A2941 RMK AO2 PK WND 20052/0233 LTG DSNT NE-S TSB12E50 SLP958
     P0030 60030 T01500128 56013=
KSUX 110252Z 34020G34KT 1 3/4SM SN FZFG SCT010 OVC017 M01/ A2964
     RMK AO2 PK WND 35034/0244 SLP045 P0001 60008 T1011 53007
     $=
KTAN 110252Z AUTO 00000KT 9SM OVC026 03/02 A3016 RMK AO2 SLP215
     T00280017 56001=
KTRM 110252Z AUTO 00000KT 10SM CLR 09/01 A3015 RMK AO2 SLP209
     T00940011 51018=
KXVG 110253Z AUTO 00000KT 10SM OVC080 M06/M07 A2973 RMK AO2=
PAKU 110253Z 26011KT 10SM R24/P6000FT -SHSN SCT034 BKN055 BKN240
     M23/M25 A2943=
PAKU 110253Z 26011KT 10SM R24/P6000FT -SHSN SCT034 BKN055 BKN240
     M23/M25 A2943=
PATA 110252Z 00000KT 10SM SCT060 OVC075 M12/M16 A2915 RMK AO2
     SLP878 T11221161 53024 $=
K1P1 110255Z AUTO 00000KT 10SM BKN048 M02/M04 A3016 RMK AO2
     T10221044=
KBED 110251Z 00000KT 10SM BKN065 M02/M04 A3018 RMK AO2 SLP232
     T10171039 54000 $=
KCMH 110251Z 14008KT 6SM BR OVC011 12/11 A2977 RMK AO2 SLP080
     60006 T01220111 58033=
KDAW 110251Z AUTO 00000KT 10SM FEW008 SCT022 M03/M05 A3018 RMK AO2
     SLP220 T10281050 58001=
KDLL 110255Z AUTO 06010KT 4SM UP OVC004 00/00 A2941 RMK AO2 P0005
     60014 T10051005=
KEWR 110251Z 02006KT 10SM SCT060 BKN090 BKN220 07/01 A3011 RMK AO2
     SLP196 T00670006 58015=
KGGI 110255Z AUTO 34009KT 1SM BR OVC002 04/04 A2931 RMK AO2 60001
     T00400036=
KMDZ 110255Z AUTO 02012KT 1/4SM OVC007 M03/M03 A2956 RMK AO2 P0002
     60004 T10261027 PWINO=
KOIC 110255Z AUTO 00000KT 10SM OVC048 00/M01 A3009 RMK AO2
     T00001014 PWINO=
K1S5 110255Z AUTO 11006KT 10SM SCT080 OVC110 05/00 A3000 RMK AO2
     T00510002=
K20U 110255Z AUTO 26009KT 10SM CLR M07/M10 A2978 RMK AO2=
KAQP 110253Z AUTO 32004KT 10SM BKN006 M02/M03 A2976 RMK AO2=
KARV 110255Z AUTO 04007KT 3/4SM SN OVC002 M01/M17 A2964 RMK AO2
     P0008 60013 T10151172=
KASJ 110255Z AUTO 17003KT 1/2SM RA OVC003 09/09 A3012 RMK AO2
     T00910091=
KBWW 110255Z AUTO 25013KT 10SM CLR M07/M10 A2977 RMK AO2=
KCBF 110255Z AUTO 34016G22KT 3SM -SN BKN008 OVC012 M01/M01 A2951
     RMK AO2=
KCDH 110255Z AUTO 19015G21KT 10SM BKN026 OVC032 24/21 A2967 RMK
     AO2=
KCQW 110255Z AUTO 00000KT 5SM BR OVC006 12/11 A3014 RMK AO2
     PWINO=


544 
SAUS80 KWBC 110300 RRA
METAR
PABE 110253Z 31017KT 5SM BR OVC017 M16/M18 A2967 RMK AO2 PK WND
     32026/0240 SNB44E52 SLP051 P0000 60000 T11611183 51041=
PACD 110253Z AUTO 32031G42KT 1 1/2SM -SN BKN032 OVC041 M04/M08
     A2980 RMK AO2 PK WND 33049/0233 VIS 1/2V5 SLP093 P0001 60001
     T10441078 53033 TSNO=
PADQ 110253Z 29021G32KT 9SM -SN OVC027 M03/M09 A2881 RMK AO2 PK
     WND 29034/0202 SNB03 SLP757 P0000 60000 T10331094 51015=
PAFA 110253Z VRB03KT 1 3/4SM -SN BR BKN023 OVC035 M12/M15 A2902
     RMK AO2 SLP839 P0002 60003 T11171150 53026=
PAHO 110253Z 00000KT 10SM OVC060 M02/M06 A2881 RMK AO2 SLP756
     T10221056 53024=
PAJN 110253Z 10009KT 8SM -SN SCT014 BKN036 OVC120 01/M03 A2890 RMK
     AO2 SLP786 P0000 60002 T00111028 58005=
PAMC 110253Z AUTO 32009KT 10SM CLR M16/M19 A2930 RMK AO2 SLP933
     T11561194 51036 TSNO=
PANC 110253Z 36008KT 10SM FEW012 SCT034 OVC040 M04/M12 A2881 RMK
     AO2 SLP757 T10391122 53027=
PANN 110253Z AUTO VRB05KT 4SM -SN OVC042 M12/M16 A2906 RMK AO2
     SLP852 P0000 60001 T11171156 51024 TSNO=
PAOM 110253Z 32011KT 10SM CLR M20/M26 A2972 RMK AO2 SLP065
     T12001256 51022=
PAOR 110253Z 00000KT 3SM -SN OVC031 M18/M21 A2879 RMK AO2 SLP815
     T11831211 51019=
PAOT 110253Z 31028KT 10SM CLR M22/M26 A2954 RMK AO2 PK WND
     31033/0243 SLP005 T12221256 51020=
PAQT 110253Z 19006KT 4SM HZ OVC045 M26/M29 A2945 RMK (SCC FSS)=
PATK 110253Z AUTO 00000KT 10SM OVC060 M09/M11 A2878 RMK AO2 SLP753
     60002 T10941111 53022 TSNO=
PAYA 110253Z AUTO 08016KT 1/4SM +SN FZFG VV005 M01/M02 A2867 RMK
     AO2 SLP708 P0008 60025 T10111017 56007 TSNO RVRNO=
PHJR 110253Z 07008KT 10SM CLR 27/18 A3004 RMK AO2 SLP180 T02720178
     53004=
PHNL 110253Z 06013G20KT 10SM FEW022 SCT040 26/18 A3004 RMK AO2
     SLP171 T02610183 53004=
PHNL 110253Z 06013G20KT 10SM FEW022 SCT040 26/18 A3004 RMK AO2
     SLP171 T02610183 53004=
PHTO 110253Z 11006KT 10SM FEW027 24/18 A3005 RMK AO2 SLP174
     T02440183 53002=
PHKO 110253Z 21007KT 10SM FEW009 SCT025 BKN065 27/21 A2998 RMK AO2
     SLP152 T02670206 53005=
PHLI 110253Z 06016G20KT 9SM BKN027 OVC035 24/22 A3007 RMK AO2
     RAB28E52 SLP179 P0001 60001 T02440217 55001 $=
PHJR 110253Z 07008KT 10SM CLR 27/18 A3004 RMK AO2 SLP180 T02720178
     53004=
KAAF 110253Z AUTO 15009KT 3SM BR OVC003 21/21 A3009 RMK AO2 SLP188
     T02060206 50004=
KBDR 110252Z 03003KT 10SM SCT060 04/01 A3014 RMK AO2 SLP204
     T00390011 58006=
KBFF 110253Z AUTO 28009KT 10SM CLR M06/M09 A2991 RMK AO2 SLP166
     60001 T10611094 51023=
KBIL 110253Z 26015KT 10SM CLR M02/M15 A2983 RMK AO2 SLP139
     T10221150 57000=
KBNO 110253Z AUTO 09004KT 10SM OVC050 M01/M04 A3010 RMK AO2 SLP228
     T10061039 56008=
KBTR 110253Z 10SM SCT018 BKN023 BKN030 23/21 A2992 RMK AO2 SLP131
     T02330211 50008=
KCDR 110253Z AUTO 24007KT 10SM FEW017 M11/M12 A2990 RMK AO2 SNE06
     SLP180 P0000 60000 T11061122 51007=
KCHA 110253Z 17004KT 1 1/4SM BR OVC002 13/13 A2996 RMK AO2 SLP145
     T01330128 58012=
KCLL 110253Z AUTO 18010KT 9SM CLR 24/22 A2977 RMK AO2 SLP076
     T02440217 53015=
KCRQ 110253Z 00000KT 10SM CLR 11/08 A3012 RMK AO2 SLP200 T01110078
     50005=
KCUT 110253Z AUTO 32006KT 10SM CLR M09/M14 A2977 RMK AO2 SLP138
     T10891139 51009=
KDAB 110253Z 00000KT 6SM BR CLR 19/18 A3015 RMK AO2 SLP207
     T01890178 50004=
KDAL 110253Z 22005KT 10SM FEW046 FEW230 23/13 A2971 RMK AO2 SLP056
     T02330128 52024=
KDBQ 110253Z 36010KT 4SM -SN BR OVC003 03/02 A2932 RMK AO2 LTG
     DSNT E AND SE RAB31E32 SLP939 P0005 60032 T00280022 56046=
KDMN 110253Z AUTO 27017G25KT 10SM CLR 08/M02 A3005 RMK AO2 SLP147
     T00781017 53008=


546 
SAUS70 KWBC 110300 RRO
METAR
KXNA 110253Z 22012G24KT 10SM BKN050 19/15 A2954 RMK AO2 PK WND
     23031/0202 RAE0159 SLP993 P0000 60001 T01940150 55000=
KXWA 110251Z AUTO 26008KT 10SM CLR M10/M14 A2972 RMK AO2 SLP118
     T11001144 58001=
KYIP 110253Z 11006KT 3SM -RA SCT005 OVC011 09/07 A2967 RMK AO2 CIG
     008V013 SLP047 P0024 60032 T00940067 56052 $=
KZZV 110253Z AUTO 16011KT 10SM BKN013 OVC018 12/11 A2981 RMK AO2
     RAE04 SLP093 P0000 60005 T01220111 58030=
PAAQ 110253Z AUTO 00000KT 10SM OVC029 M07/M11 A2878 RMK AO2 SLP750
     T10721106 51024=
PAPB 110253Z AUTO SCT021 BKN034 A3009 RMK AO2 SLPNO 51034 PWINO
     FZRANO TSNO $=
KTHV 110253Z AUTO 10005KT 10SM OVC028 07/01 A3006 RMK AO2 SLP185
     T00720006 58011=
KTIW 110253Z 20013G25KT 10SM -RA BKN030 OVC045 06/05 A2989 RMK AO2
     PK WND 20032/0206 RAB13 SLP123 P0000 60001 T00560050
     56032=
KTKI 110253Z 23008KT 10SM OVC038 25/08 A2971 RMK AO2 SLP056
     T02500083 53025=
KTMB 110253Z 00000KT 10SM CLR 23/21 A3012 RMK AO2 SLP199 T02280206
     50006=
KTOI 110253Z AUTO 17005KT 10SM BKN012 OVC019 23/19 A3004 RMK AO2
     SLP169 T02280194 51008=
KTOP 110253Z AUTO 30021G33KT 10SM OVC019 03/M02 A2958 RMK AO2 PK
     WND 31033/0213 SLP018 60000 T00281017 51046=
KTOR 110253Z AUTO 20006KT 10SM CLR M08/M11 A2991 RMK AO2 SLP175
     60000 T10831106 51022=
KTPA 110253Z 06005KT 10SM FEW025 SCT046 24/21 A3013 RMK AO2 SLP202
     T02390206 51007 $=
KTQE 110254Z AUTO M01/M03 A2961 RMK AO2 PK WND 34034/0247 SNEMM
     PRESRR SLP030 P0001 60002 T10061028 53018 PWINO FZRANO $=
KTRL 110253Z AUTO 24010KT 10SM FEW060 SCT075 BKN110 23/19 A2973
     RMK AO2 SLP062 T02330189 53021=
KTTD 110253Z 19006KT 10SM -RA BKN034 OVC050 09/03 A3006 RMK AO2
     RAB40 SLP178 P0000 60000 T00890033 58022=
KTTN 110253Z 00000KT 10SM OVC050 06/03 A3012 RMK AO2 RAB32E42
     SLP194 P0000 60000 T00610028 55008=
KTUL 110253Z 30022G30KT 10SM FEW040 FEW110 11/01 A2963 RMK AO2 PK
     WND 29038/0215 SLP030 T01060011 53048=
KTVC 110253Z AUTO 05006KT 4SM -RA BR OVC012 02/00 A2962 RMK AO2
     RAB01SNE01 PRESFR SLP035 P0009 60011 T00170000 58060=
KTVR 110253Z AUTO 18011G19KT 10SM SCT033 SCT043 25/19 A2984 RMK
     AO2 SLP109 T02500194 50004=
KTWF 110253Z 21012KT 10SM OVC060 M02/M08 A3017 RMK AO2 SLP236
     T10221083 53003=
KTXK 110253Z 21011G20KT 10SM CLR 24/20 A2967 RMK AO2 LTG DSNT N
     AND NE SLP043 T02440200 51001=
KTYR 110253Z 20014G23KT 10SM CLR 24/19 A2972 RMK AO2 SLP059
     T02390194 51013 $=
KUAO 110253Z 19013G21KT 10SM OVC029 08/03 A3006 RMK AO2 RAB19E39
     SLP179 P0001 60001 T00830028 56023=
KUNO 110253Z AUTO 19010G17KT 10SM CLR 21/17 A2951 RMK AO2 LTG DSNT
     W-N SLP984 T02060172 56025=


547 
SAPQ50 KWBC 110300
METAR
PTRO 110250Z 04007KT 14SM BKN015TCU BKN120 BKN300 30/25 A2978 RMK
     TCU SW-W=


550 
SAUS80 KWBC 110300 RRC
METAR
KSNT 110251Z AUTO 13003KT M08/M12 A3004 RMK AO1 SLP220 T10781122
     53008=
KSPS 110252Z 26012KT 10SM BKN023 OVC120 21/02 A2973 RMK AO2 SLP057
     T02060022 53034=
KN60 110252Z AUTO 27009KT M08/M11 A2974 RMK AO1 SLP107 T10831111
     58002=
KTOL 110252Z 15007KT 110V170 7SM OVC008 12/10 A2965 RMK AO2 RAE07
     PRESFR SLP043 P0000 60012 T01220100 56050=
KVTN 110252Z AUTO 30008KT 10SM OVC070 M03/M06 A2985 RMK AO2 SNE21
     SLP139 P0000 60000 T10331061 51014=
KCID 110252Z AUTO 01009KT 4SM BR SCT003 BKN016 BKN022 05/05 A2928
     RMK AO2 RAB0159E28 SLP923 P0010 60019 T00500050 58017=
KMBG 110252Z AUTO 32006KT 10SM CLR M04/M07 A2976 RMK AO2 SLP101
     T10391067 50002=
KVTI 110255Z AUTO 00000KT 5SM BR OVC005 03/03 A2931 RMK AO2 P0002
     60003 T00330033=
KODX 110253Z AUTO 34017G25KT 3SM -SN BR FEW013 FEW020 OVC035
     M02/M04 A2978 RMK AO2 PK WND 34026/0158 SLP106 P0000 60001
     T10221044 53014=
KPDX 110253Z 17008KT 10SM OVC032 08/03 A3006 RMK AO2 SLP177 60000
     T00830033 58020 $=
KPGA 110253Z AUTO 27006KT 10SM CLR 01/M12 A3021 RMK AO2 SLP234
     T00111117 53025=
KPOF 110253Z AUTO 21020G30KT 10SM -TSRA SCT022 BKN090 OVC110 18/16
     A2957 RMK AO2 PK WND 18047/0232 LTG DSNT NE-S RAB04 TSB06
     PRESRR SLP010 P0028 60028 T01830156 55008=
KRIW 110253Z AUTO 29019G28KT 10SM CLR M06/M18 A2989 RMK AO2 PK WND
     29028/0249 SLP167 T10611183 50007=
KRMG 110253Z AUTO 16007KT 2 1/2SM BR OVC002 14/13 A2999 RMK AO2
     SLP153 T01440128 58005=
KRNM 110253Z 00000KT 10SM CLR 06/05 A3013 RMK AO2 SLP204 T00610050
     50005=
KRQE 110253Z AUTO 00000KT 10SM CLR M06/M10 A3016 RMK AO2 SLP212
     T10561100 51034=
KSAV 110253Z 12005KT 6SM BR FEW060 15/14 A3013 RMK AO2 SLP202
     T01500144 58002=
KLWD 110253Z AUTO 30013G20KT 1 1/2SM BR OVC002 03/03 A2936 RMK AO2
     SLP950 T00330028 53008=
KLXV 110253Z AUTO 31012G17KT 2SM -SN OVC025 M16/M19 A2987 RMK AO2
     PK WND 31028/0221 SNB0155 SLP146 P0000 60001 T11611189
     51015=
KMCN 110253Z AUTO 14006KT 1/4SM FG VV002 18/17 A3007 RMK AO2
     SLP180 T01780172 58004=
KMGM 110253Z 17007KT 10SM BKN016 BKN023 22/19 A3001 RMK AO2 SLP161
     T02220194 51010=
KMLU 110253Z 19014G21KT 10SM CLR 24/21 A2979 RMK AO2 SLP085
     T02440206 58001=
KMSN 110253Z 02007KT 4SM RA BR OVC005 02/02 A2939 RMK AO2 SLP961
     P0013 60023 T00220017 56063=
KMSO 110253Z AUTO 00000KT 10SM OVC060 M02/M06 A2998 RMK AO2 SLP188
     T10171061 50000=
KSDM 110253Z 00000KT 10SM CLR 12/08 A3012 RMK AO2 SLP198 T01220078
     50005=
KSEA 110253Z 18013G25KT 10SM -RA SCT034 OVC042 07/03 A2987 RMK AO2
     PK WND 18030/0155 RAB51 SLP123 P0000 60000 T00670028
     58036=
KSTC 110253Z 35007KT 1 3/4SM -SN BR OVC024 M03/M04 A2972 RMK AO2
     SLP087 P0002 60011 T10281039 58011=
PABE 110253Z 31017KT 5SM BR OVC017 M16/M18 A2967 RMK AO2 PK WND
     32026/0240 SNB44E52 SLP051 P0000 60000 T11611183 51041=
PADQ 110253Z 29021G32KT 9SM -SN OVC027 M03/M09 A2881 RMK AO2 PK
     WND 29034/0202 SNB03 SLP757 P0000 60000 T10331094 51015=
PHNL 110253Z 06013G20KT 10SM FEW022 SCT040 26/18 A3004 RMK AO2
     SLP171 T02610183 53004=
KTCS 110253Z AUTO 34006KT 10SM CLR 09/M07 A3004 RMK AO2 SLP138
     T00891072 53036=
KTLH 110253Z 15005KT 1/2SM FG VV002 19/19 A3010 RMK AO2 SLP191
     T01890189 50005=
KTRI 110253Z 00000KT 6SM BR FEW055 FEW075 08/07 A2996 RMK AO2
     SLP136 T00830072 58016 $=
KTUP 110253Z 18018G23KT 10SM BKN019 23/21 A2978 RMK AO2 PK WND
     18027/0230 SLP082 60001 T02330206 58008 $=
KTUS 110253Z 35005KT 10SM CLR 12/06 A3012 RMK AO2 SLP184 T01220056
     53017=


551 
SAUS70 KWBC 110300 RRB
METAR
KEZS 110255Z AUTO 06012G19KT 2SM -SN OVC005 01/01 A2951 RMK AO2
     P0001 60004 T00110010=
KFRH 110255Z AUTO 17009G14KT 10SM OVC008 17/17 A2959 RMK AO1=
KGAF 110255Z AUTO 22004KT 10SM CLR M12/M13 A2974 RMK AO2=
KGEV 110255Z AUTO 00000KT 7SM CLR 06/04 A3006 RMK AO2
     T00570036=
KGGE 110255Z AUTO 00000KT 4SM BR SCT026 BKN047 OVC120 12/12 A3016
     RMK AO2=
KINF 110255Z AUTO 7SM CLR 19/19 A3014 RMK AO2=
KIPJ 110255Z AUTO 00000KT 1/4SM FG OVC003 10/10 A3010 RMK AO2
     T01040103=
KJXI 110255Z AUTO 18011G19KT 10SM CLR 24/18 A2971 RMK AO2
     T02360175=
KMAW 110255Z AUTO 18014KT 10SM TSRA SCT007 SCT012 BKN044 A2957 RMK
     AO2 P0002 LTG DSNT ALQS=
KMBY 110255Z AUTO 18011G16KT 10SM CLR 16/12 A2933 RMK AO2=
KMHL 110255Z AUTO 27014G31KT 10SM SCT043 16/10 A2938 RMK AO2=
KMYJ 110255Z AUTO 19013KT 10SM SCT065 15/13 A2936 RMK AO2=
KOIN 110255Z AUTO 33012KT 10SM OVC045 M02/M04 A2991 RMK AO1
     T10251041=
KOWA 110253Z AUTO 01015G19KT 1 1/4SM -SN OVC008 M02/M03 A2952 RMK
     AO2=
KRBW 110255Z AUTO 00000KT 7SM CLR 13/13 A3015 RMK AO2=
KRCX 110255Z AUTO 00000KT 1SM SN M02/M02 A2964 RMK AO2 P0003 60009
     T10181018=
KSXK 110255Z AUTO 35022G29KT 1/2SM -SN OVC002 M03/M03 A2962 RMK
     AO2=
PABA 110252Z AUTO 27024KT 1/2SM SN FZFG SCT015 OVC021 M18/M21
     A2938 RMK AO2 PK WND 27026/0252 SLP956 P0000 60000 T11831206
     51009 FZRANO=
PAAQ 110253Z AUTO 00000KT 10SM OVC029 M07/M11 A2878 RMK AO2 SLP750
     T10721106 51024=
PABR 110253Z 00000KT 7SM SCT042 OVC100 M22/M24 A2941 RMK AO2
     SNB23E35 SLP960 P0000 60000 T12171244 53015=
PACV 110253Z 30003KT 10SM R27/6000VP6000FT CLR M05/M07 A2862 RMK
     AO2 SLP692 I1001 I3001 T10501067 53012=
PAEG 110253Z AUTO 00000KT 2SM -SN BR OVC021 M13/M15 A2886 RMK AO2
     SNB24 SLP789 P0001 60001 T11281150 53018 TSNO=
PAEN 110253Z 33006KT 10SM OVC050 M05/M09 A2882 RMK AO2 SLP761
     T10501089 52028=
PAGK 110253Z AUTO 00000KT 10SM BKN041 OVC110 M14/M17 A2873 RMK AO2
     SNB10E31 SLP782 P0000 60000 T11391167 51013 TSNO=
PAGY 110253Z AUTO 20016G22KT 8SM FEW022 OVC042 01/M01 A2882 RMK
     AO2 PK WND 21028/0218 SNB20E50 SLP759 P0000 60000 T00111011
     50004 TSNO $=
PALH 110253Z 36006KT 10SM OVC036 M05/M12 A2882 RMK AO2 SLP760
     T10501117 51027=
PAMR 110253Z 33007KT 10SM OVC037 M04/M13 A2881 RMK AO2 SLP758
     T10441128 51027 $=
PAPB 110253Z AUTO SCT021 BKN034 A3009 RMK AO2 SLPNO 51034 PWINO
     FZRANO TSNO $=
PASI 110253Z 08008KT 8SM FEW016 SCT041 BKN070 01/M02 A2890 RMK AO2
     SNB0155E01 SLP785 P0000 60003 T00111022 58013 $=
PASO 110253Z AUTO VRB04KT 5SM -SN OVC026 M02/M05 A2881 RMK AO2
     SNB31 SLP757 P0000 60000 T10171050 53023 TSNO=
PATO 110253Z AUTO 27008KT 3SM -SN BR OVC040 M04/M07 A2877 RMK AO2
     SNB00 SLP741 P0000 60000 T10441067 51025 TSNO=
PAVL 110253Z AUTO 31011KT 9SM FEW029 BKN065 OVC080 M21/M24 A2965
     RMK AO2 SLP039 60000 T12111239 53017 TSNO=
PAWD 110253Z AUTO 02015G26KT 10SM CLR M02/M08 A2871 RMK AO2 PK WND
     36031/0203 SLP722 60000 T10171078 53028 TSNO=
PAWI 110253Z AUTO 32013KT 2SM -SN BR OVC028 M15/M17 A2941 RMK AO2
     SLP960 T11501172 53022 TSNO=
KAAO 110254Z AUTO 31019G27KT 10SM CLR 02/M04 A2971 RMK AO2 PK WND
     28030/0208 SLP063 T00171044 53045=
KABR 110253Z AUTO 22005KT 10SM CLR M06/M08 A2979 RMK AO2 SLP108
     T10561078 50004=
KABY 110253Z AUTO 18005KT 7SM BKN007 20/18 A3009 RMK AO2 SLP189
     T02000183 51002=
KACK 110253Z 16005KT 10SM FEW070 09/08 A3017 RMK AO2 SLP215
     T00940078 55007=
KACV 110253Z AUTO 10003KT 10SM CLR 06/04 A3022 RMK AO2 SLP243
     T00560039 58004=


552 
SAUS70 KWBC 110300 RRD
METAR
KBHM 110253Z 19016G22KT 7SM BKN030 BKN070 22/21 A2996 RMK AO2
     SLP132 T02170206 52003 $=
KBIV 110253Z AUTO 09008KT 3SM RA BR OVC004 06/06 A2947 RMK AO2
     SLP984 P0013 60035 T00610056 58060=
KBKE 110253Z AUTO 23008KT 10SM CLR 00/M04 A3009 RMK AO2 SLP216
     T00001039 58004=
KBKL 110253Z 16013G21KT 10SM FEW100 SCT120 13/08 A2972 RMK AO2 PK
     WND 16026/0224 RAB04E21 SLP064 P0000 60000 T01330083
     58048=
KBKV 110253Z AUTO 10003KT 3SM BR CLR 18/18 A3014 RMK AO2 SLP205
     T01830183 51007=
KBLI 110253Z 16019G39KT 10SM OVC020 07/04 A2976 RMK AO2 PK WND
     14039/0247 RAB02E41 SLP086 P0000 60000 T00720039 58046=
KBMG 110253Z AUTO 15012KT 6SM BR OVC002 16/16 A2956 RMK AO2 LTG
     DSNT E RAE31 SLP008 TS VC W MOV E P0010 60011 T01610156
     58043=
KBMQ 110253Z AUTO 00000KT 10SM CLR 19/16 A2981 RMK AO2 SLP081
     T01890161 51022 TSNO=
KBNA 110253Z 17016G20KT 9SM BKN015 BKN021 OVC026 20/17 A2978 RMK
     AO2 RAE02B24E34 SLP079 P0000 60000 T02000172 58020=
KBOI 110253Z 13006KT 10SM OVC065 01/M04 A3018 RMK AO2 SLP243
     T00111039 53002=
KBPI 110253Z AUTO 25003KT 10SM CLR M15/M18 A3001 RMK AO2 SLP245
     T11501178 51018=
KBPK 110253Z AUTO 24007KT 10SM CLR 22/16 A2952 RMK AO2 LTG DSNT W
     SLP989 T02170156 55016=
KBPT 110253Z 17012G20KT 6SM BR BKN009 BKN027 OVC044 24/22 A2985
     RMK AO2 SLP107 T02390222 53007=
KBRD 110253Z AUTO 00000KT 9SM OVC060 M03/M06 A2973 RMK AO2 SLP088
     T10331061 58013 TSNO=
KBRL 110253Z AUTO 21007KT 6SM BR CLR 14/13 A2928 RMK AO2 SLP915
     60004 T01390133 56029=
KBRO 110253Z 17012KT 10SM OVC016 26/23 A2981 RMK AO2 SLP091
     T02610233 51017 $=
KBTL 110253Z 15014G22KT 6SM BR OVC004 11/09 A2951 RMK AO2
     RAB0154E37 PRESFR SLP996 P0000 60029 T01060094 58064=
KBTM 110253Z AUTO 12007KT 10SM FEW047 OVC055 M05/M14 A2991 RMK AO2
     SLP195 T10501139 51006=
KBUR 110253Z 00000KT 10SM CLR 13/04 A3015 RMK AO2 SLP205 T01280044
     53020 $=
KBVO 110253Z AUTO VRB05KT 10SM FEW070 BKN080 08/00 A2967 RMK AO2
     SLP043 T00780000 53069=
KBVY 110253Z AUTO 35004KT 10SM OVC031 00/M02 A3018 RMK AO2 SLP216
     6//// T00001017 55003 PNO=
KBWG 110253Z AUTO 18014G22KT 10SM OVC011 20/18 A2973 RMK AO2 LTG
     DSNT N SLP064 T02000178 58027=
KBYG 110253Z AUTO 23009KT 10SM CLR M10/M17 A2982 RMK AO2 SLP150
     T11001167 50001=
KBYI 110253Z AUTO 24010KT 10SM BKN060 M02/M08 A3016 RMK AO2 SLP240
     T10221078 51010=
KCAG 110253Z AUTO 29007KT 10SM CLR M13/M16 A3007 RMK AO2 SLP257
     T11331156 53022=
KCCR 110253Z 12005KT 10SM CLR 08/01 A3024 RMK AO2 SLP225 T00780006
     53012=
KCDC 110253Z AUTO 35005KT 10SM CLR M12/M16 A3022 RMK AO2 SLP287
     T11221156 53016=
KCDS 110253Z AUTO 01023G29KT 10SM CLR 11/M03 A2986 RMK AO2 PK WND
     01029/0253 WSHFT 0208 SLP101 T01061028 53058=
KCDW 110253Z 00000KT 10SM SCT060 BKN080 06/00 A3013 RMK AO2 SLP208
     T00560000 58010=
KCEW 110253Z AUTO VRB05KT 10SM BKN007 OVC013 23/22 A3006 RMK AO2
     CIG 006V011 SLP175 T02280217 51005=
KCEZ 110253Z AUTO 11004KT 10SM CLR M07/M11 A3016 RMK AO2 SLP235
     T10671106 51029=
KCHO 110253Z 00000KT 10SM OVC017 08/04 A3005 RMK AO2 RAB19E28
     SLP177 P0000 60000 T00780039 58008=
KCKB 110253Z 12006KT 10SM OVC024 13/11 A2988 RMK AO2 RAE07B10E20
     PRESFR SLP112 P0000 60014 T01280106 58019=
KCLM 110253Z AUTO VRB04KT 7SM -RA OVC036 05/03 A2974 RMK AO2
     SLP073 P0003 60006 T00500033 58041=
KCMI 110253Z 17023G31KT 4SM RA BR OVC004 17/16 A2942 RMK AO2 PK
     WND 15034/0212 LTG DSNT ALQDS RAB44 SLP961 P0001 60001
     T01670156 56065=
KCNM 110253Z AUTO 10SM CLR 14/00 A2993 RMK AO2 SLP102 T01390000
     53021 $=


553 
SAUS70 KWBC 110300 RRN
METAR
KSFF 110253Z 20004KT 10SM OVC070 02/M01 A2999 RMK AO2 SLP171
     T00171011 58006=
KSGR 110253Z 20010G20KT 10SM BKN022 BKN028 OVC039 27/22 A2982 RMK
     AO2 SLP099 T02670217 51018=
KSHN 110253Z AUTO 18010KT 4SM -RA BR BKN014 OVC019 07/06 A2985 RMK
     AO2 SLP113 P0006 60013 T00670061 56032=
KSHR 110253Z AUTO 21004KT 10SM CLR M07/M14 A2984 RMK AO2 SLP154
     T10721139 50000=
KSIY 110253Z AUTO 00000KT 10SM CLR 01/M04 A3019 RMK AO2 SLP255
     T00061044 56004=
KSJC 110253Z 25003KT 10SM FEW080 SCT120 09/02 A3024 RMK AO2 SLP239
     T00890017 51015=
KSLN 110253Z 30017KT 10SM BKN029 00/M04 A2973 RMK AO2 SLP076
     T00001039 53041=
KSMF 110253Z 00000KT 10SM CLR 06/01 A3022 RMK AO2 SLP233 T00610006
     51009=
KSMQ 110253Z AUTO 00000KT 10SM BKN060 OVC085 04/02 A3011 RMK AO2
     SLP198 T00390017 56007=
KSNA 110253Z 00000KT 10SM CLR 14/08 A3015 RMK AO2 SLP210 T01390083
     51015=
KSNS 110253Z AUTO 26006KT 10SM CLR 10/04 A3023 RMK AO2 SLP247
     T01000044 51020=
KSNY 110253Z AUTO 31015KT 7SM -SN FEW016 SCT042 BKN095 M05/M07
     A2987 RMK AO2 SNE30B50 SLP152 P0000 60000 T10501067 51018=
KSPB 110253Z AUTO VRB06KT 10SM OVC016 08/05 A3003 RMK AO2 RAE42
     SLP168 P0001 60003 T00780050 58021=
KSPG 110253Z AUTO 05004KT 7SM SCT044 BKN055 22/22 A3011 RMK AO2
     SLP194 T02220217 52006=
KSPW 110253Z AUTO 36022G32KT 1SM HZ BKN012 OVC018 M01/M04 A2955
     RMK AO2 PK WND 36032/0247 SLP020 60003 T10111039 57009 PWINO
     FZRANO $=
KSRQ 110253Z 00000KT 7SM CLR 21/21 A3010 RMK AO2 SLP192 T02060206
     51005=
KSSF 110253Z 00000KT 8SM CLR 22/18 A2977 RMK AO2 SLP071 T02170178
     53019=
KSSI 110253Z AUTO 15004KT 6SM BR CLR 18/18 A3013 RMK AO2 SLP203
     T01830178 50003=
KSTJ 110253Z AUTO 28016G27KT 8SM OVC009 03/01 A2951 RMK AO2 PK WND
     30028/0223 SLP995 T00280006 51043=
KSTP 110253Z 01012G21KT 3/4SM -SN VV009 00/M03 A2965 RMK AO2
     SLP045 P0000 60000 T00001028 58023 RVRNO=
KSTS 110253Z 00000KT 10SM CLR 06/M01 A3023 RMK AO2 SLP231
     T00611006 53010=
KTCC 110253Z AUTO 32019G27KT 10SM CLR 06/M13 A2994 RMK AO2 PK WND
     30043/0159 PRESRR SLP120 T00561128 53070=
KTCL 110253Z AUTO 18010KT 10SM BKN017 22/21 A2993 RMK AO2 SLP134
     T02220206 51003=
KUTS 110253Z AUTO 19013G21KT 10SM FEW019 26/21 A2979 RMK AO2
     SLP082 T02560206 53012=
KUUU 110253Z AUTO 32003KT 7SM OVC024 05/04 A3015 RMK AO2 SLP210
     T00500044 56003=
KVCB 110253Z AUTO 26003KT 10SM CLR 05/01 A3024 RMK AO2 SLP241
     T00500006 51013=
KVEL 110253Z AUTO 00000KT 10SM CLR M13/M15 A3013 RMK AO2 SLP259
     T11281150 53027=
KVGT 110253Z 06005KT 10SM CLR 09/M11 A3025 RMK AO2 SLP265
     T00891111 51025=
KVIH 110253Z AUTO 23013G27KT 4SM TSRA BR FEW042 BKN060 BKN075
     16/14 A2947 RMK AO2 PK WND 22027/0248 WSHFT 0234 LTG DSNT
     ALQDS RAB37 TSB39 SLP975 P0012 60069 T01560144 58001=
KVLD 110253Z AUTO 20003KT 7SM CLR 18/17 A3011 RMK AO2 SLP202
     T01780172 50005 $=
KVNY 110251Z 00000KT 10SM CLR 12/06 A3015 RMK AO2 SLP208 T01220056
     52021=
KVRB 110253Z AUTO 00000KT 3SM BR CLR 19/18 A3014 RMK AO2 SLP206
     T01940178 50003=
KVUO 110253Z AUTO 17006KT 10SM OVC027 08/04 A3006 RMK AO2 SLP178
     60000 T00780039 58020=
KWLD 110254Z AUTO 30020G27KT 10SM CLR 04/M03 A2972 RMK AO2 PK WND
     30030/0216 SLP066 T00441028 51056=
KWRL 110253Z AUTO 00000KT 10SM CLR M15/M18 A2989 RMK AO2 SLP193
     T11501178 50007=
KWST 110253Z AUTO 36003KT 7SM CLR 01/M01 A3015 RMK AO2 SLP209
     T00061006 56008=
KWVI 110253Z AUTO 35005KT 10SM CLR 07/05 A3023 RMK AO2 SLP238
     T00670050 51015=


555 
SAUS70 KWBC 110300 RRC
METAR
KADG 110253Z AUTO 15006KT 10SM -RA OVC002 08/08 A2964 RMK AO2
     PRESFR SLP043 P0004 60037 T00780078 56053=
KAFW 110253Z 27012KT 9SM SCT030 SCT110 SCT220 24/05 A2970 RMK AO2
     SLP047 T02390050 51024=
KAGC 110253Z 17005KT 10SM SCT036 SCT075 BKN090 12/07 A2989 RMK AO2
     SLP127 T01220072 58015=
KAGS 110253Z 00000KT 1SM BR BKN002 BKN006 OVC085 13/13 A3011 RMK
     AO2 SLP194 T01330128 58004 RVRNO=
KAIA 110253Z AUTO 31006KT 10SM FEW040 BKN110 M07/M08 A2987 RMK AO2
     SNE37 SLP154 P0000 60000 T10671078 51024=
KAKO 110253Z AUTO 32018G24KT 10SM CLR M06/M10 A2989 RMK AO2 PK WND
     32028/0228 SLP162 T10611100 51039=
KALI 110253Z AUTO 17009KT 10SM CLR 24/22 A2978 RMK AO2 SLP080
     T02440217 51021=
KALW 110253Z AUTO 17014KT 10SM OVC070 05/M01 A3006 RMK AO2 SLP186
     60000 T00501006 58010=
KAMA 110253Z 34014KT 10SM CLR 03/M04 A2992 RMK AO2 SLP117
     T00281044 51068=
KAMG 110253Z AUTO 13003KT 7SM CLR 18/18 A3011 RMK AO2 SLP192
     T01830183 50005=
KAMW 110253Z AUTO 35014KT 2SM BR OVC004 01/M01 A2937 RMK AO2
     SLP951 T00061011 58014=
KANB 110253Z AUTO 21006KT 10SM BKN021 OVC026 21/19 A2999 RMK AO2
     SLP153 T02060189 50000=
KAOH 110253Z AUTO 18013G21KT 5SM BR OVC004 13/12 A2968 RMK AO2
     SLP050 60001 T01280117 58034=
KAOO 110253Z AUTO 14003KT 10SM CLR 06/M01 A2999 RMK AO2 SLP165
     T00611011 58012=
KAPA 110253Z 31015G22KT 10SM FEW080 FEW100 M06/M17 A2992 RMK AO2
     PK WND 29027/0207 SLP176 T10561167 51030=
KAPF 110253Z AUTO 11003KT 9SM FEW036 23/22 A3011 RMK AO2 SLP196
     60003 T02330222 50006=
KARA 110253Z AUTO 17012KT 7SM SCT007 OVC019 23/22 A2991 RMK AO2
     SLP127 T02280217 50003 $=
KARB 110253Z AUTO 14004KT 2 1/2SM RA BR BKN004 OVC008 08/07 A2965
     RMK AO2 SLP045 P0022 60035 T00780072 58050=
KASD 110253Z AUTO 17005KT 6SM BR BKN005 OVC019 22/21 A2996 RMK AO2
     SLP146 T02220211 51009 TSNO=
KASE 110253Z AUTO 01005KT 4SM -SN BR OVC016 M12/M14 A3002 RMK AO2
     UPE06SNB06 SLP196 P0000 60000 T11171139 51025=
KASX 110253Z AUTO 01006KT 1SM -SN BR VV016 M02/M04 A2974 RMK AO2
     SNB18 SLP085 P0001 60001 T10171039 58001=
KATY 110253Z AUTO 28005KT 10SM OVC080 M03/M04 A2976 RMK AO2 SLP098
     T10281039 50002=
KAUG 110253Z AUTO 00000KT 8SM OVC047 M06/M08 A3020 RMK AO2 SLP234
     T10561078 58001=
KAUS 110253Z 00000KT 10SM FEW250 20/19 A2979 RMK AO2 SLP079
     T02000189 53026=
KAWM 110253Z AUTO 19019G30KT 10SM BKN080 24/18 A2963 RMK AO2 PK
     WND 19034/0216 SLP030 T02440183 56019=
KAXN 110253Z AUTO 28003KT 7SM OVC070 M04/M04 A2974 RMK AO2 SLP095
     T10391044 58007=
KAZO 110253Z 14008G19KT 4SM BR OVC004 11/09 A2949 RMK AO2 RAE27
     PRESFR SLP988 P0000 60021 T01110094 58059=
KBAF 110253Z 36003KT 10SM CLR M02/M03 A3016 RMK AO2 SLP221
     T10171033 51001=
KBBW 110253Z AUTO 33015G22KT 9SM -SN SCT014 OVC038 M03/M05 A2980
     RMK AO2 PK WND 32026/0233 SLP117 P0000 60000 T10281050
     51027=
KBDE 110253Z AUTO 16003KT 10SM CLR M09/M11 A2971 RMK AO2 SLP083
     T10891111 56010=
KBEH 110253Z AUTO 14010G19KT 4SM BR OVC005 12/11 A2940 RMK AO2
     RAB0154E27 PRESFR SLP958 P0001 60007 T01170106 58076=
KBFD 110253Z AUTO 13007KT 10SM FEW038 05/00 A2990 RMK AO2 SLP137
     T00500000 58027=
KBFI 110253Z 16015G26KT 8SM -RA BKN023 OVC040 07/03 A2988 RMK AO2
     PK WND 18028/0224 RAB34 SLP119 P0000 60000 T00720033
     58037=
KBFM 110253Z 16006KT 1/2SM FG VV002 21/21 A3003 RMK AO2 SLP167
     T02110206 53007=
KBGM 110253Z 12006KT 10SM BKN043 BKN050 01/M02 A3001 RMK AO2
     SLP177 T00111017 58010=
KBGR 110253Z 00000KT 10SM FEW018 OVC047 M06/M08 A3021 RMK AO2
     SLP234 T10611078 58001=


556 
SAXX60 KWBC 110300 CCA
METAR
PHBK 110251Z AUTO 00000KT 5SM -RA OVC037 25/22 A3003 RMK AO2 RAB43
     SLP172 P0000 60000 T02500217 53001=
KNTD 110252Z 06003KT 10SM CLR 10/07 A3017 RMK AO2 SLP219 T01000067
     51019 CHINO N VISNO N $=
KBAN 110252Z AUTO 00000KT 10SM CLR M07/M11 A3013 RMK AO2 SLP272
     T10721111 51014 $=
KNIP 110253Z 16007KT 10SM CLR 20/19 A3014 RMK AO2 SLP202 T02000194
     51003=


557 
SAUS80 KWBC 110300
METAR
KREO 110252Z AUTO 16013KT M02/M11 A3013 RMK AO1 SLP237 T10221111
     58002=
KNYC 110251Z AUTO 06004KT 10SM FEW060 BKN080 08/01 A3013 RMK AO2
     SLP195 T00780011 58012=
KABI 110252Z 26009KT 8SM FEW110 19/03 A2983 RMK AO2 SLP080
     T01940028 51027=
KABQ 110252Z 34015G31KT 10SM FEW060 SCT200 00/M16 A3014 RMK AO2 PK
     WND 34031/0244 SLP205 T00001161 53038=
KALS 110252Z AUTO 30007KT 10SM CLR M11/M19 A3001 RMK AO2 SLP196
     T11111194 51043 $=
KBLU 110252Z AUTO 00000KT 10SM CLR M01/M03 A3015 RMK AO2 SLP238
     T10111033 53006=
KCID 110252Z AUTO 01009KT 4SM BR SCT003 BKN016 BKN022 05/05 A2928
     RMK AO2 RAB0159E28 SLP923 P0010 60019 T00500050 58017=
KCNU 110252Z AUTO 30016G27KT 10SM FEW110 06/00 A2961 RMK AO2 PK
     WND 30031/0227 SLP023 T00610000 51062=
KCNY 110253Z AUTO 30013KT 10SM CLR M04/M13 A3017 RMK AO2 SLP247
     T10391133 53028=
KLND 110253Z AUTO 00000KT 10SM CLR M07/M18 A2990 RMK AO2 SLP177
     T10671178 51011=
KMBG 110252Z AUTO 32006KT 10SM CLR M04/M07 A2976 RMK AO2 SLP101
     T10391067 50002=
KMFD 110252Z 16013KT 9SM OVC007 12/11 A2974 RMK AO2 SLP071 60003
     T01170106 58037=
KMHK 110252Z 30011G21KT 10SM OVC023 02/M03 A2965 RMK AO2 SLP047
     T00171033 53024=
KMLF 110252Z AUTO 28007KT 10SM CLR M11/M14 A3026 RMK AO2 SLP305
     T11111144 53019=
KSMX 110251Z 30006KT 10SM CLR 09/03 A3017 RMK AO2 SLP221 T00890033
     53019 $=
KSPS 110252Z 26012KT 10SM BKN023 OVC120 21/02 A2973 RMK AO2 SLP057
     T02060022 53034=
KTOL 110252Z 15007KT 110V170 7SM OVC008 12/10 A2965 RMK AO2 RAE07
     PRESFR SLP043 P0000 60012 T01220100 56050=
KVTN 110252Z AUTO 30008KT 10SM OVC070 M03/M06 A2985 RMK AO2 SNE21
     SLP139 P0000 60000 T10331061 51014=
KCQC 110253Z AUTO 31028G39KT 10SM CLR M06/M14 A3002 RMK AO2 PK WND
     32039/0204 SLP183 T10561144 51036=
KP69 110252Z AUTO 00000KT 01/ A3013 RMK AO1 SLP226 60005 T0006
     58002 $=
KABE 110251Z 08003KT 10SM OVC050 06/01 A3012 RMK AO2 SLP202
     T00560006 55007=
KALB 110251Z 00000KT 10SM SCT060 SCT220 02/M02 A3012 RMK AO2
     SLP201 T00171017 55003=
KBKW 110251Z AUTO 15009KT 10SM SCT024 13/12 A2996 RMK AO2 SLP139
     60000 T01330122 58015 TSNO=
KCAK 110251Z 16013KT 9SM BKN090 OVC120 12/09 A2978 RMK AO2 RAE34
     SLP086 P0005 60005 T01170089 58037=
KCON 110251Z AUTO 00000KT 10SM CLR M04/M06 A3018 RMK AO2 SLP224
     T10441061 57002=
KEKN 110251Z AUTO 00000KT 10SM SCT040 BKN060 BKN080 09/06 A2995
     RMK AO2 SLP150 T00890061 56014=
KCQT 110252Z AUTO 00000KT 10SM CLR 13/08 A3015 RMK AO2 SLP211
     T01280083 51021=
KP59 110251Z AUTO 21003KT M02/M03 A2978 RMK AO1 SLP096 T10171033
     56024=
K77S 110255Z AUTO 00000KT 10SM SCT055 BKN065 OVC080 06/05 A3013
     RMK A01=
KATT 110251Z AUTO VRB03KT 8SM CLR 22/18 A2979 RMK AO2 SLP079
     T02220178 53024=
KCDJ 110252Z AUTO 30009G21KT 09/06 A2938 RMK AO1 PK WND 31028/0231
     SLP953 T00890056 53014=
KGDP 110251Z AUTO 26030G39KT 10SM CLR 08/01 A3001 RMK AO2 PK WND
     27048/0212 SLP130 T00780011 51019=
KN60 110252Z AUTO 27009KT M08/M11 A2974 RMK AO1 SLP107 T10831111
     58002=
KVTI 110255Z AUTO 00000KT 5SM BR OVC005 03/03 A2931 RMK AO2 P0002
     60003 T00330033=
KOQT 110253Z AUTO 29003KT 3SM -RA BR OVC009 11/09 A2997 RMK AO2
     RAE07B47 SLP151 P0000 60000 T01060094 58014=
KSAN 110251Z 00000KT 10SM CLR 12/08 A3015 RMK AO2 SLP209 T01220083
     50006=
KTCS 110253Z AUTO 34006KT 10SM CLR 09/M07 A3004 RMK AO2 SLP138
     T00891072 53036=
KNUI 110253Z AUTO 00000KT 9SM OVC009 12/09 A3008 RMK AO2 SLP185
     T01220089 56005=


622 
SAUS80 KWBC 110300 RRD
METAR
KTYS 110253Z 05003KT 10SM BKN038 BKN048 OVC060 11/09 A2995 RMK AO2
     SLP138 T01110089 58016=
KUIL 110253Z AUTO 19013G31KT 5SM -RA BR BKN010 OVC015 08/08 A2973
     RMK AO2 PK WND 22032/0156 SLP069 P0007 60021 T00830083
     58030=
KMWT 110253Z AUTO VRB04KT 10SM CLR 23/18 A2958 RMK AO2 RAE14
     SLP007 P0000 60001 T02280183 58013 $=
K1V4 110254Z AUTO M01/M04 A3014 RMK AO1 SLP219 T10111039 53004=
KNAK 110254Z AUTO 00000KT 10SM OVC029 08/05 A3009 RMK AO2 SLP192
     T00830050 56006=
K12N 110254Z AUTO 00000KT 04/01 A3010 RMK AO1 SLP201 T00390011
     58007=
KACY 110254Z 00000KT 4SM -RA BR SCT019 OVC029 08/06 A3012 RMK AO2
     RAB07 SLP198 P0003 60003 T00780061 55009=
KMTP 110254Z AUTO 00000KT 01/00 A3015 RMK AO1 SLP209 T00060000
     56010=


623 
SAUS70 KWBC 110300 RRJ
METAR
KARR 110252Z AUTO 13008KT 1 1/2SM -RA BR OVC002 09/09 A2931 RMK
     AO2 LTG DSNT S-W SLP928 P0006 60036 T00940089 58081=
KBLF 110252Z AUTO VRB05KT 10SM CLR 13/10 A3000 RMK AO2 SLP144
     T01330100 58012=
KCQX 110252Z AUTO 00000KT 10SM CLR 08/07 A3017 RMK AO2 SLP220
     T00830072 56008=
KDPA 110252Z 13007KT 3SM -RA BR OVC002 08/07 A2932 RMK AO2 SLP931
     P0009 60041 T00830072 55062=
KDVP 110253Z AUTO 35016G22KT OVC008 M03/M04 A2969 RMK AO2
     T10311041 PWINO=
KHIE 110252Z AUTO 00000KT 10SM OVC046 M02/M04 A3013 RMK AO2 SLP220
     T10221044 58000=
KIOW 110252Z AUTO 05007KT 10SM FEW005 SCT008 BKN060 07/05 A2929
     RMK AO2 PK WND 29037/0216 RAB22E41 SLP922 P0002 60020
     T00670050 56041=
KMDH 110252Z 20020G34KT 10SM FEW025 SCT043 BKN060 22/18 A2951 RMK
     AO2 PK WND 19034/0250 LTG DSNT S AND SW SLP989 T02220183
     56034=
KMKE 110252Z 07004KT 2 1/2SM RA BR OVC002 07/06 A2940 RMK AO2
     SLP962 P0010 60037 T00670056 58073=
KORE 110252Z AUTO 00000KT 6SM BR CLR M03/M04 A3016 RMK AO2 SLP220
     I1000 I3000 T10281044 50000=
KPWK 110252Z 09007KT 3SM -RA BR OVC004 09/08 A2933 RMK AO2
     RAE43B52 SLP934 P0016 60045 T00890078 56068=
K20U 110255Z AUTO 26009KT 10SM CLR M07/M10 A2978 RMK AO2=
KAQP 110253Z AUTO 32004KT 10SM BKN006 M02/M03 A2976 RMK AO2=
KARV 110255Z AUTO 04007KT 3/4SM SN OVC002 M01/M17 A2964 RMK AO2
     P0008 60013 T10151172=
KBML 110252Z AUTO 00000KT 10SM OVC042 M03/M06 A3013 RMK AO2 SLP224
     T10281061 51004=
KBWW 110255Z AUTO 25013KT 10SM CLR M07/M10 A2977 RMK AO2=
KCBF 110255Z AUTO 34016G22KT 3SM -SN BKN008 OVC012 M01/M01 A2951
     RMK AO2=
KEZS 110255Z AUTO 06012G19KT 2SM -SN OVC005 01/01 A2951 RMK AO2
     P0001 60004 T00110010=
KFOZ 110253Z AUTO 00000KT 10SM SCT110 M07/M08 A2978 RMK AO2=
KFRH 110255Z AUTO 17009G14KT 10SM OVC008 17/17 A2959 RMK AO1=
KGAF 110255Z AUTO 22004KT 10SM CLR M12/M13 A2974 RMK AO2=
KJFK 110251Z 06004KT 10SM BKN070 BKN250 06/03 A3012 RMK AO2 SLP199
     T00610028 58010=
KMSS 110253Z AUTO 04007KT 7SM OVC044 M02/M04 A3011 RMK AO2 SLP201
     T10221044 51007=
KORB 110253Z AUTO 00000KT 10SM M07/M07 A2972 RMK AO2=
KOWA 110253Z AUTO 01015G19KT 1 1/4SM -SN OVC008 M02/M03 A2952 RMK
     AO2=
KSXK 110255Z AUTO 35022G29KT 1/2SM -SN OVC002 M03/M03 A2962 RMK
     AO2=
KXVG 110253Z AUTO 00000KT 10SM OVC080 M06/M07 A2973 RMK AO2=
KMTO 110253Z AUTO 17018G27KT 7SM BKN004 OVC012 17/16 A2945 RMK AO2
     PK WND 20027/0159 LTG DSNT NW CIG 003V008 SLP970 60001
     T01720161 58040=
KMVY 110253Z AUTO 00000KT 3/4SM R24/1000V4500FT BR BKN003 OVC070
     01/01 A3017 RMK AO2 SLP215 T00060006 55002=
KMWL 110253Z AUTO 25006KT 10SM SCT040 BKN120 22/04 A2974 RMK AO2
     SLP059 T02170044 51026=
KMYF 110253Z 32003KT 10SM CLR 13/08 A3013 RMK AO2 SLP203 T01280078
     50006=
KNEW 110253Z 18009KT 8SM CLR 23/22 A2996 RMK AO2 SLP140 T02330217
     51009=
KODO 110253Z AUTO 28009KT 10SM CLR 16/ A2993 RMK AO2 SLP106 T0156
     51027 $=
KOGB 110253Z AUTO 00000KT 3SM BR BKN003 BKN035 13/13 A3014 RMK AO2
     SLP206 T01280128 56001=
KOGD 110253Z 16008KT 10SM CLR M04/M09 A3020 RMK AO2 SLP251
     T10391094 51014=
KOJC 110253Z 30013G26KT 10SM CLR 06/01 A2948 RMK AO2 PK WND
     29029/0243 SLP985 T00560006 51045=
KOLF 110253Z AUTO VRB03KT 10SM CLR M14/M17 A2976 RMK AO2 SLP126
     I1000 I3000 T11441172 58007=
KONO 110253Z AUTO 00000KT 10SM FEW075 02/M03 A3018 RMK AO2 SLP240
     T00171028 58001=
KONT 110253Z 00000KT 10SM FEW027 11/04 A3015 RMK AO2 SLP212
     T01060044 51015=
KOPF 110253Z 07004KT 10SM CLR 23/19 A3013 RMK AO2 SLP204 T02330194
     50006=


624 
SAUS70 KWBC 110300 RRF
METAR
KELD 110253Z AUTO 18018G26KT 10SM BKN026 BKN034 24/19 A2971 RMK
     AO2 PK WND 19029/0230 SLP056 T02390194 50000=
KELM 110253Z 05003KT 10SM BKN055 03/00 A3000 RMK AO2 PRESFR SLP166
     T00280000 58019=
KELN 110253Z AUTO 08005KT 10SM BKN080 01/M03 A2991 RMK AO2 SLP146
     T00061033 58022 $=
KENW 110253Z 10004KT 1 1/4SM +RA BR OVC003 08/07 A2938 RMK AO2
     SLP952 P0010 60023 T00780067 58070=
KEPH 110253Z AUTO 20005KT 10SM SCT080 01/M03 A2992 RMK AO2 SLP148
     T00111033 56023=
KEQY 110253Z AUTO VRB04KT 1 1/4SM BR OVC001 11/11 A3009 RMK AO2
     RAE0158 SLP203 P0000 60000 T01110111 58012=
KESF 110253Z AUTO 18007G16KT 10SM FEW021 BKN065 24/21 A2985 RMK
     AO2 RAB29E38 SLP105 P0000 60000 T02390211 50007=
KEVW 110253Z AUTO 23009KT 10SM BKN047 M13/M15 A3010 RMK AO2 SLP272
     60000 T11281150 51021=
KEWB 110253Z 00000KT 8SM BKN025 02/01 A3016 RMK AO2 SLP213
     T00170006 55003=
KEYE 110253Z AUTO 14009KT 2SM BR OVC002 14/14 A2954 RMK AO2
     RAB0158E47 PRESFR SLP003 P0002 60002 T01440139 58050=
KEYW 110253Z AUTO 10008KT 10SM CLR 25/22 A3011 RMK AO2 SLP194
     T02500217 51009=
KFAY 110253Z 18004KT 6SM BR OVC018 12/11 A3012 RMK AO2 RAE10
     SLP195 P0000 60004 T01170106 58006=
KFCM 110253Z AUTO 02012G21KT 1/2SM SN FZFG VV008 M02/M03 A2962 RMK
     AO2 SLP039 P0002 60007 T10171028 58024=
KFDY 110253Z AUTO 16017KT 6SM BR OVC008 13/11 A2966 RMK AO2 SLP042
     60009 T01280111 58026=
KFFC 110253Z AUTO 12003KT 1/4SM FG VV002 16/15 A3005 RMK AO2
     SLP177 T01560150 58000=
KFFT 110253Z AUTO 16009KT 10SM OVC012 16/14 A2973 RMK AO2 LTG DSNT
     SW SLP063 T01610144 58030=
KFHR 110253Z AUTO 15021G34KT 10SM OVC015 07/04 A2975 RMK AO2 PK
     WND 15034/0215 SLP074 60000 T00670044 58051 TSNO=
KFLD 110253Z AUTO 08009G19KT 6SM -RA OVC007 04/00 A2945 RMK AO2
     RAE00B28 SLP978 P0003 60023 T00390000 58052=
KFLL 110253Z 11005KT 10SM FEW023 25/22 A3012 RMK AO2 SLP198
     T02500222 50006=
KFLO 110253Z 00000KT 5SM BR SCT008 OVC013 12/10 A3015 RMK AO2
     SLP208 60000 T01220100 56003=
KFMY 110253Z AUTO 12004KT 10SM FEW026 SCT065 OVC090 24/21 A3011
     RMK AO2 RAB23E34 SLP198 P0000 60000 T02390206 50002 $=
KFOE 110253Z 30025G33KT 10SM OVC017 03/M02 A2957 RMK AO2 PK WND
     30033/0247 RAB24E35 SLP015 P0000 60000 T00281022 51047 $=
KFPR 110253Z AUTO 00000KT 4SM BR CLR 17/17 A3014 RMK AO2 SLP205
     T01720167 50000=
KFRG 110253Z AUTO 03004KT 10SM BKN065 04/02 A3012 RMK AO2 SLP199
     T00440017 58012=
KFSM 110253Z 22015G24KT 10SM VCTS BKN065 20/14 A2958 RMK AO2 PK
     WND 24049/0215 LTG DSNT ALQDS RAB07E36 SLP012 P0014 60014
     T02000144 53001=
KFST 110253Z AUTO 30008KT 10SM CLR 17/01 A2995 RMK AO2 SLP106
     T01670011 51031=
KFTW 110253Z 26008KT 9SM OVC031 24/04 A2972 RMK AO2 SLP055
     T02390044 51026=
KFTY 110253Z 07003KT 3/4SM BR OVC002 13/13 A3005 RMK AO2 SLP174
     T01280128 58003=
KFUL 110253Z 00000KT 10SM CLR 12/08 A3015 RMK AO2 SLP208 T01170083
     51016=
KFVE 110253Z AUTO 17008KT 10SM OVC010 M08/M10 A3008 RMK AO2 SLP207
     T10831100 58003=
KFWN 110253Z AUTO 00000KT 10SM SCT060 BKN070 02/00 A3011 RMK AO2
     SLP199 T00220000 58007=
KFXE 110253Z 06006KT 10SM FEW022 BKN028 BKN034 25/22 A3013 RMK AO2
     SLP204 T02500217 51007=
KFYV 110253Z 21012G23KT 10SM OVC055 21/16 A2956 RMK AO2 PK WND
     19027/0216 RAE00 TSE07 SLP997 P0000 60019 T02110156 55005=
KGEY 110253Z AUTO 10SM CLR M08/M11 A2990 RMK AO2 SLP177 T10831111
     50007=
KGEZ 110253Z AUTO 16015KT 4SM -RA BR OVC002 16/15 A2960 RMK AO2
     LTG DSNT S AND SW RAB01E16B19 PRESFR SLP023 P0003 60003
     T01560150 58038=


625 
SAUS70 KWBC 110300 RRE
METAR
KCNO 110253Z 00000KT 10SM CLR 11/06 A3016 RMK AO2 SLP215 T01060056
     51014=
KCOT 110253Z AUTO 12004KT 10SM CLR 24/15 A2976 RMK AO2 SLP070
     T02440150 53020=
KCPR 110253Z 22010KT 10SM CLR M12/M16 A2988 RMK AO2 SLP177
     T11171156 51007=
KCRE 110253Z AUTO 00000KT 4SM -RA BR OVC025 14/13 A3015 RMK AO1
     RAE19B47 SLP211 P0000 60000 T01390133 50004=
KCRG 110253Z AUTO 17004KT 10SM CLR 20/19 A3014 RMK AO2 SLP205
     T02000189 52003=
KCRS 110253Z AUTO 19008KT 10SM CLR 23/19 A2974 RMK AO2 SLP068
     T02280194 53019=
KCSM 110253Z 34022G29KT 10SM CLR 07/M03 A2983 RMK AO2 PK WND
     33031/0231 SLP095 T00671033 51074=
KCSV 110253Z AUTO 17010G19KT 140V210 1SM BR OVC001 13/13 A2991 RMK
     AO2 SLP122 T01280128 58018=
KCUB 110253Z AUTO 00000KT 1SM BR OVC002 12/11 A3014 RMK AO2 SLP204
     T01170111 58008=
KCXO 110253Z AUTO 20012G20KT 10SM CLR 24/21 A2981 RMK AO2 SLP092
     T02440211 51015=
KCYS 110253Z 30015G24KT 10SM CLR M07/M14 A2987 RMK AO2 PK WND
     30027/0230 SLP171 T10721144 51023 $=
KDAN 110253Z AUTO 22006KT 10SM OVC011 13/09 A3009 RMK AO2 SLP183
     T01330094 56004=
KDCU 110253Z AUTO 18015G23KT 10SM BKN017 BKN025 OVC030 22/19 A2986
     RMK AO2 RAB0159E31 SLP106 P0000 60000 T02170194 58013=
KDEN 110253Z 29014KT 10SM FEW250 M04/M16 A2992 RMK AO2 SLP154
     T10391161 51028=
KDEQ 110253Z AUTO 19006KT 10SM CLR 21/14 A2962 RMK AO2 SLP025
     60000 T02110144 TSNO $=
KDET 110253Z 12009KT 2 1/2SM RA BR BKN016 OVC025 08/06 A2970 RMK
     AO2 SLP059 P0013 60013 T00830061 56050=
KDEW 110253Z AUTO 16006KT 10SM OVC065 00/M02 A2997 RMK AO2 SNE13
     SLP170 P0000 60000 T00001022 58009=
KDFI 110253Z AUTO 16008G16KT 8SM OVC007 13/11 A2962 RMK AO2 PRESFR
     SLP033 60001 T01280111 58039=
KDFW 110253Z 25006KT 10SM BKN035 BKN250 24/04 A2970 RMK AO2 SLP049
     T02440039 51023=
KDGW 110253Z AUTO 32006KT 10SM CLR M14/M17 A2990 RMK AO2 SLP194
     I1000 I3000 T11441172 51013=
KDHN 110253Z 18011KT 10SM BKN008 OVC013 22/21 A3010 RMK AO2 CIG
     006V010 SLP187 T02170206 51006=
KDHT 110253Z AUTO 35013KT 10SM FEW045 BKN055 02/M05 A2999 RMK AO2
     SNB07E16 PRESRR SLP145 P0000 60000 T00221050 51069=
KDKK 110253Z AUTO 13010KT 10SM CLR 08/03 A2986 RMK AO2 SLP115
     T00830028 58028=
KDLN 110253Z AUTO 18006KT 10SM BKN060 M06/M16 A2996 RMK AO2 SLP206
     T10561156 51005=
KDLS 110253Z AUTO 00000KT 10SM OVC060 07/02 A3005 RMK AO2 SLP177
     T00720022 56017=
KDMO 110253Z AUTO 23012G19KT 10SM CLR 19/13 A2938 RMK AO2 SLP945
     T01890133 55003=
KDRO 110253Z AUTO 30003KT 10SM CLR M09/M13 A3010 RMK AO2 SLP242
     T10941133 51033 $=
KDTO 110253Z 27010KT 9SM OVC035 24/05 A2970 RMK AO2 SLP048
     T02390050 51022=
KDTW 110253Z 12005KT 2SM RA BR BKN008 OVC016 09/08 A2968 RMK AO2
     TWR VIS 2 1/2 SLP052 P0034 60040 T00890078 56052=
KDUJ 110253Z AUTO 13010KT 10SM FEW026 BKN032 BKN120 07/01 A2991
     RMK AO2 SLP136 T00720006 58021=
KDVT 110253Z 00000KT 10SM CLR 13/08 A3012 RMK AO2 SLP191 T01280078
     53017=
KDWH 110253Z AUTO 20011G19KT 10SM BKN024 OVC055 26/22 A2982 RMK
     AO2 SLP095 T02560217 53019=
KDXR 110253Z 00000KT 10SM OVC060 03/00 A3014 RMK AO2 SLP208
     T00280000 58001=
KECP 110253Z 14008KT 1/4SM R16/P6000FT BR OVC002 22/22 A3007 RMK
     AO2 SLP193 T02170217 53003 $=
KEEO 110253Z AUTO 00000KT 10SM SCT055 M18/M19 A3009 RMK AO2 SLP267
     I3/// T11781189 $=
KEET 110253Z AUTO 18009G18KT 10SM OVC012 22/19 A2997 RMK AO2
     SLP144 T02220194 51004=
KEFD 110250Z 18011KT 7SM SCT012 BKN028 OVC047 24/22 A2983=


626 
SAUS70 KWBC 110300 RRH
METAR
KHKY 110253Z AUTO 20003KT 1/4SM FG VV002 10/10 A3009 RMK AO2
     SLP180 T01000100 58004=
KHLG 110253Z 12003KT 6SM -RA BR SCT020 BKN028 OVC080 12/10 A2985
     RMK AO2 RAB13 SLP113 P0003 60003 T01170100 58022=
KHLN 110253Z VRB03KT 10SM FEW065 00/M13 A2990 RMK AO2 SLP180
     T00001133 53004=
KHOT 110253Z AUTO 22010G20KT 4SM -TSRA SCT027 SCT042 BKN070 22/19
     A2961 RMK AO2 LTG DSNT E-SW RAB22 TSB39 SLP022 P0006 60091
     T02170189 58007=
KHOU 110253Z 20009KT 10SM BKN016 OVC020 26/22 A2982 RMK AO2
     RAB0156E06 SLP104 P0000 60000 T02610222 53016=
KHQM 110253Z AUTO 20019G30KT 3SM -RA BKN015 OVC020 10/07 A2987 RMK
     AO2 PK WND 20034/0155 RAE15B33 SLP119 P0002 60004 T01000072
     56024=
KHRI 110253Z AUTO 19007KT 10SM SCT080 SCT110 07/00 A3005 RMK AO2
     SLP180 T00670000 56019=
KHRO 110253Z AUTO 26004G21KT 5SM -TSRA SCT022 BKN055 BKN065 17/14
     A2955 RMK AO2 PK WND 29034/0241 WSHFT 0231 LTG DSNT NE AND E
     RAB08E24B37 TSB33 SLP996 P0035 60035 T01720144 55010=
KHUF 110253Z 16014KT 8SM BKN006 BKN011 BKN027 17/16 A2950 RMK AO2
     PK WND 13026/0210 RAE04 CIG 005V010 SLP990 P0000 60000
     T01720161 58056=
KHUL 110253Z AUTO VRB04KT 10SM CLR M07/M09 A3015 RMK AO2 SLP218
     T10721089 58003=
KHWO 110253Z 07003KT 10SM CLR 23/20 A3014 RMK AO2 SLP205 T02280200
     50007 $=
KHYR 110253Z AUTO 02009KT 3/4SM -SN BR VV009 M03/M04 A2969 RMK AO2
     SLP075 P0005 60008 T10281044 58020=
KHZY 110253Z AUTO 15009KT 10SM -RA BKN021 OVC046 12/05 A2980 RMK
     AO2 RAB52 PRESFR SLP093 P0000 60000 T01170050 58038=
KIAH 110253Z 21007KT 10SM FEW012 BKN022 OVC050 26/22 A2983 RMK AO2
     RAB23E35 SLP099 P0000 60000 T02610217 51022=
KICR 110253Z AUTO 28010KT 7SM -SN BKN042 OVC080 M02/M04 A2984 RMK
     AO2 UPB06E09SNE06B09 SLP128 P0000 60000 T10221044 50009=
KICT 110253Z 31019G31KT 10SM SCT038 BKN085 BKN130 02/M05 A2972 RMK
     AO2 PK WND 32031/0200 SLP066 T00221050 51050=
KIDA 110253Z 20014KT 10SM CLR M04/M09 A3008 RMK AO2 SLP229
     T10441094 53011=
KIEN 110252Z AUTO 24005KT 2SM BR FEW003 SCT027 M10/M11 A2987 RMK
     AO2 SLP161 60000 I1000 I3000 T11001106 50004 $=
KILM 110253Z 25003KT 7SM OVC050 16/14 A3014 RMK AO2 RAB17E29
     SLP207 P0000 60000 T01560144 50002=
KINK 110253Z AUTO 28014KT 10SM CLR 16/02 A2993 RMK AO2 SLP106
     T01610022 51027=
KIPL 110253Z AUTO 01003KT 10SM CLR 16/03 A3015 RMK AO2 SLP209
     T01560028 51019=
KITR 110253Z AUTO 32012KT 10SM CLR M04/M10 A2989 RMK AO2 SLP147
     T10441100 51047 TSNO=
KIWI 110253Z AUTO 00000KT 10SM SCT025 OVC050 M04/M07 A3023 RMK AO2
     SLP237 T10391067 51006=
KIXD 110253Z 29021G31KT 10SM BKN022 BKN120 05/M01 A2952 RMK AO2 PK
     WND 29031/0253 SLP997 T00501006 51054=
KJEF 110253Z 19013G23KT 10SM CLR 18/12 A2939 RMK AO2 LTG DSNT E
     AND SE SLP943 OCNL LTGIC S TS S MOV E 60001 T01780122
     58012=
KJER 110253Z AUTO 17006KT 10SM OVC060 M02/M07 A3017 RMK AO2 SLP251
     T10221072 53005=
KJKL 110253Z AUTO 20007KT 10SM FEW025 BKN041 BKN050 16/14 A2986
     RMK AO2 SLP104 T01610139 58020=
KLAR 110253Z AUTO 28012KT 10SM CLR M12/M17 A2985 RMK AO2 SLP172
     T11221172 51016=
KLAW 110253Z AUTO 34020G29KT 10SM OVC036 13/M01 A2975 RMK AO2 PK
     WND 35029/0252 WSHFT 0229 SLP072 T01281011 51037=
KLBF 110253Z AUTO 33009KT 10SM OVC090 M03/M06 A2984 RMK AO2 UPE09
     SLP130 P0000 60001 T10331061 51023=
KLBX 110253Z AUTO 19010KT 8SM FEW017 FEW025 OVC039 24/22 A2982 RMK
     AO2 SLP098 T02440222 51012=
KLCH 110253Z AUTO 19009KT 5SM BR OVC008 23/22 A2987 RMK AO2 CIG
     006V012 SLP123 T02330222 51011=


627 
SAUS80 KWBC 110300 RRB
METAR
KDRT 110253Z AUTO 00000KT 10SM CLR 22/13 A2979 RMK AO2 SLP082
     T02220133 51025=
KEMP 110253Z AUTO 30024G36KT 10SM FEW023 03/M03 A2962 RMK AO2 PK
     WND 29036/0253 SLP036 T00281033 51046=
KFAR 110253Z 20005KT 10SM CLR M06/M07 A2977 RMK AO2 SLP098
     T10561072 51005=
KFAT 110253Z 31003KT 10SM FEW030 10/06 A3025 RMK AO2 SLP242
     T01000061 53020=
KFMN 110253Z 33005KT 10SM CLR M03/M11 A3016 RMK AO2 SLP237
     T10331111 51033=
KFNB 110253Z AUTO 30021G30KT 10SM OVC009 01/M01 A2954 RMK AO2 PK
     WND 31030/0251 SLP008 T00111011 51036=
KFNT 110253Z 11013KT 2 1/2SM RA BR SCT007 BKN024 OVC044 05/04
     A2963 RMK AO2 PRESFR SLP040 P0013 60014 T00500039 58064=
KGCC 110253Z AUTO 25013KT 10SM CLR M09/M13 A2985 RMK AO2 SLP158
     T10891133 50007=
KGEG 110253Z 18009KT 10SM FEW035 SCT050 OVC070 01/M02 A2995 RMK
     AO2 SNE09 SLP166 P0000 60000 T00061017 58011=
KGRR 110253Z 09010KT 2SM RA BR OVC004 04/03 A2953 RMK AO2 PRESFR
     SLP005 P0005 60028 T00390033 56065=
KHSI 110253Z AUTO 34022G32KT 8SM UP OVC014 M02/M04 A2972 RMK AO2
     PK WND 34032/0253 UPB27SNE27 SLP082 P0000 60000 T10221039
     51025=
KHSV 110253Z 18011G20KT 10SM -RA BKN020 OVC031 21/19 A2987 RMK AO2
     SLP109 P0000 60001 T02110194 58012=
KHTL 110253Z AUTO 09014G23KT 5SM -RA BR OVC007 02/00 A2963 RMK AO2
     SLP045 P0006 60010 T00170000 58063=
KHVR 110253Z AUTO 22016KT 10SM CLR M07/M12 A2969 RMK AO2 SLP092
     T10671117 58008=
KJBR 110253Z AUTO 20014G33KT 7SM -TSRA FEW031 BKN050 OVC110 23/20
     A2959 RMK AO2 PK WND 19037/0225 LTG DSNT ALQDS RAB31
     TSB0157E17B35 SLP018 P0005 60013 T02280200 56010 $=
KJLN 110253Z 29014G26KT 10SM -RA CLR 11/03 A2954 RMK AO2 PK WND
     27040/0223 WSHFT 0215 RAB24 PRESRR SLP998 P0000 60001
     T01110028 53028=
KLAN 110253Z 13016G26KT 4SM -RA BR BKN006 OVC012 08/07 A2957 RMK
     AO2 PK WND 11036/0206 WSHFT 0155 CIG 005V009 SLP018 P0009
     60023 T00830067 58071=
KLAX 110253Z 33005KT 10SM CLR 14/09 A3016 RMK AO2 SLP212 T01440094
     51018 $=
KLBB 110253Z 30021G29KT 10SM BKN210 BKN240 13/M08 A2988 RMK AO2 PK
     WND 29029/0250 SLP090 BKN LYR THN T01331078 53036=
KLIT 110253Z 24011KT 10SM OVC024 23/19 A2962 RMK AO2 PK WND
     19027/0211 LTG DSNT NE AND E RAB19E43 TSE48 SLP029 WSHFT30 TS
     MOVD NE OCNL LTGICCC DSNT NE CB DSNT NE MOV NE P0000 60000
     T02280189 560=
KCRP 110251Z 17010KT 8SM FEW190 BKN250 23/22 A2979 RMK AO2 SLP085
     T02330222 51021=
KELP 110251Z 04010KT 10SM FEW060 FEW200 12/00 A3005 RMK AO2 SLP139
     T01170000 51028=
KIGM 110251Z AUTO 05008KT 10SM CLR 02/M06 A3021 RMK AO2 SLP212
     T00221061 53022=
KOXR 110251Z 00000KT 10SM CLR 11/07 A3017 RMK AO2 SLP215 T01110072
     51017 $=
KSAD 110251Z AUTO 32009KT 10SM CLR 10/03 A3008 RMK AO2 SLP170
     T01000028 51016=
KSAT 110251Z 30004KT 10SM SCT250 19/17 A2979 RMK AO2 SLP072
     T01940172 53016=
KSMX 110251Z 30006KT 10SM CLR 09/03 A3017 RMK AO2 SLP221 T00890033
     53019 $=
KMFD 110252Z 16013KT 9SM OVC007 12/11 A2974 RMK AO2 SLP071 60003
     T01170106 58037=
KABI 110252Z 26009KT 8SM FEW110 19/03 A2983 RMK AO2 SLP080
     T01940028 51027=
KATT 110251Z AUTO VRB03KT 8SM CLR 22/18 A2979 RMK AO2 SLP079
     T02220178 53024=
KBLU 110252Z AUTO 00000KT 10SM CLR M01/M03 A3015 RMK AO2 SLP238
     T10111033 53006=
KGDP 110251Z AUTO 26030G39KT 10SM CLR 08/01 A3001 RMK AO2 PK WND
     27048/0212 SLP130 T00780011 51019=
KLND 110253Z AUTO 00000KT 10SM CLR M07/M18 A2990 RMK AO2 SLP177
     T10671178 51011=
KMLF 110252Z AUTO 28007KT 10SM CLR M11/M14 A3026 RMK AO2 SLP305
     T11111144 53019=


628 
SAUS70 KWBC 110300 RRM
METAR
KMBS 110253Z 09013KT 2SM -RA BR OVC006 03/02 A2962 RMK AO2 SLP035
     P0006 60007 T00280017 58064=
KMCB 110253Z AUTO 18008KT 10SM FEW017 SCT021 BKN029 22/21 A2993
     RMK AO2 SLP128 T02220211 51005=
KMCI 110253Z 29019G26KT 7SM OVC015 04/01 A2948 RMK AO2 PK WND
     29030/0227 SLP986 T00440011 51051=
KMCK 110253Z AUTO 31011KT 10SM FEW075 BKN100 M03/M06 A2987 RMK AO2
     SLP138 T10331056 53042=
KMCO 110253Z 10005KT 10SM CLR 22/19 A3014 RMK AO2 SLP205 T02170194
     50005=
KMCW 110253Z AUTO 02020G28KT 3/4SM BR SCT007 OVC012 M02/M04 A2942
     RMK AO2 PK WND 02032/0238 SNEMM SLP971 P0001 60008 I3002
     T10221039 58026 PWINO FZRANO $=
KMDW 110253Z 17009G20KT 7SM -RA OVC006 13/11 A2934 RMK AO2
     RAE13B52 SLP938 P0000 60016 T01330111 58079=
KMFE 110253Z 16013G25KT 9SM SCT014 25/23 A2979 RMK AO2 SLP085
     T02500228 51023=
KMFR 110253Z 18004KT 10SM FEW120 05/01 A3019 RMK AO2 SLP232
     T00500011 58003=
KMGW 110253Z 14005KT 9SM -RA BKN060 BKN070 OVC085 13/11 A2991 RMK
     AO2 RAB01 SLP126 P0003 60003 T01280106 58017=
KMGY 110253Z AUTO 16010KT 1 1/2SM BR OVC002 15/14 A2971 RMK AO2
     RAB02E11 SLP058 P0000 60000 T01500139 58027=
KMHE 110253Z AUTO 10SM BKN055 OVC070 M02/M03 A2982 RMK AO2 SNE43
     SLP113 P0000 60000 T10171028 50003=
KMHT 110253Z 00000KT 10SM BKN220 M02/M05 A3016 RMK AO2 SLP233
     T10171050 50001=
KMIA 110253Z 09006KT 10SM FEW030 24/21 A3012 RMK AO2 SLP201
     T02440211 50007 $=
KMIC 110253Z 02010KT 1SM -SN BR OVC009 M02/M03 A2966 RMK AO2
     SLP053 P0000 60000 T10171033 58020=
KMIE 110253Z 18012G19KT 3SM -RA BR OVC003 16/13 A2959 RMK AO2
     RAB42 SLP016 P0000 60000 T01560133 58041=
KMIW 110253Z AUTO 01014KT 1 1/2SM BR OVC003 01/M01 A2933 RMK AO2
     RAB0155E04 PRESFR SLP941 P0000 60000 T00061006 58012=
KMKL 110253Z AUTO 19016G21KT 10SM BKN020 BKN029 BKN050 23/20 A2970
     RMK AO2 SLP055 T02280200 55011=
KMKO 110253Z AUTO 22011G19KT 8SM OVC039 23/08 A2956 RMK AO2 SLP004
     T02280083 51008=
KMLB 110253Z 00000KT 10SM 21/19 A3014 RMK AO2 SLP205 T02110194
     50004=
KMLC 110253Z AUTO 22013KT 10SM BKN050 BKN070 BKN110 23/11 A2961
     RMK AO2 SLP018 T02280111 51012=
KMLP 110253Z AUTO 24007KT 210V300 2SM -SN OVC007 M06/M09 A2985 RMK
     AO2 SLP165 P0001 60002 T10611089 53002 $=
KMLS 110253Z AUTO 22009KT 10SM CLR M06/M09 A2981 RMK AO2 SLP131
     T10561094 58001=
KMLT 110253Z AUTO 00000KT 10SM OVC049 M07/M08 A3018 RMK AO2 SLP235
     T10671083 50001 TSNO=
KMMK 110253Z AUTO 30003KT 10SM BKN060 00/M02 A3014 RMK AO2 SLP209
     T00001017 58002=
KMMV 110253Z AUTO 19017G22KT 10SM FEW030 OVC042 08/04 A3005 RMK
     AO2 RAE26 SLP176 P0001 60001 T00830044 58021=
KMNN 110253Z AUTO 17015KT 7SM BKN008 OVC015 12/11 A2973 RMK AO2
     CIG 007V012 SLP071 60006 T01220111 56025 $=
KMOD 110253Z 00000KT 10SM CLR 09/01 A3024 RMK AO2 SLP238 T00940011
     53016=
KMRB 110253Z 08004KT 10SM BKN110 08/01 A3002 RMK AO2 SLP168
     T00830006 58016=
KMSL 110253Z AUTO 19015G21KT 10SM BKN022 OVC031 23/20 A2980 RMK
     AO2 SLP087 T02330200 58013=
KMSP 110253Z 02014G25KT 3/4SM R30L/P6000FT -SN BR VV007 M02/M03
     A2963 RMK AO2 SLP044 SNINCR 1/9 P0006 60027 T10171033
     58024=
KMSY 110253Z 16007KT 5SM BR SCT027 23/22 A2996 RMK AO2 SLP146
     T02280217 50009=
KMTH 110253Z AUTO 10006KT 10SM CLR 25/22 A3010 RMK AO2 SLP192
     T02500217 51008=
KMTJ 110253Z AUTO 15007KT 10SM CLR M07/M11 A3014 RMK AO2 SLP227
     T10721111 51024=
KSEG 110253Z AUTO 00000KT 10SM OVC041 07/01 A3008 RMK AO2 SLP187
     T00670011 58006=
KSFB 110253Z 13003KT 10SM CLR 21/19 A3014 RMK AO2 SLP206 T02110189
     50006=


630 
SAUS70 KWBC 110300 RRI
METAR
KLEB 110253Z 00000KT 10SM CLR M03/M06 A3014 RMK AO2 SLP219
     T10331061 58001=
KLEE 110253Z AUTO 12005KT 10SM CLR 22/19 A3014 RMK AO2 SLP205
     T02220194 50005=
KLFK 110253Z AUTO 17009G17KT 10SM SCT015 24/22 A2978 RMK AO2
     SLP081 T02390217 51004=
KLFT 110253Z 18010KT 9SM OVC008 24/22 A2990 RMK AO2 SLP126
     T02390217 50006=
KLGB 110253Z 00000KT 10SM CLR 13/08 A3015 RMK AO2 SLP211 T01280083
     53016=
KLHQ 110253Z AUTO 14009KT 10SM OVC008 13/12 A2978 RMK AO2 SLP083
     60007 T01280117 56024=
KLHX 110253Z AUTO 31013KT 10SM FEW060 SCT110 00/M07 A2995 RMK AO2
     PK WND 29046/0201 SNB0159E11 SLP145 P0000 60001 T00001072
     51033=
KLLQ 110253Z AUTO 21014G24KT 10SM BKN029 BKN036 24/19 A2972 RMK
     AO2 SLP059 T02440189 58006=
KLMT 110253Z 00000KT 10SM CLR M04/M08 A3015 RMK AO2 SLP242
     T10391083 55003=
KLNS 110253Z 09005KT 10SM OVC041 07/02 A3008 RMK AO2 SLP187
     T00720017 58007=
KACT 110251Z 24006KT 9SM CLR 21/17 A2975 RMK AO2 SLP068 T02110172
     52027=
KBAZ 110251Z AUTO 00000KT 8SM CLR 20/18 A2978 RMK AO2 SLP076
     T02000178 53022=
KBGD 110251Z AUTO 32012G19KT 10SM OVC100 06/M04 A2995 RMK AO2
     PRESRR SLP129 T00561044 51067=
KBHK 110251Z AUTO 25011KT 10SM CLR M06/M12 A2979 RMK AO2 SLP127
     T10561117 51002=
KBKS 110255Z AUTO 18008KT 10SM CLR 23/21 A2978 RMK AO2
     T02260211=
KHDO 110251Z AUTO 36008KT 9SM CLR 18/16 A2979 RMK AO2 SLP075
     T01780156 52017=
KPHX 110251Z 30006KT 10SM OVC170 16/04 A3009 RMK AO2 SLP185
     T01560039 51017 $=
KSJT 110251Z AUTO 26004KT 10SM CLR 17/03 A2985 RMK AO2 SLP096
     T01720033 51031 $=
KAFN 110252Z AUTO 00000KT 10SM CLR M03/M04 A3013 RMK AO2 SLP220
     T10281044 58004=
KAQW 110252Z AUTO 00000KT 10SM CLR 00/M03 A3014 RMK AO2 SLP215
     T00001028 51007=
KCMX 110253Z AUTO 10004KT 10SM SCT023 OVC070 00/M04 A2974 RMK AO2
     SLP088 T00001044 56017=
KIJD 110252Z AUTO 00000KT 7SM CLR M02/M02 A3016 RMK AO2 SLP216
     T10171022 50000=
KMLI 110252Z 34005KT 8SM FEW095 SCT110 10/09 A2925 RMK AO2 LTG
     DSNT E RAE0153 SLP908 P0000 60031 T01000094 58020=
KOMA 110252Z 33021G31KT 2SM -SN BR BKN007 BKN011 OVC015 00/M02
     A2955 RMK AO2 PK WND 34031/0244 SLP013 P0002 60003 I3000
     T00001017 53018=
KOTM 110253Z AUTO 33007KT 1/4SM FG VV002 07/07 A2926 RMK AO2
     RAE0158 SLP912 P0000 60002 T00720072 56028=
KPYM 110252Z AUTO 00000KT 4SM BR FEW026 SCT065 02/01 A3016 RMK AO2
     SLP215 T00170006 55001=
KRAP 110252Z 28006KT 10SM CLR M10/M11 A2984 RMK AO2 SLP154 I1000
     I3001 T11001106 50007 $=
KSPI 110252Z 20019G39KT 9SM VCTS RA SCT045 SCT075 OVC090 15/13
     A2941 RMK AO2 PK WND 20052/0233 LTG DSNT NE-S TSB12E50 SLP958
     P0030 60030 T01500128 56013=
KSUX 110252Z 34020G34KT 1 3/4SM SN FZFG SCT010 OVC017 M01/ A2964
     RMK AO2 PK WND 35034/0244 SLP045 P0001 60008 T1011 53007
     $=
KTAN 110252Z AUTO 00000KT 9SM OVC026 03/02 A3016 RMK AO2 SLP215
     T00280017 56001=
KADS 110247Z 00000KT 13SM SKC 24/07 A2972=
KHRL 110252Z 18019G31KT 10SM BKN019 26/23 A2979 RMK AO2 PK WND
     17031/0244 SLP087 T02560228 51022=
KLAA 110253Z AUTO 34008G19KT 10SM FEW110 00/M09 A2993 RMK AO2
     SLP143 60000 T00001094 51044=
KLKV 110253Z AUTO 19008KT 10SM CLR M03/M10 A3015 RMK AO2 SLP258
     T10281100 53002 FZRANO=
KMWH 110252Z 18013KT 10SM SCT090 04/M01 A2994 RMK AO2 SLP153
     T00391011 56022=
KSMO 110251Z 31004KT 10SM CLR 12/08 A3016 RMK AO2 SLP214 T01220083
     51020 $=
KTRM 110252Z AUTO 00000KT 10SM CLR 09/01 A3015 RMK AO2 SLP209
     T00940011 51018=


631 
SAUS70 KWBC 110300 RRK
METAR
KORL 110253Z 10004KT 10SM FEW003 22/19 A3014 RMK AO2 SLP210
     T02170194 50006=
KOSH 110253Z 07009G17KT 4SM RA BR OVC007 01/01 A2946 RMK AO2
     SLP987 P0004 60020 T00110006 58057=
KOSU 110253Z 14008KT 4SM BR OVC007 13/12 A2975 RMK AO2 RAE19B40E50
     CIG 004V009 SLP074 P0000 60008 T01280117 58035=
KOVS 110253Z AUTO 04005KT 6SM -RA BR OVC009 02/01 A2940 RMK AO2
     RAE21B28UPB21E28 SLP960 P0002 60007 T00220006 56053=
KOWD 110253Z AUTO 00000KT 10SM OVC028 01/M02 A3017 RMK AO2 SLP218
     T00111017 58004=
KOXB 110253Z AUTO 00000KT 7SM OVC007 11/11 A3011 RMK AO2 CIG
     003V009 SLP196 60002 T01110106 55007=
KPAE 110253Z 16016G31KT 10SM -RA BKN013 OVC017 06/03 A2984 RMK AO2
     PK WND 15031/0244 SLP108 P0000 60000 T00610028 58037=
KPAH 110253Z 19016G28KT 10SM FEW090 SCT110 23/18 A2956 RMK AO2 PK
     WND 20028/0252 LTG DSNT SW-NW SLP005 T02280183 56036=
KPBF 110253Z AUTO 20017G27KT 10SM CLR 24/19 A2967 RMK AO2 PK WND
     19033/0218 SLP042 T02440189 58002=
KPBG 110253Z AUTO 00000KT 10SM OVC055 01/M02 A3009 RMK AO2 SLP194
     T00061022 58002=
KPBI 110253Z 08004KT 10SM SCT020 24/21 A3014 RMK AO2 SLP205
     T02390206 51004=
KPDK 110253Z AUTO 00000KT 1/2SM FG VV002 12/11 A3006 RMK AO2
     SLP182 T01220111 58001=
KPDT 110253Z 18009KT 10SM FEW055 OVC070 04/M01 A3006 RMK AO2
     SLP182 T00441011 58015=
KPGD 110253Z AUTO 13006KT 10SM BKN027 BKN040 BKN047 23/21 A3013
     RMK AO2 SLP200 T02280211 50004=
KPHD 110253Z AUTO 15005KT 10SM BKN024 BKN040 11/09 A2981 RMK AO2
     RAE39 SLP098 P0003 60003 T01110094 58032=
KPIE 110253Z 06003KT 9SM FEW045 22/21 A3012 RMK AO2 SLP199
     T02220211 53004=
KPIH 110253Z 23015KT 10SM CLR M04/M09 A3013 RMK AO2 SLP239
     T10391094 51011=
KPIL 110253Z AUTO 18013G21KT 10SM BKN015 BKN024 26/23 A2981 RMK
     AO2 PK WND 17028/0223 SLP092 T02560228 53019=
KPIR 110253Z AUTO 27010KT 10SM BKN100 M02/M04 A2982 RMK AO2 SLP118
     T10221044 50007=
KPKB 110253Z 16005KT 10SM OVC016 14/11 A2984 RMK AO2 RAB0159E08
     SLP105 P0000 60006 T01390106 58023=
KPKD 110253Z AUTO 00000KT 10SM BKN120 M06/M08 A2972 RMK AO2 SLP091
     T10561078 58004=
KPMD 110253Z 07005KT 10SM CLR 04/M04 A3019 RMK AO2 SLP233
     T00391039 53016=
KPMP 110253Z AUTO 08007KT 10SM BKN023 BKN037 26/21 A3013 RMK AO2
     SLP203 T02560211 50002=
KPNC 110253Z AUTO 32016G29KT 10SM CLR 06/M04 A2973 RMK AO2 PK WND
     32029/0250 SLP066 T00561039 51066=
KPNS 110253Z 16013G21KT 8SM OVC005 23/23 A3003 RMK AO2 SLP169
     T02330228 51008=
KPOU 110253Z AUTO 00000KT 7SM OVC060 01/M01 A3011 RMK AO2 PRESFR
     SLP194 T00111011 58009=
KPQL 110253Z AUTO 17005KT 5SM BR OVC002 23/23 A3000 RMK AO2 SLP161
     T02330228 53010 TSNO=
KPRC 110253Z 26004KT 10SM CLR M01/M06 A3016 RMK AO2 SLP214
     T10111061 51019=
KPSC 110253Z 16007KT 10SM OVC085 07/00 A3004 RMK AO2 SLP177
     T00720000 58015=
KPSP 110253Z 31006KT 10SM CLR 14/M02 A3018 RMK AO2 SLP220
     T01441022 51018=
KPSX 110253Z AUTO 19008KT 6SM BR FEW019 OVC034 24/23 A2981 RMK AO2
     SLP095 T02390228 51017=
KPTK 110253Z VRB03KT 2 1/2SM +RA BR BKN007 OVC012 06/04 A2969 RMK
     AO2 CIG 004V010 SLP060 P0012 60013 T00560044 56045=
KPUB 110253Z 29014KT 10SM CLR M02/M14 A2996 RMK AO2 PK WND
     30027/0154 SLP156 T10171139 51042=
KPUC 110253Z AUTO 03005KT 10SM CLR M09/M13 A3015 RMK AO2 SLP279
     T10891133 51023=
KPUW 110253Z AUTO 23010KT 9SM FEW016 BKN049 OVC085 01/M02 A3003
     RMK AO2 SNE26 SLP200 P0000 60000 T00061022 58004=
KPWA 110253Z 34018G28KT 10SM OVC070 08/M02 A2978 RMK AO2 PK WND
     33029/0243 SLP080 T00831022 51075=


632 
SAUS70 KWBC 110300
METAR
KADS 110247Z 00000KT 13SM SKC 24/07 A2972=
KAFN 110252Z AUTO 00000KT 10SM CLR M03/M04 A3013 RMK AO2 SLP220
     T10281044 58004=
KAQW 110252Z AUTO 00000KT 10SM CLR 00/M03 A3014 RMK AO2 SLP215
     T00001028 51007=
KARR 110252Z AUTO 13008KT 1 1/2SM -RA BR OVC002 09/09 A2931 RMK
     AO2 LTG DSNT S-W SLP928 P0006 60036 T00940089 58081=
KATL 110252Z 12006KT 1/8SM R09R/1600V2000FT -DZ FG VV002 13/13
     A3005 RMK AO2 SFC VIS 1/4 SLP178 P0000 60000 T01330128
     58003=
KBLF 110252Z AUTO VRB05KT 10SM CLR 13/10 A3000 RMK AO2 SLP144
     T01330100 58012=
KBLH 110252Z AUTO 33008KT 10SM CLR 12/M07 A3017 RMK AO2 SLP215
     T01171067 53020=
KBML 110252Z AUTO 00000KT 10SM OVC042 M03/M06 A3013 RMK AO2 SLP224
     T10281061 51004=
KCFV 110252Z AUTO 31017G25KT 10SM FEW110 07/00 A2961 RMK AO2 PK
     WND 32033/0209 SLP028 T00720000 53061=
KCLT 110252Z 18006KT 1/2SM R18C/P6000FT BR OVC002 12/11 A3011 RMK
     AO2 SFC VIS 3 SLP194 60001 T01170111 58005=
KCMX 110253Z AUTO 10004KT 10SM SCT023 OVC070 00/M04 A2974 RMK AO2
     SLP088 T00001044 56017=
KCQX 110252Z AUTO 00000KT 10SM CLR 08/07 A3017 RMK AO2 SLP220
     T00830072 56008=
KCVG 110252Z 17013KT 7SM OVC007 16/14 A2970 RMK AO2 LTG DSNT W
     SLP053 T01560139 58031=
KCWF 110250Z 19011KT 10SM OVC008 23/22 A2988=
KDCA 110252Z 07005KT 10SM OVC023 09/06 A3008 RMK AO2 SLP186 60000
     T00940056 58001=
KDDC 110252Z AUTO 33014G23KT 10SM BKN110 M01/M05 A2985 RMK AO2
     SLP112 T10061050 51058=
KDPA 110252Z 13007KT 3SM -RA BR OVC002 08/07 A2932 RMK AO2 SLP931
     P0009 60041 T00830072 55062=
KDVP 110253Z AUTO 35016G22KT OVC008 M03/M04 A2969 RMK AO2
     T10311041 PWINO=
KFOZ 110253Z AUTO 00000KT 10SM SCT110 M07/M08 A2978 RMK AO2=
KGAG 110253Z AUTO 32019G27KT 10SM OVC120 04/M04 A2988 RMK AO2 PK
     WND 32032/0231 SLP112 T00441039 51062=
KGLS 110252Z AUTO 18013KT 8SM FEW028 OVC035 24/22 A2984 RMK AO2
     SLP103 T02390217 53008=
KHIE 110252Z AUTO 00000KT 10SM OVC046 M02/M04 A3013 RMK AO2 SLP220
     T10221044 58000=
KHRL 110252Z 18019G31KT 10SM BKN019 26/23 A2979 RMK AO2 PK WND
     17031/0244 SLP087 T02560228 51022=
KHUT 110252Z 31020G30KT 10SM CLR M01/ A2975 RMK AO2 PK WND
     32031/0240 PRESRR SLP074 T1006 53055 $=
KIAD 110252Z 13004KT 10SM OVC023 09/05 A3005 RMK AO2 SLP178 VCSH
     T00940050 58014=
KIJD 110252Z AUTO 00000KT 7SM CLR M02/M02 A3016 RMK AO2 SLP216
     T10171022 50000=
KIOW 110252Z AUTO 05007KT 10SM FEW005 SCT008 BKN060 07/05 A2929
     RMK AO2 PK WND 29037/0216 RAB22E41 SLP922 P0002 60020
     T00670050 56041=
KJFK 110251Z 06004KT 10SM BKN070 BKN250 06/03 A3012 RMK AO2 SLP199
     T00610028 58010=
KLAA 110253Z AUTO 34008G19KT 10SM FEW110 00/M09 A2993 RMK AO2
     SLP143 60000 T00001094 51044=
KLKV 110253Z AUTO 19008KT 10SM CLR M03/M10 A3015 RMK AO2 SLP258
     T10281100 53002 FZRANO=
KLWC 110252Z AUTO 30021G33KT 10SM BKN016 OVC021 04/00 A2955 RMK
     AO1 PK WND 29033/0252 PRESRR SLP009 60000 T00440000 51056=
KLXT 110253Z AUTO 29018G31KT 10SM CLR 06/01 A2946 RMK AO2 PK WND
     28034/0214 SLP979 T00610011 53035=
KMDH 110252Z 20020G34KT 10SM FEW025 SCT043 BKN060 22/18 A2951 RMK
     AO2 PK WND 19034/0250 LTG DSNT S AND SW SLP989 T02220183
     56034=
KMEB 110252Z AUTO 22003KT 3SM BR BKN007 OVC011 13/11 A3015 RMK AO2
     CIG 006V009 SLP208 60002 T01280111 58004=
KMKE 110252Z 07004KT 2 1/2SM RA BR OVC002 07/06 A2940 RMK AO2
     SLP962 P0010 60037 T00670056 58073=
KMLI 110252Z 34005KT 8SM FEW095 SCT110 10/09 A2925 RMK AO2 LTG
     DSNT E RAE0153 SLP908 P0000 60031 T01000094 58020=


633 
SAUS70 KWBC 110300 RRL
METAR
KRAC 110253Z AUTO 12004KT 3/4SM RA BR VV002 07/07 A2940 RMK AO2
     RAE0154B01 SLP959 P0007 60023 T00720067 58072=
KRAL 110253Z 00000KT 10SM CLR 11/06 A3015 RMK AO2 SLP202 T01060061
     51012=
KRBD 110253Z AUTO 25007KT 10SM OVC038 24/08 A2972 RMK AO2 SLP058
     T02440078 51023=
KRBG 110253Z AUTO 22004KT 10SM FEW110 07/03 A3015 RMK AO2 SLP214
     T00720028 58015=
KRDD 110253Z 06004KT 10SM CLR 04/M01 A3019 RMK AO2 SLP225
     T00391006 53004=
KRHI 110253Z AUTO 05007KT 1/2SM SN FZFG VV006 M03/M04 A2960 RMK
     AO2 SLP047 P0009 60024 T10281044 58030=
KRIL 110253Z AUTO 12005KT 10SM CLR M11/M14 A3013 RMK AO2 SLP245
     T11061144 53026=
KRKP 110253Z AUTO 17008KT 5SM BR OVC008 24/23 A2980 RMK AO2 SLP092
     T02390228 51022=
KRME 110253Z AUTO 11005KT 10SM BKN050 01/M02 A3008 RMK AO2 SLP191
     T00061017 58003=
KRNT 110253Z 17008G17KT 10SM OVC045 08/02 A2988 RMK AO2 SLP122
     60000 T00830022 58038=
KRSL 110253Z AUTO 31015G24KT 10SM FEW018 M01/M05 A2980 RMK AO2 PK
     WND 31032/0240 SLP106 T10111050 53052=
KRSW 110253Z 08003KT 10SM FEW023 BKN032 OVC042 23/21 A3012 RMK AO2
     RAE04 SLP197 P0000 60006 T02280211 50007=
KRTN 110253Z AUTO 34014G22KT 10SM CLR M04/M23 A2995 RMK AO2 SLP141
     60000 T10441228 51052=
KRUE 110253Z AUTO 19004KT 10SM CLR 21/17 A2957 RMK AO2 SLP005
     T02110172 56016=
KRVS 110253Z 30008G20KT 10SM SCT050 BKN110 12/01 A2965 RMK AO2 PK
     WND 29030/0227 PRESRR SLP047 T01170011 53047=
KRWF 110253Z AUTO 36015G24KT 1 1/4SM -SN BR SCT006 BKN011 OVC017
     M02/M03 A2970 RMK AO2 SLP071 P0000 60001 T10171028 58006=
KRWI 110253Z AUTO 00000KT 1/4SM FG VV002 10/09 A3013 RMK AO2
     SLP201 T01000094 58001=
KRWL 110253Z AUTO 26022G33KT 6SM HZ CLR M10/M14 A2993 RMK AO2 PK
     WND 26035/0224 SNB34E35 SLP209 P0000 60000 T11001144
     53018=
KRXE 110253Z AUTO 18010KT 10SM CLR M06/M12 A3005 RMK AO2 SLP227
     T10611122 53009=
KSAC 110253Z 00000KT 10SM CLR 05/01 A3023 RMK AO2 SLP236 T00500011
     52010=
KSAF 110253Z 31014G24KT 10SM CLR M04/M18 A3008 RMK AO2 PK WND
     30030/0237 SLP187 T10391178 51040=
KSBA 110253Z 00000KT 10SM CLR 09/04 A3017 RMK AO2 SLP215 T00940044
     53016 $=
KSBM 110253Z AUTO 07011KT 4SM -RA BR OVC006 03/02 A2948 RMK AO2
     RAE26B52UPB50E52 SLP989 P0001 60024 T00280022 58066=
KSDL 110253Z 00000KT 10SM CLR 14/06 A3012 RMK AO2 SLP191 T01390056
     51016=
KLOU 110253Z AUTO 17015G23KT 10SM -RA OVC012 19/17 A2968 RMK AO2
     LTG DSNT N AND SE AND SW RAB32 SLP046 P0000 60000 T01890167
     58030=
KLOZ 110253Z AUTO 17005KT 10SM OVC020 15/13 A2986 RMK AO2 SLP108
     T01500133 58018=
KLPR 110253Z AUTO 18016G21KT 10SM BKN100 BKN120 12/09 A2973 RMK
     AO2 SLP067 60000 T01170094 58043=
KLUK 110253Z 20006KT 10SM OVC010 15/14 A2972 RMK AO2 SLP065
     T01500144 56025=
KLVJ 110253Z AUTO 18008KT 8SM SCT014 BKN018 OVC046 25/23 A2984 RMK
     AO2 SLP104 T02500228 53013=
KLVK 110253Z 00000KT 10SM CLR 06/00 A3024 RMK AO2 SLP241 T00610000
     53015=
KLVM 110253Z AUTO 23032G47KT 10SM SCT070 M02/M17 A2984 RMK AO2 PK
     WND 23047/0252 SLP145 T10221172 58001=
KLVS 110253Z AUTO 30018G28KT 10SM CLR M05/M23 A2997 RMK AO2 PK WND
     30035/0155 SLP138 T10501233 53041=
KLWV 110253Z AUTO 17017KT 10SM BKN009 17/17 A2953 RMK AO2 PK WND
     16028/0220 SLP999 60008 T01720167 56037=
KMAE 110253Z AUTO 00000KT 10SM CLR 06/04 A3025 RMK AO2 SLP245
     T00610044 53018=
KMAF 110253Z 26009KT 10SM CLR 15/01 A2992 RMK AO2 SLP103 T01500006
     51029=
KMAI 110253Z AUTO 17008KT 10SM OVC009 22/21 A3007 RMK AO2 CIG
     007V011 SLP180 T02170206 51003=


634 
SAUS70 KWBC 110300 RRG
METAR
KGFK 110253Z 14005KT 10SM SCT240 M12/M13 A2974 RMK AO2 SLP090
     I3001 T11171133 56007=
KGFL 110253Z AUTO 00000KT 8SM CLR M02/M04 A3012 RMK AO2 SLP210
     T10221039 55002=
KGGG 110253Z 19013KT 10SM CLR 23/19 A2972 RMK AO2 SLP057 T02330194
     51009=
KGGW 110253Z AUTO 20004KT 10SM CLR M08/M12 A2973 RMK AO2 SLP109
     T10831117 56008=
KGIF 110253Z AUTO 11005KT 10SM CLR 22/19 A3015 RMK AO2 SLP206
     T02220194 51007=
KGJT 110253Z 16005KT 10SM CLR M03/M09 A3016 RMK AO2 SLP232
     T10281089 53028=
KGKJ 110253Z AUTO 16004KT 10SM OVC019 10/04 A2984 RMK AO2 SLP109
     T01000039 58027=
KGKY 110253Z AUTO 21004KT 10SM OVC035 23/07 A2973 RMK AO2 SLPNO
     T02330067 51027=
KGLD 110253Z AUTO 29009KT 10SM OVC035 M04/M07 A2987 RMK AO2 SLP141
     T10441067 51043=
KGLH 110253Z AUTO 19018G28KT 10SM CLR 24/19 A2973 RMK AO2 PK WND
     17032/0242 SLP071 60000 T02390194 58010=
KGLR 110253Z AUTO 07009G15KT 3/4SM -SN OVC008 01/M02 A2967 RMK AO2
     SNB23 CIG 005V010 PRESFR SLP061 P0002 60002 T00111017
     58050=
KGMU 110253Z AUTO 00000KT 3/4SM -RA BR VV002 11/10 A3010 RMK AO2
     RAB52 SLP194 P0000 60000 T01110100 58004=
KGNV 110253Z 14003KT 9SM CLR 20/19 A3016 RMK AO2 SLP210 T02000189
     51007=
KGOK 110253Z AUTO 32012G20KT 10SM OVC070 07/M02 A2978 RMK AO2
     SLP083 T00721017 51085=
KGPT 110253Z 16006KT 4SM BR OVC002 21/21 A2998 RMK AO2 SLP151
     T02110206 51008=
KGRB 110253Z 06015KT 6SM -RA BR OVC004 01/M01 A2950 RMK AO2
     RAB50SNE50 SLP999 P0005 60011 T00061006 58054 $=
KGRI 110253Z AUTO 34025G31KT 4SM -SN SCT014 OVC029 M02/M04 A2975
     RMK AO2 PK WND 35031/0252 SLP095 P0000 60004 T10171044
     51032=
KGSH 110253Z AUTO 14014G22KT 2 1/2SM BR OVC003 12/11 A2946 RMK AO2
     RAE0154B17E40 PRESFR SLP978 P0001 60004 T01220111 58070=
KGSP 110253Z 19004KT 3/4SM BR VV002 11/09 A3010 RMK AO2 SLP193
     T01060094 58005=
KGTF 110253Z 22019G28KT 10SM CLR M02/M13 A2973 RMK AO2 PK WND
     22028/0242 SLP121 T10221128 58010 $=
KGUP 110253Z AUTO 01008KT 10SM CLR M04/M10 A3015 RMK AO2 SLP240
     T10391100 51030=
KGUY 110253Z AUTO 35016G23KT 10SM FEW018 BKN075 OVC095 02/M02
     A2994 RMK AO2 PK WND 36042/0159 SLP128 T00171022 51060=
KGVL 110253Z AUTO 07004KT 1/4SM FG VV002 09/09 A3009 RMK AO2
     SLP189 60000 T00940089 58003=
KGWO 110253Z AUTO 19015G23KT 10SM BKN037 26/18 A2978 RMK AO2 PK
     WND 19027/0226 SLP083 T02610183 58003 $=
KGZH 110253Z AUTO 19007KT 9SM SCT009 BKN015 23/20 A3002 RMK AO2
     SLP163 T02280200 50004=
KHAO 110253Z AUTO VRB04KT 5SM BR OVC004 14/14 A2970 RMK AO2 LTG
     DSNT W PRESFR SLP059 T01440139 58036=
KHBG 110253Z AUTO 18010G19KT 10SM BKN015 23/19 A2996 RMK AO2
     SLP142 T02280194 50005=
KHBR 110253Z AUTO 34022G29KT 10SM CLR 09/M03 A2983 RMK AO2 PK WND
     35030/0228 SLP098 T00891028 53071=
KHEI 110253Z AUTO 28006KT 10SM CLR M07/M11 A2979 RMK AO2 SLP124
     T10671111 51005=
KHFD 110253Z 00000KT 10SM CLR 01/M03 A3016 RMK AO2 SLP213
     T00111028 50001=
KHGR 110253Z 06005KT 10SM BKN027 08/01 A3003 RMK AO2 SLP183
     T00780006 58014 $=
KHHR 110253Z 00000KT 10SM CLR 14/09 A3016 RMK AO2 SLP213 T01390089
     51019 $=
KHIB 110253Z AUTO 32006KT 10SM OVC090 M07/M08 A2972 RMK AO2 SLP094
     T10671083 58003=
KHIO 110253Z 18009KT 10SM BKN018 OVC041 07/05 A3004 RMK AO2 RAE50
     SLP176 P0001 60003 T00670050 58020=
KHKA 110253Z AUTO 20023G33KT 10SM SCT080 BKN095 25/18 A2960 RMK
     AO2 PK WND 20038/0230 LTG DSNT W-NE TSE0155 SLP020 60000
     T02500183 56024 $=
KHKS 110253Z AUTO 18010KT 10SM BKN024 BKN030 OVC042 23/19 A2988
     RMK AO2 SLP111 T02330194 51001=


657 
SAUS80 KWBC 110300 CCA
METAR
KCQT 110252Z AUTO 00000KT 10SM CLR 13/08 A3015 RMK AO2 SLP211
     T01280083 51021=


708 
SAEW KAWN 110300 RRA
METAR EBBR 110250Z 28009KT 9999 BKN029 05/03 Q1008 RERA NOSIG=
METAR EBCI 110250Z 28008KT 250V310 1800 -RADZ BR SCT007 BKN012 02/02
      Q1009 TEMPO 1200 -RADZ BR BKN003=
METAR EBLG 110250Z 23006KT 2000 BR SCT002 BKN003 01/01 Q1008 TEMPO
      0700 FG=
METAR EBOS 110250Z 33012KT 9999 FEW015 BKN017 06/03 Q1011 NOSIG=
METAR EDDC 110250Z 17005KT CAVOK M02/M04 Q1004=
METAR EDDE 110250Z 24005KT CAVOK M03/M03 Q1004=
METAR EDDG 110250Z VRB01KT 8000 FEW033 M03/M03 Q1007 BECMG 4000 BR=
METAR EDDK 110250Z 30010KT 3500 BR SCT003 BKN005 01/01 Q1008 TEMPO
      2000 BKN004=
METAR EDDL 110250Z 21003KT 1200 0400NE R23R/0550N R23L/P2000N BCFG
      BR SCT002 M02/M02 Q1008 TEMPO 0700 FZFG BKN002=
METAR EDDM 110250Z 25013KT 9999 SCT025 BKN045 02/M00 Q1005 TEMPO 4000
      -SN BKN013=
METAR EDDN 110250Z 25003KT 8000 -SNRA BKN007 01/00 Q1004=
METAR EDDS 110250Z 31009KT 240V350 9999 -DZ BKN007 BKN019 02/00 Q1006=
METAR EDDV 110250Z VRB01KT 0600 R09L/1100V1500D R09R/P2000N FZFG BKN002
      M00/M00 Q1006=
METAR EDDW 110250Z 20002KT 9999 FEW041 01/00 Q1006=
METAR EGJJ 110250Z AUTO 33004KT 290V010 9999 NCD 08/03 Q1016=
METAR EHGR 110255Z AUTO 24003KT 2500 -RA OVC027 03/03 Q1008 YLO=
METAR EHLW 110255Z AUTO 20005KT 5000 BR NCD M02/M03 Q1007 WHT=
METAR EHVK 110255Z AUTO 24003KT 0300 FZFG OVC000 M01/M02 Q1008 RED=
METAR EHVL 110255Z AUTO 17006KT 9999 BKN098 OVC100 02/01 Q1007 BLU=
METAR EHWO 110255Z AUTO VRB02KT 9999 FEW025 BKN030 OVC035 05/05 Q1008
      BLU=
METAR ELLX 110250Z 30006KT 8000 BKN008 BKN027 01/M00 Q1007 NOSIG=
METAR ETIC 110255Z 1600 -SN BR SCT004 BKN007 BKN009 00/00 A2965 RMK
      SLPNO RVRNO FZRANO WND DATA ESTMD ALSTG ESTMD $=


709 
SAIQ01 ORSU 110300
METAR ORSU 110300Z 33004KT CAVOK M02/M02 Q1026=


858 
SAXX60 KAWN 110300
METAR NSTU 110250Z 08015KT 12SM FEW018 BKN110 31/26 A2982 RMK SLP098
      8/120 T03060263 56008=
METAR PHBK 110251Z AUTO 00000KT 5SM -RA OVC037 25/22 A3003 RMK AO2
      RAB43 SLP172 P0000 60000 T02500217 53001=
METAR PHBK 110251Z AUTO 00000KT 5SM -RA OVC037 25/22 A3003 RMK AO2
      RAB43 SLP172 P0000 60000 T02500217 53001=
METAR PTKK 110253Z 35007G23KT 15SM FEW014 SCT120 BKN280 29/26 A2968
      RMK SLP052 8/171 T02940260 57025=


859 
SAXN17 KAWN 110300 RRA
METAR MGGT 110300Z 02014KT CAVOK 18/13 Q1021 A3015 FEW100=
METAR MMOX 110245Z 00000KT 8SM SKC 18/03 A2019 HZY=
METAR COR MMSP 110252Z 07006KT 8SM SKC 18/M05 A3017 RMK SLP122 52009
      965 CI=
METAR NSTU 110250Z 08015KT 12SM FEW018 BKN110 31/26 A2982 RMK SLP098
      8/120 T03060263 56008=
METAR PACZ 110255Z AUTO 01038G45KT 310V080 8SM -SN BKN014 M18/M20 A2977
      RMK AO2 PK WND 36051/0200 SNB0155 SLP101 P0000 60000
      T11771203 53039=
METAR PTKK 110253Z 35007G23KT 15SM FEW014 SCT120 BKN280 29/26 A2968
      RMK SLP052 8/171 T02940260 57025=
METAR PTRO 110250Z 04007KT 14SM BKN015TCU BKN120 BKN300 30/25 A2978
      RMK TCU SW-W=
METAR PTSA 110252Z 06010KT 10SM -SHRA BKN018TCU BKN130 BKN300 29/26
      A2973 RMK TCU S-SW LAST=
METAR PTYA 110252Z 06007KT 12SM FEW017 BKN300 31/25 A2977 RMK SLP081
      8/102 T03110253 57020=
METAR TXKF 110255Z 08006KT 9999 FEW035 SCT057 SCT300 19/13 Q1025=


071 
SATV31 NGFU 110300
METAR NGFU 110300Z 08010KT 9999 -SHRA FEW015CB FEW018TCU OVC100 29/26
 Q1007=


073 
SAPM31 MPTO 110300
METAR MPTO 110300Z VRB02KT CAVOK 25/22 Q1009 NOSIG=


075 
SAMJ41 LWSK 110300
METAR LWSK 110300Z VRB01KT 9999 -RA BKN035 OVC070 02/02 Q1006 NOSIG=


089 
SAGB20 GBYD 110300
METAR GBYD 110300Z 00000KT 9000 SKC 19/15 Q1008=


797 
SAUS14 KAWN 110300 RRD
METAR K1S5 110255Z AUTO 11006KT 10SM SCT080 OVC110 05/00 A3000 RMK
      AO2 T00510002=
METAR K6R6 110251Z AUTO 34013KT 21/02 A2988 RMK AO1 SLP090 T02110022
      51027=
METAR K77S 110255Z AUTO 00000KT 10SM SCT055 BKN065 OVC080 06/05 A3013
      RMK A01=
METAR KABQ 110252Z 34015G31KT 10SM FEW060 SCT200 00/M16 A3014 RMK AO2
      PK WND 34031/0244 SLP205 T00001161 53038=
METAR KALS 110252Z AUTO 30007KT 10SM CLR M11/M19 A3001 RMK AO2 SLP196
      T11111194 51043 $=
METAR KAQP 110253Z AUTO 32004KT 10SM BKN006 M02/M03 A2976 RMK AO2=
METAR KBLH 110252Z AUTO 33008KT 10SM CLR 12/M07 A3017 RMK AO2 SLP215
      T01171067 53020=
METAR KCNY 110253Z AUTO 30013KT 10SM CLR M04/M13 A3017 RMK AO2 SLP247
      T10391133 53028=
METAR KFST 110253Z AUTO 30008KT 10SM CLR 17/01 A2995 RMK AO2 SLP106
      T01670011 51031=
METAR KFTW 110253Z 26008KT 9SM OVC031 24/04 A2972 RMK AO2 SLP055 T02390044
      51026=
METAR KGGG 110253Z 19013KT 10SM CLR 23/19 A2972 RMK AO2 SLP057 T02330194
      51009=
METAR KGJT 110253Z 16005KT 10SM CLR M03/M09 A3016 RMK AO2 SLP232 T10281089
      53028=
METAR KGLS 110252Z AUTO 18013KT 8SM FEW028 OVC035 24/22 A2984 RMK AO2
      SLP103 T02390217 53008=
METAR KJXI 110255Z AUTO 18011G19KT 10SM CLR 24/18 A2971 RMK AO2 T02360175=
METAR KOKB 110252Z AUTO 33003KT 10SM CLR 08/08 A3014 RMK AO2 SLP204
      T00830083 50007=
METAR KTIW 110253Z 20013G25KT 10SM -RA BKN030 OVC045 06/05 A2989 RMK
      AO2 PK WND 20032/0206 RAB13 SLP123 P0000 60001 T00560050 56032=


984 
SAUS14 KAWN 110300 RRI
METAR KAFW 110253Z 27012KT 9SM SCT030 SCT110 SCT220 24/05 A2970 RMK
      AO2 SLP047 T02390050 51024=
METAR KBMQ 110253Z AUTO 00000KT 10SM CLR 19/16 A2981 RMK AO2 SLP081
      T01890161 51022 TSNO=
METAR KCCR 110253Z 12005KT 10SM CLR 08/01 A3024 RMK AO2 SLP225 T00780006
      53012=
METAR KCEZ 110253Z AUTO 11004KT 10SM CLR M07/M11 A3016 RMK AO2 SLP235
      T10671106 51029=
METAR KCNM 110253Z AUTO 10SM CLR 14/00 A2993 RMK AO2 SLP102 T01390000
      53021 $=
METAR KLVK 110253Z 00000KT 10SM CLR 06/00 A3024 RMK AO2 SLP241 T00610000
      53015=
METAR KLXV 110253Z AUTO 31012G17KT 2SM -SN OVC025 M16/M19 A2987 RMK
      AO2 PK WND 31028/0221 SNB0155 SLP146 P0000 60001 T11611189
      51015=
METAR KMFR 110253Z 18004KT 10SM FEW120 05/01 A3019 RMK AO2 SLP232 T00500011
      58003=
METAR KRBG 110253Z AUTO 22004KT 10SM FEW110 07/03 A3015 RMK AO2 SLP214
      T00720028 58015=
METAR KRIW 110253Z AUTO 29019G28KT 10SM CLR M06/M18 A2989 RMK AO2 PK
      WND 29028/0249 SLP167 T10611183 50007=
METAR KRQE 110253Z AUTO 00000KT 10SM CLR M06/M10 A3016 RMK AO2 SLP212
      T10561100 51034=
METAR KSDL 110253Z 00000KT 10SM CLR 14/06 A3012 RMK AO2 SLP191 T01390056
      51016=
METAR KVGT 110253Z 06005KT 10SM CLR 09/M11 A3025 RMK AO2 SLP265 T00891111
      51025=
METAR KVUO 110253Z AUTO 17006KT 10SM OVC027 08/04 A3006 RMK AO2 SLP178
      60000 T00780039 58020=


985 
SAUS14 KAWN 110300 RRJ
METAR KACV 110253Z AUTO 10003KT 10SM CLR 06/04 A3022 RMK AO2 SLP243
      T00560039 58004=
METAR KAKO 110253Z AUTO 32018G24KT 10SM CLR M06/M10 A2989 RMK AO2 PK
      WND 32028/0228 SLP162 T10611100 51039=
METAR KAUS 110253Z 00000KT 10SM FEW250 20/19 A2979 RMK AO2 SLP079 T02000189
      53026=
METAR KBNO 110253Z AUTO 09004KT 10SM OVC050 M01/M04 A3010 RMK AO2 SLP228
      T10061039 56008=
METAR KBOI 110253Z 13006KT 10SM OVC065 01/M04 A3018 RMK AO2 SLP243
      T00111039 53002=
METAR KBRO 110253Z 17012KT 10SM OVC016 26/23 A2981 RMK AO2 SLP091 T02610233
      51017 $=
METAR KBUR 110253Z 00000KT 10SM CLR 13/04 A3015 RMK AO2 SLP205 T01280044
      53020 $=
METAR KCPR 110253Z 22010KT 10SM CLR M12/M16 A2988 RMK AO2 SLP177 T11171156
      51007=
METAR KCYS 110253Z 30015G24KT 10SM CLR M07/M14 A2987 RMK AO2 PK WND
      30027/0230 SLP171 T10721144 51023 $=
METAR KLVS 110253Z AUTO 30018G28KT 10SM CLR M05/M23 A2997 RMK AO2 PK
      WND 30035/0155 SLP138 T10501233 53041=
METAR KPAE 110253Z 16016G31KT 10SM -RA BKN013 OVC017 06/03 A2984 RMK
      AO2 PK WND 15031/0244 SLP108 P0000 60000 T00610028 58037=
METAR KPSP 110253Z 31006KT 10SM CLR 14/M02 A3018 RMK AO2 SLP220 T01441022
      51018=
METAR KRAL 110253Z 00000KT 10SM CLR 11/06 A3015 RMK AO2 SLP202 T01060061
      51012=
METAR KSAF 110253Z 31014G24KT 10SM CLR M04/M18 A3008 RMK AO2 PK WND
      30030/0237 SLP187 T10391178 51040=
METAR KSNA 110253Z 00000KT 10SM CLR 14/08 A3015 RMK AO2 SLP210 T01390083
      51015=


988 
SAUS14 KAWN 110300 RRH
METAR KALI 110253Z AUTO 17009KT 10SM CLR 24/22 A2978 RMK AO2 SLP080
      T02440217 51021=
METAR KAMA 110253Z 34014KT 10SM CLR 03/M04 A2992 RMK AO2 SLP117 T00281044
      51068=
METAR KAPA 110253Z 31015G22KT 10SM FEW080 FEW100 M06/M17 A2992 RMK
      AO2 PK WND 29027/0207 SLP176 T10561167 51030=
METAR KBFI 110253Z 16015G26KT 8SM -RA BKN023 OVC040 07/03 A2988 RMK
      AO2 PK WND 18028/0224 RAB34 SLP119 P0000 60000 T00720033 58037=
METAR KCNO 110253Z 00000KT 10SM CLR 11/06 A3016 RMK AO2 SLP215 T01060056
      51014=
METAR KCRS 110253Z AUTO 19008KT 10SM CLR 23/19 A2974 RMK AO2 SLP068
      T02280194 53019=
METAR KCXO 110253Z AUTO 20012G20KT 10SM CLR 24/21 A2981 RMK AO2 SLP092
      T02440211 51015=
METAR KDEN 110253Z 29014KT 10SM FEW250 M04/M16 A2992 RMK AO2 SLP154
      T10391161 51028=
METAR KLVJ 110253Z AUTO 18008KT 8SM SCT014 BKN018 OVC046 25/23 A2984
      RMK AO2 SLP104 T02500228 53013=
METAR KMAE 110253Z AUTO 00000KT 10SM CLR 06/04 A3025 RMK AO2 SLP245
      T00610044 53018=
METAR KMFE 110253Z 16013G25KT 9SM SCT014 25/23 A2979 RMK AO2 SLP085
      T02500228 51023=
METAR KSAC 110253Z 00000KT 10SM CLR 05/01 A3023 RMK AO2 SLP236 T00500011
      52010=
METAR KVCB 110253Z AUTO 26003KT 10SM CLR 05/01 A3024 RMK AO2 SLP241
      T00500006 51013=
METAR KVEL 110253Z AUTO 00000KT 10SM CLR M13/M15 A3013 RMK AO2 SLP259
      T11281150 53027=
METAR KWVI 110253Z AUTO 35005KT 10SM CLR 07/05 A3023 RMK AO2 SLP238
      T00670050 51015=


991 
SAUS14 KAWN 110300 RRK
METAR KBYG 110253Z AUTO 23009KT 10SM CLR M10/M17 A2982 RMK AO2 SLP150
      T11001167 50001=
METAR KCDS 110253Z AUTO 01023G29KT 10SM CLR 11/M03 A2986 RMK AO2 PK
      WND 01029/0253 WSHFT 0208 SLP101 T01061028 53058=
METAR KCOT 110253Z AUTO 12004KT 10SM CLR 24/15 A2976 RMK AO2 SLP070
      T02440150 53020=
METAR KCRQ 110253Z 00000KT 10SM CLR 11/08 A3012 RMK AO2 SLP200 T01110078
      50005=
METAR KDAL 110253Z 22005KT 10SM FEW046 FEW230 23/13 A2971 RMK AO2 SLP056
      T02330128 52024=
METAR KIPL 110253Z AUTO 01003KT 10SM CLR 16/03 A3015 RMK AO2 SLP209
      T01560028 51019=
METAR KONT 110253Z 00000KT 10SM FEW027 11/04 A3015 RMK AO2 SLP212 T01060044
      51015=
METAR KPIH 110253Z 23015KT 10SM CLR M04/M09 A3013 RMK AO2 SLP239 T10391094
      51011=
METAR KRBD 110253Z AUTO 25007KT 10SM OVC038 24/08 A2972 RMK AO2 SLP058
      T02440078 51023=
METAR KRIL 110253Z AUTO 12005KT 10SM CLR M11/M14 A3013 RMK AO2 SLP245
      T11061144 53026=
METAR KRKP 110253Z AUTO 17008KT 5SM BR OVC008 24/23 A2980 RMK AO2 SLP092
      T02390228 51022=
METAR KRNT 110253Z 17008G17KT 10SM OVC045 08/02 A2988 RMK AO2 SLP122
      60000 T00830022 58038=
METAR KRTN 110253Z AUTO 34014G22KT 10SM CLR M04/M23 A2995 RMK AO2 SLP141
      60000 T10441228 51052=
METAR KSFF 110253Z 20004KT 10SM OVC070 02/M01 A2999 RMK AO2 SLP171
      T00171011 58006=
METAR KSNS 110253Z AUTO 26006KT 10SM CLR 10/04 A3023 RMK AO2 SLP247
      T01000044 51020=


992 
SAUS14 KAWN 110300 RRG
METAR KALW 110253Z AUTO 17014KT 10SM OVC070 05/M01 A3006 RMK AO2 SLP186
      60000 T00501006 58010=
METAR KASE 110253Z AUTO 01005KT 4SM -SN BR OVC016 M12/M14 A3002 RMK
      AO2 UPE06SNB06 SLP196 P0000 60000 T11171139 51025=
METAR KBIL 110253Z 26015KT 10SM CLR M02/M15 A2983 RMK AO2 SLP139 T10221150
      57000=
METAR KBLI 110253Z 16019G39KT 10SM OVC020 07/04 A2976 RMK AO2 PK WND
      14039/0247 RAB02E41 SLP086 P0000 60000 T00720039 58046=
METAR KBTM 110253Z AUTO 12007KT 10SM FEW047 OVC055 M05/M14 A2991 RMK
      AO2 SLP195 T10501139 51006=
METAR KBYI 110253Z AUTO 24010KT 10SM BKN060 M02/M08 A3016 RMK AO2 SLP240
      T10221078 51010=
METAR KCDC 110253Z AUTO 35005KT 10SM CLR M12/M16 A3022 RMK AO2 SLP287
      T11221156 53016=
METAR KCLM 110253Z AUTO VRB04KT 7SM -RA OVC036 05/03 A2974 RMK AO2
      SLP073 P0003 60006 T00500033 58041=
METAR KDEW 110253Z AUTO 16006KT 10SM OVC065 00/M02 A2997 RMK AO2 SNE13
      SLP170 P0000 60000 T00001022 58009=
METAR KMAF 110253Z 26009KT 10SM CLR 15/01 A2992 RMK AO2 SLP103 T01500006
      51029=
METAR KRNM 110253Z 00000KT 10SM CLR 06/05 A3013 RMK AO2 SLP204 T00610050
      50005=
METAR KRXE 110253Z AUTO 18010KT 10SM CLR M06/M12 A3005 RMK AO2 SLP227
      T10611122 53009=
METAR KSBA 110253Z 00000KT 10SM CLR 09/04 A3017 RMK AO2 SLP215 T00940044
      53016 $=
METAR KUTS 110253Z AUTO 19013G21KT 10SM FEW019 26/21 A2979 RMK AO2
      SLP082 T02560206 53012=
METAR KWRL 110253Z AUTO 00000KT 10SM CLR M15/M18 A2989 RMK AO2 SLP193
      T11501178 50007=


993 
SAUS14 KAWN 110300 RRL
METAR KDLS 110253Z AUTO 00000KT 10SM OVC060 07/02 A3005 RMK AO2 SLP177
      T00720022 56017=
METAR KDRT 110253Z AUTO 00000KT 10SM CLR 22/13 A2979 RMK AO2 SLP082
      T02220133 51025=
METAR KDVT 110253Z 00000KT 10SM CLR 13/08 A3012 RMK AO2 SLP191 T01280078
      53017=
METAR KHLN 110253Z VRB03KT 10SM FEW065 00/M13 A2990 RMK AO2 SLP180
      T00001133 53004=
METAR KLHX 110253Z AUTO 31013KT 10SM FEW060 SCT110 00/M07 A2995 RMK
      AO2 PK WND 29046/0201 SNB0159E11 SLP145 P0000 60001
      T00001072 51033=
METAR KMTJ 110253Z AUTO 15007KT 10SM CLR M07/M11 A3014 RMK AO2 SLP227
      T10721111 51024=
METAR KOLF 110253Z AUTO VRB03KT 10SM CLR M14/M17 A2976 RMK AO2 SLP126
      I1000 I3000 T11441172 58007=
METAR KPGA 110253Z AUTO 27006KT 10SM CLR 01/M12 A3021 RMK AO2 SLP234
      T00111117 53025=
METAR KPSX 110253Z AUTO 19008KT 6SM BR FEW019 OVC034 24/23 A2981 RMK
      AO2 SLP095 T02390228 51017=
METAR KPUW 110253Z AUTO 23010KT 9SM FEW016 BKN049 OVC085 01/M02 A3003
      RMK AO2 SNE26 SLP200 P0000 60000 T00061022 58004=
METAR KSHN 110253Z AUTO 18010KT 4SM -RA BR BKN014 OVC019 07/06 A2985
      RMK AO2 SLP113 P0006 60013 T00670061 56032=
METAR KSJC 110253Z 25003KT 10SM FEW080 SCT120 09/02 A3024 RMK AO2 SLP239
      T00890017 51015=
METAR KSPB 110253Z AUTO VRB06KT 10SM OVC016 08/05 A3003 RMK AO2 RAE42
      SLP168 P0001 60003 T00780050 58021=
METAR KSTS 110253Z 00000KT 10SM CLR 06/M01 A3023 RMK AO2 SLP231 T00611006
      53010=


994 
SAUS14 KAWN 110300 RRE
METAR KBKE 110253Z AUTO 23008KT 10SM CLR 00/M04 A3009 RMK AO2 SLP216
      T00001039 58004=
METAR KEPH 110253Z AUTO 20005KT 10SM SCT080 01/M03 A2992 RMK AO2 SLP148
      T00111033 56023=
METAR KFMN 110253Z 33005KT 10SM CLR M03/M11 A3016 RMK AO2 SLP237 T10331111
      51033=
METAR KFUL 110253Z 00000KT 10SM CLR 12/08 A3015 RMK AO2 SLP208 T01170083
      51016=
METAR KGCC 110253Z AUTO 25013KT 10SM CLR M09/M13 A2985 RMK AO2 SLP158
      T10891133 50007=
METAR KGEG 110253Z 18009KT 10SM FEW035 SCT050 OVC070 01/M02 A2995 RMK
      AO2 SNE09 SLP166 P0000 60000 T00061017 58011=
METAR KGEY 110253Z AUTO 10SM CLR M08/M11 A2990 RMK AO2 SLP177 T10831111
      50007=
METAR KGGW 110253Z AUTO 20004KT 10SM CLR M08/M12 A2973 RMK AO2 SLP109
      T10831117 56008=
METAR KGKY 110253Z AUTO 21004KT 10SM OVC035 23/07 A2973 RMK AO2 SLPNO
      T02330067 51027=
METAR KTCS 110253Z AUTO 34006KT 10SM CLR 09/M07 A3004 RMK AO2 SLP138
      T00891072 53036=
METAR KTKI 110253Z 23008KT 10SM OVC038 25/08 A2971 RMK AO2 SLP056 T02500083
      53025=
METAR KTTD 110253Z 19006KT 10SM -RA BKN034 OVC050 09/03 A3006 RMK AO2
      RAB40 SLP178 P0000 60000 T00890033 58022=
METAR KTYR 110253Z 20014G23KT 10SM CLR 24/19 A2972 RMK AO2 SLP059 T02390194
      51013 $=
METAR KUAO 110253Z 19013G21KT 10SM OVC029 08/03 A3006 RMK AO2 RAB19E39
      SLP179 P0001 60001 T00830028 56023=
METAR KUIL 110253Z AUTO 19013G31KT 5SM -RA BR BKN010 OVC015 08/08 A2973
      RMK AO2 PK WND 22032/0156 SLP069 P0007 60021 T00830083 58030=


996 
SAUS14 KAWN 110300 RRF
METAR KBPI 110253Z AUTO 25003KT 10SM CLR M15/M18 A3001 RMK AO2 SLP245
      T11501178 51018=
METAR KBPT 110253Z 17012G20KT 6SM BR BKN009 BKN027 OVC044 24/22 A2985
      RMK AO2 SLP107 T02390222 53007=
METAR KCAG 110253Z AUTO 29007KT 10SM CLR M13/M16 A3007 RMK AO2 SLP257
      T11331156 53022=
METAR KCLL 110253Z AUTO 18010KT 9SM CLR 24/22 A2977 RMK AO2 SLP076
      T02440217 53015=
METAR KEVW 110253Z AUTO 23009KT 10SM BKN047 M13/M15 A3010 RMK AO2 SLP272
      60000 T11281150 51021=
METAR KFAT 110253Z 31003KT 10SM FEW030 10/06 A3025 RMK AO2 SLP242 T01000061
      53020=
METAR KFHR 110253Z AUTO 15021G34KT 10SM OVC015 07/04 A2975 RMK AO2
      PK WND 15034/0215 SLP074 60000 T00670044 58051 TSNO=
METAR KLVM 110253Z AUTO 23032G47KT 10SM SCT070 M02/M17 A2984 RMK AO2
      PK WND 23047/0252 SLP145 T10221172 58001=
METAR KRDD 110253Z 06004KT 10SM CLR 04/M01 A3019 RMK AO2 SLP225 T00391006
      53004=
METAR KRWL 110253Z AUTO 26022G33KT 6SM HZ CLR M10/M14 A2993 RMK AO2
      PK WND 26035/0224 SNB34E35 SLP209 P0000 60000 T11001144 53018=
METAR KTOR 110253Z AUTO 20006KT 10SM CLR M08/M11 A2991 RMK AO2 SLP175
      60000 T10831106 51022=
METAR KTRL 110253Z AUTO 24010KT 10SM FEW060 SCT075 BKN110 23/19 A2973
      RMK AO2 SLP062 T02330189 53021=
METAR KTUS 110253Z 35005KT 10SM CLR 12/06 A3012 RMK AO2 SLP184 T01220056
      53017=
METAR KTWF 110253Z 21012KT 10SM OVC060 M02/M08 A3017 RMK AO2 SLP236
      T10221083 53003=
METAR KVNY 110251Z 00000KT 10SM CLR 12/06 A3015 RMK AO2 SLP208 T01220056
      52021=


442 
SAZZ40 KAWN 110300 RRB
METAR EFKI 110250Z AUTO 12008KT 9999 OVC006 M08/M10 Q1020=
METAR EFKU 110250Z AUTO 11011KT 9999 -FZRA OVC006 M05/M06 Q1021=
METAR KBAF 110253Z 36003KT 10SM CLR M02/M03 A3016 RMK AO2 SLP221 T10171033
      51001=
METAR KBUR 110253Z 00000KT 10SM CLR 13/04 A3015 RMK AO2 SLP205 T01280044
      53020 $=
METAR KHOP 110256Z AUTO 18014G22KT 10SM SCT022 SCT027 22/22 A2967 RMK
      AO2 LTG DSNT N SLP046 T02190217 57024=
METAR KNPA 110256Z 16008KT 5SM BR OVC004 22/21 A3002 RMK SLP168 T02170206
      51009=
METAR KTOI 110253Z AUTO 17005KT 10SM BKN012 OVC019 23/19 A3004 RMK
      AO2 SLP169 T02280194 51008=
METAR MGGT 110300Z 02014KT CAVOK 18/13 Q1021 A3015 FEW100=
METAR MGHT 110300Z 00000KT CAVOK 17/10 METAR MGPB 110300Z NIL=
METAR MPDA 110300Z 27004KT 230V320 9999 FEW020 25/24 Q1009=
METAR PABI 110253Z 27006KT 1 1/2SM -SN OVC025 M14/M17 A2897 RMK AO2
      SLP852 P0001 60002 T11391167 51023=
METAR PHBK 110251Z AUTO 00000KT 5SM -RA OVC037 25/22 A3003 RMK AO2
      RAB43 SLP172 P0000 60000 T02500217 53001=
METAR PHBK 110251Z AUTO 00000KT 5SM -RA OVC037 25/22 A3003 RMK AO2
      RAB43 SLP172 P0000 60000 T02500217 53001=
METAR PHJR 110253Z 07008KT 10SM CLR 27/18 A3004 RMK AO2 SLP180 T02720178
      53004=
METAR TIST 110253Z AUTO 06013KT 10SM FEW075 BKN090 26/21 A2998 RMK
      AO2 RAB08E29 SLP152 P0001 60001 T02560206 51004=
METAR TISX 110253Z AUTO 06008KT 10SM FEW031 26/23 A2998 RMK AO2 SLP151
      T02560228 51004=
METAR TLPL 110300Z 08017KT 9999 FEW026 26/23 Q1012 NOSIG=
METAR TXKF 110255Z 08006KT 9999 FEW035 SCT057 SCT300 19/13 Q1025=


444 
SANA35 KAWN 110300 RRA
METAR KACY 110254Z 00000KT 4SM -RA BR SCT019 OVC029 08/06 A3012 RMK
      AO2 RAB07 SLP198 P0003 60003 T00780061 55009=
METAR KBRO 110253Z 17012KT 10SM OVC016 26/23 A2981 RMK AO2 SLP091 T02610233
      51017 $=
METAR KDAB 110253Z 00000KT 6SM BR CLR 19/18 A3015 RMK AO2 SLP207 T01890178
      50004=
METAR KFLL 110253Z 11005KT 10SM FEW023 25/22 A3012 RMK AO2 SLP198 T02500222
      50006=
METAR KJFK 110251Z 06004KT 10SM BKN070 BKN250 06/03 A3012 RMK AO2 SLP199
      T00610028 58010=
METAR KMCO 110253Z 10005KT 10SM CLR 22/19 A3014 RMK AO2 SLP205 T02170194
      50005=
METAR KNIP 110253Z 16007KT 10SM CLR 20/19 A3014 RMK AO2 SLP202 T02000194
      51003=
METAR KNPA 110256Z 16008KT 5SM BR OVC004 22/21 A3002 RMK SLP168 T02170206
      51009=
METAR KNQX 110253Z 10010KT 10SM FEW025 27/21 A3010 RMK AO2 SLP192 T02670211
      51008 $=
METAR KPBI 110253Z 08004KT 10SM SCT020 24/21 A3014 RMK AO2 SLP205 T02390206
      51004=
METAR KSAV 110253Z 12005KT 6SM BR FEW060 15/14 A3013 RMK AO2 SLP202
      T01500144 58002=
METAR MUGM 110251Z 33008KT 10SM FEW030 SCT090 25/19 A3002 RMK AO2 SLP167
      T02500194 51013 $=
METAR SCEL 110300Z 16007KT CAVOK 15/11 Q1014 NOSIG=
METAR TIST 110253Z AUTO 06013KT 10SM FEW075 BKN090 26/21 A2998 RMK
      AO2 RAB08E29 SLP152 P0001 60001 T02560206 51004=
METAR TISX 110253Z AUTO 06008KT 10SM FEW031 26/23 A2998 RMK AO2 SLP151
      T02560228 51004=
METAR TXKF 110255Z 08006KT 9999 FEW035 SCT057 SCT300 19/13 Q1025=


447 
SAUS14 KAWN 110300 RRO
METAR KDHT 110253Z AUTO 35013KT 10SM FEW045 BKN055 02/M05 A2999 RMK
      AO2 SNB07E16 PRESRR SLP145 P0000 60000 T00221050 51069=
METAR KDLN 110253Z AUTO 18006KT 10SM BKN060 M06/M16 A2996 RMK AO2 SLP206
      T10561156 51005=
METAR KDTO 110253Z 27010KT 9SM OVC035 24/05 A2970 RMK AO2 SLP048 T02390050
      51022=
METAR KGTF 110253Z 22019G28KT 10SM CLR M02/M13 A2973 RMK AO2 PK WND
      22028/0242 SLP121 T10221128 58010 $=
METAR KHOU 110253Z 20009KT 10SM BKN016 OVC020 26/22 A2982 RMK AO2 RAB0156E06
      SLP104 P0000 60000 T02610222 53016=
METAR KIDA 110253Z 20014KT 10SM CLR M04/M09 A3008 RMK AO2 SLP229 T10441094
      53011=
METAR KJER 110253Z AUTO 17006KT 10SM OVC060 M02/M07 A3017 RMK AO2 SLP251
      T10221072 53005=
METAR KLAR 110253Z AUTO 28012KT 10SM CLR M12/M17 A2985 RMK AO2 SLP172
      T11221172 51016=
METAR KLBB 110253Z 30021G29KT 10SM BKN210 BKN240 13/M08 A2988 RMK AO2
      PK WND 29029/0250 SLP090 BKN LYR THN T01331078 53036=
METAR KLGB 110253Z 00000KT 10SM CLR 13/08 A3015 RMK AO2 SLP211 T01280083
      53016=
METAR KMOD 110253Z 00000KT 10SM CLR 09/01 A3024 RMK AO2 SLP238 T00940011
      53016=
METAR KMYF 110253Z 32003KT 10SM CLR 13/08 A3013 RMK AO2 SLP203 T01280078
      50006=
METAR KOGD 110253Z 16008KT 10SM CLR M04/M09 A3020 RMK AO2 SLP251 T10391094
      51014=
METAR KPIL 110253Z AUTO 18013G21KT 10SM BKN015 BKN024 26/23 A2981 RMK
      AO2 PK WND 17028/0223 SLP092 T02560228 53019=
METAR KPUB 110253Z 29014KT 10SM CLR M02/M14 A2996 RMK AO2 PK WND 30027/0154
      SLP156 T10171139 51042=


448 
SAUS14 KAWN 110300 RRM
METAR KDGW 110253Z AUTO 32006KT 10SM CLR M14/M17 A2990 RMK AO2 SLP194
      I1000 I3000 T11441172 51013=
METAR KDRO 110253Z AUTO 30003KT 10SM CLR M09/M13 A3010 RMK AO2 SLP242
      T10941133 51033 $=
METAR KDWH 110253Z AUTO 20011G19KT 10SM BKN024 OVC055 26/22 A2982 RMK
      AO2 SLP095 T02560217 53019=
METAR KEFD 110250Z 18011KT 7SM SCT012 BKN028 OVC047 24/22 A2983=
METAR KELN 110253Z AUTO 08005KT 10SM BKN080 01/M03 A2991 RMK AO2 SLP146
      T00061033 58022 $=
METAR KIAH 110253Z 21007KT 10SM FEW012 BKN022 OVC050 26/22 A2983 RMK
      AO2 RAB23E35 SLP099 P0000 60000 T02610217 51022=
METAR KLAX 110253Z 33005KT 10SM CLR 14/09 A3016 RMK AO2 SLP212 T01440094
      51018 $=
METAR KLBX 110253Z AUTO 19010KT 8SM FEW017 FEW025 OVC039 24/22 A2982
      RMK AO2 SLP098 T02440222 51012=
METAR KMSO 110253Z AUTO 00000KT 10SM OVC060 M02/M06 A2998 RMK AO2 SLP188
      T10171061 50000=
METAR KODO 110253Z AUTO 28009KT 10SM CLR 16/ A2993 RMK AO2 SLP106 T0156
      51027 $=
METAR KPDX 110253Z 17008KT 10SM OVC032 08/03 A3006 RMK AO2 SLP177 60000
      T00830033 58020 $=
METAR KPMD 110253Z 07005KT 10SM CLR 04/M04 A3019 RMK AO2 SLP233 T00391039
      53016=
METAR KPRC 110253Z 26004KT 10SM CLR M01/M06 A3016 RMK AO2 SLP214 T10111061
      51019=
METAR KPSC 110253Z 16007KT 10SM OVC085 07/00 A3004 RMK AO2 SLP177 T00720000
      58015=
METAR KPUC 110253Z AUTO 03005KT 10SM CLR M09/M13 A3015 RMK AO2 SLP279
      T10891133 51023=


632 
SAUS14 KAWN 110300 RRP
METAR KABH 110256Z AUTO 32010KT 10SM CLR M07/M21 A2993 RMK AO2 SLP188
      T10751207 52043=
METAR KBAN 110252Z AUTO 00000KT 10SM CLR M07/M11 A3013 RMK AO2 SLP272
      T10721111 51014 $=
METAR KGUP 110253Z AUTO 01008KT 10SM CLR M04/M10 A3015 RMK AO2 SLP240
      T10391100 51030=
METAR KHIO 110253Z 18009KT 10SM BKN018 OVC041 07/05 A3004 RMK AO2 RAE50
      SLP176 P0001 60003 T00670050 58020=
METAR KHRI 110253Z AUTO 19007KT 10SM SCT080 SCT110 07/00 A3005 RMK
      AO2 SLP180 T00670000 56019=
METAR KINK 110253Z AUTO 28014KT 10SM CLR 16/02 A2993 RMK AO2 SLP106
      T01610022 51027=
METAR KMLS 110253Z AUTO 22009KT 10SM CLR M06/M09 A2981 RMK AO2 SLP131
      T10561094 58001=
METAR KMWL 110253Z AUTO 25006KT 10SM SCT040 BKN120 22/04 A2974 RMK
      AO2 SLP059 T02170044 51026=
METAR KNFW 110252Z 26009KT 10SM OVC033 24/06 A2972 RMK AO2 SLP050 T02440067
      51026 CHINO S VISNO S $=
METAR KNTD 110252Z 06003KT 10SM CLR 10/07 A3017 RMK AO2 SLP219 T01000067
      51019 CHINO N VISNO N $=
METAR KPDT 110253Z 18009KT 10SM FEW055 OVC070 04/M01 A3006 RMK AO2
      SLP182 T00441011 58015=
METAR KREO 110252Z AUTO 16013KT M02/M11 A3013 RMK AO1 SLP237 T10221111
      58002=
METAR KSHR 110253Z AUTO 21004KT 10SM CLR M07/M14 A2984 RMK AO2 SLP154
      T10721139 50000=
METAR KSMF 110253Z 00000KT 10SM CLR 06/01 A3022 RMK AO2 SLP233 T00610006
      51009=
METAR KSSF 110253Z 00000KT 8SM CLR 22/18 A2977 RMK AO2 SLP071 T02170178
      53019=


633 
SAUS14 KAWN 110300 RRS
METAR K1FM 110256Z AUTO 26027G33KT 10SM OVC100 M02/M13 A2970 RMK AO2
      PK WND 26040/34 SLP118 T10211131 57014 $=
METAR K3N8 110255Z AUTO 20006KT 10SM CLR M07/M09 A2975 RMK AO2 T10701086=
METAR KAFF 110256Z 29016G24KT 10SM CLR M06/M21 A2988 RMK AO2A PK WND
      29028/25 SLP159 T10631211 52039=
METAR KATS 110255Z AUTO 26016G22KT 10SM CLR 13/M00 A2995 RMK AO2=
METAR KDNA 110255Z AUTO 28012G17KT 10SM CLR 09/00 A3006 RMK AO2=
METAR KELY 110253Z AUTO 17011KT 10SM CLR M15/M17 A3020 RMK AO2 SLP306
      T11501167 51010=
METAR KEUG 110254Z 17006KT 10SM FEW040 SCT080 BKN160 07/03 A3014 RMK
      AO2 SLP208 T00670033 55016=
METAR KGCN 110254Z AUTO 00000KT 10SM CLR M09/M11 A3016 RMK AO2 SLP244
      I1000 I3000 T10891106 51017=
METAR KHAF 110255Z AUTO 00000KT 9SM CLR 05/04 A3025 RMK AO2=
METAR KHWD 110254Z 07004KT 10SM CLR 09/02 A3024 RMK AO2 SLP250 T00940022
      53014=
METAR KL08 110255Z AUTO 00000KT 10SM FEW043 BKN050 BKN055 11/M02 A3015
      RMK AO2=
METAR KMRY 110254Z 10005KT 10SM CLR 08/04 A3023 RMK AO2 SLP251 T00780039
      53016=
METAR KOLM 110254Z 19015G25KT 9SM -RA FEW009 OVC013 06/05 A2990 RMK
      AO2 SLP124 P0005 60011 T00610050 58026=
METAR KRBL 110254Z AUTO 29006KT 10SM CLR 05/M02 A3020 RMK AO2 SLP229
      T00501017 53004=
METAR KSRR 110255Z AUTO 30013G24KT 10SM CLR 02/M10 A3006 RMK AO2=
METAR KSVC 110255Z AUTO 34007KT 10SM CLR 05/M01 A3008 RMK AO2 T00451011=
METAR KSXU 110255Z AUTO 29016G24KT 10SM CLR 02/M13 A3000 RMK AO2 T00211131=
METAR KTME 110255Z AUTO 22012KT 6SM HZ BKN019 OVC028 25/23 A2984 RMK
      AO2=
METAR KTVY 110255Z AUTO 16008KT 10SM CLR M08/M10 A3024 RMK AO2=


634 
SAUS14 KAWN 110300 RRR
METAR K1AW 110256Z AUTO 31011KT 10SM CLR M09/M11 A2987 RMK AO2 SLP184
      60000 T10951114 51023 FZRANO $=
METAR K1JW 110256Z AUTO 32019G28KT 10SM FEW060 SCT070 OVC095 M05/M08
      A2974 RMK AO2 PK WND 31032/30 SLP109 60000 T10491078 52036 $=
METAR K1NW 110256Z AUTO 32010KT 10SM CLR M06/M11 A2990 RMK AO2 PK WND
      34026/07 SLP164 T10641112 52029 $=
METAR KAPC 110254Z 14004KT 10SM CLR 03/00 A3024 RMK AO2 SLP229 T00330000
      51012=
METAR KBFL 110254Z 01005KT 8SM CLR 09/04 A3023 RMK AO2 SLP237 T00890044
      53015=
METAR KBVU 110255Z AUTO 02010KT 10SM CLR 08/M14 A3025 RMK AO2=
METAR KBXK 110255Z AUTO 34005KT 10SM 13/02 A3013 RMK A01=
METAR KGFA 110256Z AUTO 23021KT 10SM BKN190 M02/M12 A2975 RMK AO2 PK
      WND 22027/37 SLP128 T10171119 58009 $=
METAR KLOL 110253Z AUTO 33003KT 10SM CLR M03/M07 A3022 RMK AO2 SLP273
      T10281067 50003=
METAR KLSV 110255Z 02010G15KT 10SM CLR 08/M13 A3025 RMK SLPNO 5////
      WND DATA ESTMD ALSTG ESTMD $=
METAR KLWT 110254Z AUTO 23016KT 10SM CLR M06/M13 A2974 RMK AO2 SLP117
      T10611128 58003=
METAR KMAN 110255Z AUTO 13007KT 10SM 02/M00 A3018 RMK A01=
METAR KSLC 110254Z 12005KT 10SM FEW050 SCT075 M03/M08 A3023 RMK AO2
      SLP263 T10281083 51016 $=
METAR KSNK 110255Z AUTO 25016KT 10SM CLR 18/00 A2988 RMK AO2 T01791002=
METAR KSOW 110255Z AUTO 36005KT 10SM CLR M01/M09 A3016 RMK AO2=
METAR KSUU 110256Z AUTO 00000KT 10SM CLR 04/M00 A3024 RMK AO2 SLP248
      T00351002 52013 $=
METAR KTAD 110254Z AUTO 32009G20KT 10SM CLR M03/M18 A2996 RMK AO2 PK
      WND 30034/0156 SLP143 T10331183 51044=


635 
SAXX70 KAWN 110300 RRB
METAR KQBL 110255Z AUTO VRB01KT 5SM BR FEW007 BKN013 BKN036 22/22 A3008
      RMK AO2 SLP187 WND DATA ESTMD T02180218 52007=


636 
SAUS14 KAWN 110300 RRQ
METAR K1DM 110256Z AUTO 22013KT M M CLR M05/M13 A2971 RMK AO2 SLP127
      T10461127 58005 PWINO FZRANO $=
METAR K1IM 110256Z AUTO 24016G24KT 10SM BKN170 M02/M12 A2977 RMK AO2
      PK WND 25028/07 SLP143 T10171124 58005 $=
METAR K1KM 110256Z AUTO 27017KT 10SM CLR M04/M16 A2978 RMK AO2 SLP154
      T10401165 58005 $=
METAR K1OM 110256Z AUTO 26019KT 10SM CLR M04/M14 A2972 RMK AO2 SLP114
      T10401138 58006 $=
METAR KBAN 110252Z AUTO 00000KT 10SM CLR M07/M11 A3013 RMK AO2 SLP272
      T10721111 51014 $=
METAR KCQC 110253Z AUTO 31028G39KT 10SM CLR M06/M14 A3002 RMK AO2 PK
      WND 32039/0204 SLP183 T10561144 51036=
METAR KCQT 110252Z AUTO 00000KT 10SM CLR 13/08 A3015 RMK AO2 SLP211
      T01280083 51021=
METAR KCQT 110252Z AUTO 00000KT 10SM CLR 13/08 A3015 RMK AO2 SLP211
      T01280083 51021=
METAR KLFK 110253Z AUTO 17009G17KT 10SM SCT015 24/22 A2978 RMK AO2
      SLP081 T02390217 51004=
METAR KLMT 110253Z 00000KT 10SM CLR M04/M08 A3015 RMK AO2 SLP242 T10391083
      55003=
METAR KLUF 110256Z AUTO 34004KT 10SM CLR 14/04 A3011 RMK AO2 SLP195
      T01370043 52020 $=
METAR KNSI 110253Z AUTO 32007KT 10SM CLR 08/07 A3015 RMK AO2 SLP208
      T00780067 51016 $=
METAR KONO 110253Z AUTO 00000KT 10SM FEW075 02/M03 A3018 RMK AO2 SLP240
      T00171028 58001=
METAR KP69 110252Z AUTO 00000KT 01/ A3013 RMK AO1 SLP226 60005 T0006
      58002 $=
METAR KSLI 110256Z AUTO 00000KT 10SM CLR 10/10 A3015 RMK AO2 SLP213
      T01030103 52014 $=


637 
SAZZ40 KAWN 110300 RRC
METAR KABH 110256Z AUTO 32010KT 10SM CLR M07/M21 A2993 RMK AO2 SLP188
      T10751207 52043=
METAR KDTS 110253Z 13008KT 1 1/2SM BR OVC002 22/21 A3005 RMK AO2 SLP174
      T02170211 53003=
METAR KGFA 110256Z AUTO 23021KT 10SM BKN190 M02/M12 A2975 RMK AO2 PK
      WND 22027/37 SLP128 T10171119 58009 $=
METAR KLUF 110256Z AUTO 34004KT 10SM CLR 14/04 A3011 RMK AO2 SLP195
      T01370043 52020 $=
METAR KNFW 110252Z 26009KT 10SM OVC033 24/06 A2972 RMK AO2 SLP050 T02440067
      51026 CHINO S VISNO S $=
METAR KNIP 110253Z 16007KT 10SM CLR 20/19 A3014 RMK AO2 SLP202 T02000194
      51003=
METAR KNQX 110253Z 10010KT 10SM FEW025 27/21 A3010 RMK AO2 SLP192 T02670211
      51008 $=
METAR KNRB 110252Z AUTO 16008KT 10SM CLR 21/19 A3014 RMK AO2 SLP204
      T02060194 51003=
METAR KNSI 110253Z AUTO 32007KT 10SM CLR 08/07 A3015 RMK AO2 SLP208
      T00780067 51016 $=
METAR KNTD 110252Z 06003KT 10SM CLR 10/07 A3017 RMK AO2 SLP219 T01000067
      51019 CHINO N VISNO N $=
METAR KSLI 110256Z AUTO 00000KT 10SM CLR 10/10 A3015 RMK AO2 SLP213
      T01030103 52014 $=
METAR MUGM 110251Z 33008KT 10SM FEW030 SCT090 25/19 A3002 RMK AO2 SLP167
      T02500194 51013 $=
METAR NGFU 110300Z 08010KT 9999 -SHRA FEW015CB FEW018TCU OVC100 29/26
      Q1007=
METAR ORSU 110300Z 33004KT CAVOK M02/M02 Q1026=
METAR TJNR 110253Z AUTO 05010KT 10SM FEW024 26/23 A3001 RMK AO2 SLP161
      60001 T02610233 51004=


638 
SAUS14 KAWN 110300 RRN
METAR KDFW 110253Z 25006KT 10SM BKN035 BKN250 24/04 A2970 RMK AO2 SLP049
      T02440039 51023=
METAR KDMN 110253Z AUTO 27017G25KT 10SM CLR 08/M02 A3005 RMK AO2 SLP147
      T00781017 53008=
METAR KEEO 110253Z AUTO 00000KT 10SM SCT055 M18/M19 A3009 RMK AO2 SLP267
      I3/// T11781189 $=
METAR KHHR 110253Z 00000KT 10SM CLR 14/09 A3016 RMK AO2 SLP213 T01390089
      51019 $=
METAR KHQM 110253Z AUTO 20019G30KT 3SM -RA BKN015 OVC020 10/07 A2987
      RMK AO2 PK WND 20034/0155 RAE15B33 SLP119 P0002 60004
      T01000072 56024=
METAR KHVR 110253Z AUTO 22016KT 10SM CLR M07/M12 A2969 RMK AO2 SLP092
      T10671117 58008=
METAR KITR 110253Z AUTO 32012KT 10SM CLR M04/M10 A2989 RMK AO2 SLP147
      T10441100 51047 TSNO=
METAR KMLP 110253Z AUTO 24007KT 210V300 2SM -SN OVC007 M06/M09 A2985
      RMK AO2 SLP165 P0001 60002 T10611089 53002 $=
METAR KMMV 110253Z AUTO 19017G22KT 10SM FEW030 OVC042 08/04 A3005 RMK
      AO2 RAE26 SLP176 P0001 60001 T00830044 58021=
METAR KSDM 110253Z 00000KT 10SM CLR 12/08 A3012 RMK AO2 SLP198 T01220078
      50005=
METAR KSEA 110253Z 18013G25KT 10SM -RA SCT034 OVC042 07/03 A2987 RMK
      AO2 PK WND 18030/0155 RAB51 SLP123 P0000 60000 T00670028 58036=
METAR KSGR 110253Z 20010G20KT 10SM BKN022 BKN028 OVC039 27/22 A2982
      RMK AO2 SLP099 T02670217 51018=
METAR KSIY 110253Z AUTO 00000KT 10SM CLR 01/M04 A3019 RMK AO2 SLP255
      T00061044 56004=
METAR KTCC 110253Z AUTO 32019G27KT 10SM CLR 06/M13 A2994 RMK AO2 PK
      WND 30043/0159 PRESRR SLP120 T00561128 53070=


823 
SAUS14 KAWN 110300 RRT
METAR K1GM 110256Z AUTO 21019G24KT 10SM BKN100 M03/M12 A2974 RMK AO2
      PK WND 24026/38 SLP124 T10351121 57009 $=
METAR K1LW 110256Z AUTO 32018KT 10SM CLR M07/M09 A2991 RMK AO2 PK WND
      31028/14 SLP184 T10701092 52030 $=
METAR K1MM 110256Z AUTO 23013KT 10SM FEW140 M06/M13 A2975 RMK AO2 SLP136
      T10591130 58005 $=
METAR K1MW 110256Z AUTO 32017KT 10SM CLR M05/M10 A2991 RMK AO2 PK WND
      33028/0158 SLP170 T10551099 52033 $=
METAR K41U 110255Z AUTO 12006KT 10SM CLR M07/M11 A3024 RMK AO1 6////
      T10751111 PNO=
METAR KBAB 110256Z AUTO 12003KT 10SM CLR 04/00 A3021 RMK AO2 SLP234
      T00390004 51007 $=
METAR KCMR 110255Z AUTO 16004KT 10SM CLR M07/M10 A3015 RMK AO2=
METAR KCOS 110254Z 29014G18KT 10SM FEW200 M04/M22 A2992 RMK AO2 SLP167
      T10391217 51042=
METAR KCVH 110255Z AUTO 00000KT 10SM CLR 06/01 A3024 RMK A01=
METAR KFFZ 110254Z AUTO 00000KT 10SM CLR A3011 RMK AO2 SLPNO 52016
      TSNO $=
METAR KHOB 110255Z AUTO 24017G24KT 10SM OVC038 13/M01 A2992 RMK AO2=
METAR KJAQ 110255Z AUTO 00000KT 10SM CLR 05/02 A3021 RMK AO1 T00530020=
METAR KL52 110255Z AUTO 36003KT 10SM CLR 11/02 A3019 RMK A01=
METAR KO22 110255Z AUTO 00000KT 10SM CLR 02/02 A3020 RMK A01=
METAR KOAK 110253Z 31005KT 10SM FEW180 10/02 A3025 RMK AO2 SLP243 T01000022
      53013=
METAR KOLS 110254Z AUTO 00000KT 10SM SCT038 07/03 A3011 RMK AO2 SLP174
      T00670033 53015=
METAR KPAN 110255Z AUTO 00000KT 10SM CLR 03/M03 A3016 RMK AO2=
METAR KRKS 110254Z AUTO 26022G30KT 10SM CLR M11/M15 A3002 RMK AO2 PK
      WND 26030/0232 SLP243 60000 T11111150 51017=


826 
SAZZ40 KAWN 110300 RRD
METAR K1YT 110256Z AUTO 18015G22KT 10SM FEW075 05/M01 A2991 RMK AO2
      SLPNO T00471015 57020 $=
METAR K2DP 110256Z AUTO 18008KT 10SM SCT030 SCT120 16/16 A3012 RMK
      AO2 SLPNO 60000 T01630163 58003=
METAR KAFF 110256Z 29016G24KT 10SM CLR M06/M21 A2988 RMK AO2A PK WND
      29028/25 SLP159 T10631211 52039=
METAR KBAB 110256Z AUTO 12003KT 10SM CLR 04/00 A3021 RMK AO2 SLP234
      T00390004 51007 $=
METAR KLSV 110255Z 02010G15KT 10SM CLR 08/M13 A3025 RMK SLPNO 5////
      WND DATA ESTMD ALSTG ESTMD $=
METAR KOZR 110256Z AUTO 17009KT 10SM OVC008 21/21 A3005 RMK AO2 SLP176
      T02120210 52006=
METAR KPAM 110256Z AUTO 15011KT 9SM OVC003 22/21 A3006 RMK AO2 SLP182
      T02150206 50002 $=
METAR KPOB 110256Z AUTO 24005KT 10SM OVC015 12/12 A3012 RMK AO2 CIG
      014 RWY05 SLP203 60000 T01210116 58005 $=
METAR KSUU 110256Z AUTO 00000KT 10SM CLR 04/M00 A3024 RMK AO2 SLP248
      T00351002 52013 $=
METAR KSVN 110256Z AUTO 11004KT 10SM SCT065 16/14 A3011 RMK AO2 SLP199
      T01580143 58002 $=
METAR KTBN 110256Z AUTO 18005KT 10SM FEW025 17/15 A2946 RMK AO2 DZB22E24RAB24E51DZB51E54
      SLP973 P0002 60024 T01650145 50001=
METAR KVAD 110256Z AUTO 18003KT 8SM CLR 18/17 A3010 RMK AO2 SLP194
      T01790169 50005 $=
METAR LEMO 110300Z 19004KT 160V230 CAVOK 09/08 Q1023 NOSIG=
METAR MPTO 110300Z VRB02KT CAVOK 25/22 Q1009 NOSIG=
METAR PHHI 110256Z AUTO 10011KT 10SM FEW026 BKN035 24/17 A3007 RMK
      AO2 SLP174 T02360173 53004 $=
METAR RODN 110256Z AUTO 11007KT 10SM FEW033 SCT050 BKN060 24/15 A3020
      RMK AO2 SLP234 T02390148 58008 $=


827 
SAMZ40 FQMA 110300
METAR FQIN 110300Z 00000KT 9999 FEW020 SCT025 24/23 Q1012=

835 
SAMX52 MMGL 110300
METAR COR MMSP 110252Z 07006KT 8SM  SKC 13/M01 A3019 
      RMK SLP122 52009 965 CI=





TX_OPMET


458 
SAEW KAWN 110300 RRB
METAR EBAW 110250Z AUTO 32009KT 9999 // BKN032/// 06/04 Q1008=
METAR EDAC 110250Z AUTO VRB01KT 9999 // NCD M05/M06 Q1005=
METAR EDFH 110250Z 31006KT 0400 R21/1400N FZFG VV/// M00/M00 Q1006=
METAR EDHI 110250Z AUTO 22003KT 190V250 4700 // OVC047/// 01/01 Q1006=
METAR EDHK 110250Z AUTO 26004KT 6000 // OVC052/// 01/00 Q1005=
METAR EDHL 110250Z AUTO VRB02KT 3900 // OVC051/// 01/00 Q1006=
METAR EDLN 110250Z AUTO 27004KT 240V300 1500 // OVC001/// 01/01 Q1008=
METAR EDLP 110250Z 20004KT CAVOK M04/M05 Q1005=
METAR EDLW 110250Z AUTO 23008KT 9999 // NCD M01/M02 Q1007=
METAR EDMA 110250Z AUTO 23011KT 9999 FEW050/// SCT063/// OVC073///
      02/M00 Q1005=
METAR EDMO 110250Z AUTO 24014KT 9999 // BKN017/// OVC035/// 02/M01
      Q1005=
METAR EDNY 110250Z AUTO 24010KT 9999 // SCT019/// BKN027/// OVC057///
      03/M00 Q1008=
METAR EDQM 110250Z AUTO 00000KT 5000 // OVC010/// M02/M02 Q1002=
METAR EDSB 110250Z AUTO 25006KT 230V290 9999 // FEW041/// SCT047///
      OVC056/// 03/02 Q1008=
METAR EDVE 110250Z AUTO 29003KT 250V330 0600 0500 R08/0800U // VV///
      M00/M01 Q1006=
METAR EDXW 110250Z AUTO 00000KT 7000 // BKN043/// M00/M01 Q1006=
METAR EHDL 110255Z AUTO 11001KT 8000 BR OVC120 M03/M04 Q1007 BLU=
METAR ETAD 110256Z AUTO 27003KT 9999 SCT011 BKN017 00/M00 A2975 RMK
      AO2 CIG 012V017 SLP084 T00031004 52039 FZRANO TSNO $=
METAR ETIH 110256Z AUTO 22003KT 9999 BKN007 OVC012 01/M01 A2964 RMK
      AO2 FZRAB15E25RAB25E52RAB52E52 SLP061 P0001 60002 T00091006
      52026 $=
METAR ETIK 110256Z AUTO 27004KT 4000 BR OVC007 01/01 A2969 RMK AO2
      DZB0157E26 SLP071 P0000 60000 T00070007 52035 $=


562 
SAMH31 PKMR 110300
METAR PKMR 110255Z 10005KT 15SM FEW015 SCT050 BKN120 OVC300 30/25
A2975 RMK SLP075 8/871 T02950246 57019=


671 
SAVN31 SVVA 110300
METAR SVVA 110300Z NIL=


825 
SAUS17 KAWN 110300 RRA
METAR KAFF 110256Z 29016G24KT 10SM CLR M06/M21 A2988 RMK AO2A PK WND
      29028/25 SLP159 T10631211 52039=
METAR KBAB 110256Z AUTO 12003KT 10SM CLR 04/00 A3021 RMK AO2 SLP234
      T00390004 51007 $=
METAR KCOF 110256Z AUTO 00000KT 10SM CLR 22/22 A3012 RMK AO2 SLP204
      T02220220 50003 $=
METAR KDAA 110256Z AUTO 00000KT 10SM OVC024 09/07 A3007 RMK AO2 SLP186
      60001 T00850073 58004 $=
METAR KEFD 110250Z 18011KT 7SM SCT012 BKN028 OVC047 24/22 A2983=
METAR KEND 110256Z AUTO 30015KT 10SM CLR 05/M03 A2979 RMK AO2 PK WND
      32032/0159 PRESRR SLP089 T00481032 52065 $=
METAR KFTK 110256Z AUTO 16014G20KT 10SM -TSRA OVC010 18/17 A2967 RMK
      AO2 RAB09E22DZB22E26RAB26E27RAB27E27RAB40 TSB43 SLP047 P0000
      60000 T01760174 57038=
METAR KHOP 110256Z AUTO 18014G22KT 10SM SCT022 SCT027 22/22 A2967 RMK
      AO2 LTG DSNT N SLP046 T02190217 57024=
METAR KLSV 110255Z 02010G15KT 10SM CLR 08/M13 A3025 RMK SLPNO 5////
      WND DATA ESTMD ALSTG ESTMD $=
METAR KLUF 110256Z AUTO 34004KT 10SM CLR 14/04 A3011 RMK AO2 SLP195
      T01370043 52020 $=
METAR KNFW 110252Z 26009KT 10SM OVC033 24/06 A2972 RMK AO2 SLP050 T02440067
      51026 CHINO S VISNO S $=
METAR KSVN 110256Z AUTO 11004KT 10SM SCT065 16/14 A3011 RMK AO2 SLP199
      T01580143 58002 $=
METAR KVAD 110256Z AUTO 18003KT 8SM CLR 18/17 A3010 RMK AO2 SLP194
      T01790169 50005 $=
METAR PABA 110252Z AUTO 27024KT 1/2SM SN FZFG SCT015 OVC021 M18/M21
      A2938 RMK AO2 PK WND 27026/0252 SLP956 P0000 60000 T11831206
      51009 FZRANO=


829 
SAXN17 KAWN 110300 RRB
METAR MMSP 110252Z 07006KT 8SM SKC 13/M01 A3017 RMK SLP122 52009 965
      CI=
METAR MPTO 110300Z VRB02KT CAVOK 25/22 Q1009 NOSIG=
METAR MUGM 110251Z 33008KT 10SM FEW030 SCT090 25/19 A3002 RMK AO2 SLP167
      T02500194 51013 $=
METAR NFTF 110300Z 10011G21KT 9999 FEW018TCU 29/25 Q1012=
METAR NFTV 110300Z 36008KT 9999 FEW009 BKN016TCU 27/24 Q1011=
METAR PAEH 110255Z AUTO 35034G41KT 300V030 1SM -SN BR OVC014 M13/M16
      A2969 RMK AO2 PK WND 35044/0240 SNB0155 SLP071 P0000 60000
      T11351157 53053=
METAR PAIM 110255Z AUTO 26011KT 10SM -SN OVC060 M18/M21 A2910 RMK AO2
      SHSNB0203E0213 SLP895 T11761209 52019=
METAR PASV 110255Z AUTO 35025G35KT 1/2SM -SN FG VV003 M16/M18 A2909
      RMK AO2 PK WND 35037/0216 SNB0155 SLP904 P0000 60000
      T11631182 53036 $=
METAR PATC 110255Z AUTO 01031G34KT 1 1/4SM -SN BR BKN018 M21/M24 A2980
      RMK AO2 PK WND 36034/0226 SNB0055 SLP104 P0000 60000
      T12131242 51021=
METAR PHHI 110256Z AUTO 10011KT 10SM FEW026 BKN035 24/17 A3007 RMK
      AO2 SLP174 T02360173 53004 $=
METAR PHJR 110253Z 07008KT 10SM CLR 27/18 A3004 RMK AO2 SLP180 T02720178
      53004=
METAR RJTY 110256Z AUTO 00000KT 10SM CLR 14/02 A3019 RMK AO2 SLP229
      T01440016 57024 $=
METAR RODN 110256Z AUTO 11007KT 10SM FEW033 SCT050 BKN060 24/15 A3020
      RMK AO2 SLP234 T02390148 58008 $=
METAR TJNR 110253Z AUTO 05010KT 10SM FEW024 26/23 A3001 RMK AO2 SLP161
      60001 T02610233 51004=
METAR TLPL 110300Z 08017KT 9999 FEW026 26/23 Q1012 NOSIG=


856 
SANA14 KAWN 110300 RRA
METAR KNIP 110253Z 16007KT 10SM CLR 20/19 A3014 RMK AO2 SLP202 T02000194
      51003=
METAR KNPA 110256Z 16008KT 5SM BR OVC004 22/21 A3002 RMK SLP168 T02170206
      51009=
METAR KNQX 110253Z 10010KT 10SM FEW025 27/21 A3010 RMK AO2 SLP192 T02670211
      51008 $=
METAR KNRB 110252Z AUTO 16008KT 10SM CLR 21/19 A3014 RMK AO2 SLP204
      T02060194 51003=
METAR KNSI 110253Z AUTO 32007KT 10SM CLR 08/07 A3015 RMK AO2 SLP208
      T00780067 51016 $=
METAR KNTD 110252Z 06003KT 10SM CLR 10/07 A3017 RMK AO2 SLP219 T01000067
      51019 CHINO N VISNO N $=
METAR KOSC 110255Z AUTO 10013G18KT 4SM UP OVC013 04/02 A2971 RMK AO2
      T00390018=
METAR KOZR 110256Z AUTO 17009KT 10SM OVC008 21/21 A3005 RMK AO2 SLP176
      T02120210 52006=
METAR KPAM 110256Z AUTO 15011KT 9SM OVC003 22/21 A3006 RMK AO2 SLP182
      T02150206 50002 $=
METAR KPOB 110256Z AUTO 24005KT 10SM OVC015 12/12 A3012 RMK AO2 CIG
      014 RWY05 SLP203 60000 T01210116 58005 $=
METAR KSLI 110256Z AUTO 00000KT 10SM CLR 10/10 A3015 RMK AO2 SLP213
      T01030103 52014 $=
METAR KSUU 110256Z AUTO 00000KT 10SM CLR 04/M00 A3024 RMK AO2 SLP248
      T00351002 52013 $=
METAR KTBN 110256Z AUTO 18005KT 10SM FEW025 17/15 A2946 RMK AO2 DZB22E24RAB24E51DZB51E54
      SLP973 P0002 60024 T01650145 50001=
METAR KVAD 110256Z AUTO 18003KT 8SM CLR 18/17 A3010 RMK AO2 SLP194
      T01790169 50005 $=
METAR SBBR 110300Z 08009KT 9999 SCT040 SCT100 22/19 Q1014=


018 
SAZZ40 KAWN 110300 RRE
METAR EGUL 110256Z AUTO 28003KT 9999 CLR 00/00 A2986 RMK AO2 SLP116
      T00040003 52022 $=
METAR EGVA 110256Z AUTO 25008KT 9999 OVC150 02/02 A2991 RMK AO2 SLP135
      T00200019 52019 $=
METAR ETAD 110256Z AUTO 27003KT 9999 SCT011 BKN017 00/M00 A2975 RMK
      AO2 CIG 012V017 SLP084 T00031004 52039 FZRANO TSNO $=
METAR ETOU 110256Z AUTO 31006KT 9999 SCT028 BKN041 02/M02 A2973 RMK
      AO2 SLP077 T00221021 52037 FZRANO $=
METAR KCOF 110256Z AUTO 00000KT 10SM CLR 22/22 A3012 RMK AO2 SLP204
      T02220220 50003 $=
METAR KDAA 110256Z AUTO 00000KT 10SM OVC024 09/07 A3007 RMK AO2 SLP186
      60001 T00850073 58004 $=
METAR KDYS 110256Z AUTO 25009KT 10SM CLR 20/M00 A2981 RMK AO2 SLP065
      T02031004 52027=
METAR KEND 110256Z AUTO 30015KT 10SM CLR 05/M03 A2979 RMK AO2 PK WND
      32032/0159 PRESRR SLP089 T00481032 52065 $=
METAR KFCS 110255Z 33012KT 10SM FEW200 M03/M27 A2995 RMK AO2A SLP234
      WND DATA ESTMD=
METAR KFTK 110256Z AUTO 16014G20KT 10SM -TSRA OVC010 18/17 A2967 RMK
      AO2 RAB09E22DZB22E26RAB26E27RAB27E27RAB40 TSB43 SLP047 P0000
      60000 T01760174 57038=
METAR KINS 110256Z AUTO 05005KT 10SM CLR 04/M09 A3024 RMK AO2 SLP244
      T00401087 52020 $=
METAR KLHW 110256Z AUTO 12003KT 8SM CLR 15/14 A3011 RMK AO2 SLP199
      T01500144 50001 $=
METAR KRIV 110256Z AUTO 00000KT 10SM CLR 06/04 A3014 RMK AO2 SLP210
      T00630035 50009=
METAR KXNO 110256Z AUTO 00000KT 4SM HZ OVC003 12/ A3014 RMK AO2 SLP210
      58001 $=
METAR MRLB 110300Z 09003KT CAVOK 25/19 A2987=


019 
SAEU31 BKPR 110300
METAR BKPR 110300Z 15015KT 9999 SCT035 BKN060 04/01 Q1003 NOSIG =


020 
SAUS14 KAWN 110300 RRU
METAR K0E0 110255Z AUTO 31022G29KT 10SM CLR M01/M15 A3010 RMK AO2 T10151154
      TSNO=
METAR K0S9 110255Z AUTO 15011G20KT 110V170 10SM BKN015 BKN065 OVC075
      06/05 A2975 RMK AO2=
METAR K1AM 110256Z AUTO 21024G36KT 10SM BKN170 M01/M13 A2973 RMK AO2
      PK WND 22036/49 SLP060 T10141135 56012 $=
METAR K1EM 110256Z AUTO 25014KT 10SM CLR M05/M13 A2972 RMK AO2 SLP128
      T10501130 56004 $=
METAR K1JM 110256Z AUTO 23017G27KT 10SM BKN090 M02/M13 A2970 RMK AO2
      PK WND 24027/47 SLP126 T10211135 58010 $=
METAR K1NM 110256Z AUTO 25011KT 10SM CLR M05/M14 A2972 RMK AO2 SLP130
      T10501136 58002 $=
METAR K1YT 110256Z AUTO 18015G22KT 10SM FEW075 05/M01 A2991 RMK AO2
      SLPNO T00471015 57020 $=
METAR K6S2 110255Z AUTO 14006KT 10SM OVC029 08/05 A3012 RMK AO2 T00800045=
METAR KCPT 110255Z AUTO 25006KT 10SM FEW022 FEW030 FEW037 22/06 A2976
      RMK A01=
METAR KDYS 110256Z AUTO 25009KT 10SM CLR 20/M00 A2981 RMK AO2 SLP065
      T02031004 52027=
METAR KFCS 110255Z 33012KT 10SM FEW200 M03/M27 A2995 RMK AO2A SLP234
      WND DATA ESTMD=
METAR KGNT 110255Z AUTO 35011KT 10SM SCT041 M04/M14 A3016 RMK AO2 T10421137=
METAR KHIF 110256Z 15010KT 10SM SCT070 M06/M11 A3019 RMK AO2A SLP256
      T10591107 52014 $=
METAR KINS 110256Z AUTO 05005KT 10SM CLR 04/M09 A3024 RMK AO2 SLP244
      T00401087 52020 $=
METAR KPRB 110253Z AUTO 09003KT 10SM CLR 08/01 A3021 RMK AO2 SLP233
      T00780006 53017=
METAR KRIV 110256Z AUTO 00000KT 10SM CLR 06/04 A3014 RMK AO2 SLP210
      T00630035 50009=


401 
SAFJ31 NFNL 110300
METAR NFNL 110300Z 27003KT 9999 SCT025 SCT048 32/23 Q1010=


402 
SAID31 WIII 110300
METAR WIII 110300Z 32011KT 9999 BKN020 29/26 Q1012 NOSIG=


060 
SAXX60 KWBC 110300
METAR
PHBK 110251Z AUTO 00000KT 5SM -RA OVC037 25/22 A3003 RMK AO2 RAB43
     SLP172 P0000 60000 T02500217 53001=
PHBK 110251Z AUTO 00000KT 5SM -RA OVC037 25/22 A3003 RMK AO2 RAB43
     SLP172 P0000 60000 T02500217 53001=
KBKB 110254Z AUTO VRB03KT 10SM BKN017 OVC024 24/21 A2982 RMK AO2
     SLP124 T02440206 51007=
KFZY 110254Z AUTO 11003KT 8SM FEW060 02/M02 A3001 RMK AO2 SLP168
     T00171017 58009=
KMRT 110255Z AUTO 18012G17KT 4SM OVC004 12/11 A2975 RMK AO2 60005
     T01170110 P0002=
KNBG 110255Z 17009KT 9SM FEW015 SCT030 SCT045 23/22 A2996 RMK AO2
     SLP145 T02330222 50008 $=
KNJK 110256Z AUTO 03005KT 10SM CLR 13/03 A3017 RMK AO2 SLP232
     T01330028 51019 $=
KHOP 110256Z AUTO 18014G22KT 10SM SCT022 SCT027 22/22 A2967 RMK
     AO2 LTG DSNT N SLP046 T02190217 57024=
KNPA 110256Z 16008KT 5SM BR OVC004 22/21 A3002 RMK SLP168
     T02170206 51009=
PABI 110253Z 27006KT 1 1/2SM -SN OVC025 M14/M17 A2897 RMK AO2
     SLP852 P0001 60002 T11391167 51023=
PHBK 110251Z AUTO 00000KT 5SM -RA OVC037 25/22 A3003 RMK AO2 RAB43
     SLP172 P0000 60000 T02500217 53001=
PHBK 110251Z AUTO 00000KT 5SM -RA OVC037 25/22 A3003 RMK AO2 RAB43
     SLP172 P0000 60000 T02500217 53001=
KNIP 110253Z 16007KT 10SM CLR 20/19 A3014 RMK AO2 SLP202 T02000194
     51003=
KNPA 110256Z 16008KT 5SM BR OVC004 22/21 A3002 RMK SLP168
     T02170206 51009=
KNQX 110253Z 10010KT 10SM FEW025 27/21 A3010 RMK AO2 SLP192
     T02670211 51008 $=
MUGM 110251Z 33008KT 10SM FEW030 SCT090 25/19 A3002 RMK AO2 SLP167
     T02500194 51013 $=
KIAG 110253Z 09004KT 8SM CLR 05/02 A2989 RMK AO2 SLP129 T00500017
     58036=
KBAN 110252Z AUTO 00000KT 10SM CLR M07/M11 A3013 RMK AO2 SLP272
     T10721111 51014 $=
KLUF 110256Z AUTO 34004KT 10SM CLR 14/04 A3011 RMK AO2 SLP195
     T01370043 52020 $=
KNSI 110253Z AUTO 32007KT 10SM CLR 08/07 A3015 RMK AO2 SLP208
     T00780067 51016 $=
KSLI 110256Z AUTO 00000KT 10SM CLR 10/10 A3015 RMK AO2 SLP213
     T01030103 52014 $=
K1CW 110256Z AUTO 28007KT 10SM CLR M08/M10 A2995 RMK AO2 SNE01
     SLP180 T10801102 52024 TSNO $=
K1KW 110256Z AUTO 33014G19KT 10SM SCT080 M06/M08 A2987 RMK AO2 PK
     WND 33028/0158 SNE24 SLP163 T10631085 52030 $=
KRSP 110254Z AUTO 12008KT 9SM SCT015 04/M01 A3001 RMK AO2 SLP178
     T00441011 58012 $=
KABH 110256Z AUTO 32010KT 10SM CLR M07/M21 A2993 RMK AO2 SLP188
     T10751207 52043=
KBAN 110252Z AUTO 00000KT 10SM CLR M07/M11 A3013 RMK AO2 SLP272
     T10721111 51014 $=
KNFW 110252Z 26009KT 10SM OVC033 24/06 A2972 RMK AO2 SLP050
     T02440067 51026 CHINO S VISNO S $=
KNTD 110252Z 06003KT 10SM CLR 10/07 A3017 RMK AO2 SLP219 T01000067
     51019 CHINO N VISNO N $=
K1AW 110256Z AUTO 31011KT 10SM CLR M09/M11 A2987 RMK AO2 SLP184
     60000 T10951114 51023 FZRANO $=
K1JW 110256Z AUTO 32019G28KT 10SM FEW060 SCT070 OVC095 M05/M08
     A2974 RMK AO2 PK WND 31032/30 SLP109 60000 T10491078 52036
     $=
KLSV 110255Z 02010G15KT 10SM CLR 08/M13 A3025 RMK SLPNO 5//// WND
     DATA ESTMD ALSTG ESTMD $=
KSUU 110256Z AUTO 00000KT 10SM CLR 04/M00 A3024 RMK AO2 SLP248
     T00351002 52013 $=
K1EW 110256Z AUTO 33013KT 10SM CLR M08/M10 A2989 RMK AO2 SLP187
     T10801100 52028 $=
KABH 110256Z AUTO 32010KT 10SM CLR M07/M21 A2993 RMK AO2 SLP188
     T10751207 52043=
KDTS 110253Z 13008KT 1 1/2SM BR OVC002 22/21 A3005 RMK AO2 SLP174
     T02170211 53003=
KLUF 110256Z AUTO 34004KT 10SM CLR 14/04 A3011 RMK AO2 SLP195
     T01370043 52020 $=
KNFW 110252Z 26009KT 10SM OVC033 24/06 A2972 RMK AO2 SLP050
     T02440067 51026 CHINO S VISNO S $=
KNIP 110253Z 16007KT 10SM CLR 20/19 A3014 RMK AO2 SLP202 T02000194
     51003=


061 
SAPQ50 KWBC 110300
METAR
PTKK 110253Z 35007G23KT 15SM FEW014 SCT120 BKN280 29/26 A2968 RMK
     SLP052 8/171 T02940260 57025=
PGSN 110254Z 05013G18KT 10SM FEW020 SCT025 SCT035 29/24 A2982 RMK
     AO2 SLP119 T02940244 58016 $=
PTKK 110253Z 35007G23KT 15SM FEW014 SCT120 BKN280 29/26 A2968 RMK
     SLP052 8/171 T02940260 57025=
PTRO 110250Z 04007KT 14SM BKN015TCU BKN120 BKN300 30/25 A2978 RMK
     TCU SW-W=
PTSA 110252Z 06010KT 10SM -SHRA BKN018TCU BKN130 BKN300 29/26
     A2973 RMK TCU S-SW LAST=
PKMR 110255Z 10005KT 15SM FEW015 SCT050 BKN120 OVC300 30/25 A2975
     RMK SLP075 8/871 T02950246 57019=


063 
SAUS70 KWBC 110300 RRU
METAR
KFFZ 110254Z AUTO 00000KT 10SM CLR A3011 RMK AO2 SLPNO 52016 TSNO
     $=
KHOB 110255Z AUTO 24017G24KT 10SM OVC038 13/M01 A2992 RMK AO2=
KJAQ 110255Z AUTO 00000KT 10SM CLR 05/02 A3021 RMK AO1
     T00530020=
KL52 110255Z AUTO 36003KT 10SM CLR 11/02 A3019 RMK A01=
KO22 110255Z AUTO 00000KT 10SM CLR 02/02 A3020 RMK A01=
KOAK 110253Z 31005KT 10SM FEW180 10/02 A3025 RMK AO2 SLP243
     T01000022 53013=
KOLS 110254Z AUTO 00000KT 10SM SCT038 07/03 A3011 RMK AO2 SLP174
     T00670033 53015=
KPAN 110255Z AUTO 00000KT 10SM CLR 03/M03 A3016 RMK AO2=
KRKS 110254Z AUTO 26022G30KT 10SM CLR M11/M15 A3002 RMK AO2 PK WND
     26030/0232 SLP243 60000 T11111150 51017=
K1M4 110256Z AUTO 20016G25KT 10SM OVC012 22/20 A2988 RMK AO2 PK
     WND 21029/0218 SLP513 60000 T02170200 58012=
K7N0 110256Z AUTO 18006KT 8SM CLR 24/23 A2997 RMK AO2 SLP149
     T02390228 50009=
KADF 110256Z AUTO 24015G20KT 3SM TSRA BR FEW020 BKN030 OVC070
     18/16 A2967 RMK AO2 PK WND 30032/0245 LTG DSNT ALQDS
     TSB24RAB47 SLP043 P0013 60013 T01830161 51003=
KAFJ 110256Z AUTO 17004KT 10SM -RA OVC022 11/09 A2991 RMK AO2
     RAB15 SLP128 P0000 60000 T01110089 58019=
KAIZ 110256Z AUTO 20011KT SCT060 15/12 A2943 RMK AO2 PK WND
     20047/0158 LTG DSNT E TSE18RAE11 SLP959 P0002 60022 T01500117
     58005 $=
KAJO 110256Z AUTO 00000KT 10SM CLR 07/06 A3016 RMK AO2 SLP215
     6//// T00720056 51014=
KARG 110256Z AUTO 20016KT 10SM FEW016 20/19 A2956 RMK AO2 PK WND
     20028/0240 WSHFT 0156 LTG DSNT ALQDS TSE56RAE47 PRESFR SLP008
     P0011 60011 T02000189 56016=
KASH 110256Z AUTO 00000KT 10SM CLR M03/M04 A3018 RMK AO2 SLP228
     T10331044 58002=
KAUO 110256Z AUTO 18011KT 7SM OVC003 20/19 A3006 RMK AO2 SLP176
     T02000194 51006=
KAWO 110256Z AUTO 15016G24KT 10SM FEW034 BKN120 07/03 A2985 RMK
     AO2 PK WND 15026/0226 SLP113 6//// T00670033 56039 PNO $=
KBHB 110256Z AUTO 35003KT 10SM SCT029 BKN034 OVC055 M03/M04 A3022
     RMK AO2 SLP234 T10281044 51007 FZRANO=
KBID 110256Z AUTO 00000KT 10SM CLR 06/04 A3015 RMK AO2 SLP210
     T00560044 56009=
KBIS 110252Z 27005KT 10SM CLR M07/M09 A2978 RMK AO2 SLP115 I1001
     I3001 T10721089 53004=
KBKX 110256Z AUTO 01007KT 7SM -SN BKN029 OVC039 M03/M04 A2974 RMK
     AO2 SLP107 P0000 60000 T10281039 50005 FZRANO=
KBLM 110256Z AUTO 00000KT 10SM OVC050 07/05 A3013 RMK AO2 SLP204
     6//// T00670050 55011 PNO $=
KBMI 110256Z 22020G27KT 3SM R20/5500VP6000FT VCTS +RA BR BKN004
     OVC009 16/16 A2939 RMK AO2 PK WND 17034/0241 LTG DSNT ALQDS
     TSB15 SLP950 P0030 60035 T01610161 56050=
KBOK 110256Z AUTO 00000KT 10SM CLR 06/04 A3021 RMK AO2 SLP233
     6//// T00560039 58015=
KBTP 110256Z AUTO 14005KT 10SM FEW020 BKN075 OVC090 11/06 A2989
     RMK AO2 RAB44E55 SLP129 P0000 60000 T01110061 56019=
KBVX 110256Z AUTO 17007KT 10SM CLR 19/18 A2956 RMK AO2 LTG DSNT
     E-S TSE15RAE03 SLP005 P0000 6//// T01890178 58016=
KCGZ 110256Z AUTO 30003KT 10SM CLR 13/07 A3012 RMK AO2 SLP201
     T01330072 51018=
KCIU 110256Z AUTO 09006KT 10SM OVC065 00/M01 A2979 RMK AO2 SLP095
     T00001011 58039 FZRANO=
KCMA 110255Z 00000KT 10SM CLR 11/06 A3016 RMK AO2 SLP224 T01060061
     51017=
KCOD 110256Z AUTO 26019G29KT 10SM CLR M04/M14 A2984 RMK AO2 PK WND
     26032/0228 SLP159 T10391144 58003 FZRANO=
KCOE 110256Z AUTO 16003KT 7SM -SN FEW008 SCT013 OVC022 00/M01
     A2998 RMK AO2 SLP196 P0000 60000 T00001011 58006 FZRANO=
KCVN 110256Z AUTO 30028G38KT 10SM CLR 07/M08 A2994 RMK AO2 PK WND
     30040/0232 PRESRR SLP133 T00721083 52049=
KCVO 110256Z AUTO 17015KT 10SM OVC033 07/04 A3011 RMK AO2 SLP198
     T00720044 56010=


064 
SAXX60 KWBC 110300 RRB
METAR
KLUF 110256Z AUTO 34004KT 10SM CLR 14/04 A3011 RMK AO2 SLP195
     T01370043 52020 $=
KNFW 110252Z 26009KT 10SM OVC033 24/06 A2972 RMK AO2 SLP050
     T02440067 51026 CHINO S VISNO S $=
KSVN 110256Z AUTO 11004KT 10SM SCT065 16/14 A3011 RMK AO2 SLP199
     T01580143 58002 $=
KVAD 110256Z AUTO 18003KT 8SM CLR 18/17 A3010 RMK AO2 SLP194
     T01790169 50005 $=
KNIP 110253Z 16007KT 10SM CLR 20/19 A3014 RMK AO2 SLP202 T02000194
     51003=
KNPA 110256Z 16008KT 5SM BR OVC004 22/21 A3002 RMK SLP168
     T02170206 51009=
KNQX 110253Z 10010KT 10SM FEW025 27/21 A3010 RMK AO2 SLP192
     T02670211 51008 $=
KNRB 110252Z AUTO 16008KT 10SM CLR 21/19 A3014 RMK AO2 SLP204
     T02060194 51003=
KNSI 110253Z AUTO 32007KT 10SM CLR 08/07 A3015 RMK AO2 SLP208
     T00780067 51016 $=
KNTD 110252Z 06003KT 10SM CLR 10/07 A3017 RMK AO2 SLP219 T01000067
     51019 CHINO N VISNO N $=
KOZR 110256Z AUTO 17009KT 10SM OVC008 21/21 A3005 RMK AO2 SLP176
     T02120210 52006=
KPAM 110256Z AUTO 15011KT 9SM OVC003 22/21 A3006 RMK AO2 SLP182
     T02150206 50002 $=
KPOB 110256Z AUTO 24005KT 10SM OVC015 12/12 A3012 RMK AO2 CIG 014
     RWY05 SLP203 60000 T01210116 58005 $=
KSLI 110256Z AUTO 00000KT 10SM CLR 10/10 A3015 RMK AO2 SLP213
     T01030103 52014 $=
KSUU 110256Z AUTO 00000KT 10SM CLR 04/M00 A3024 RMK AO2 SLP248
     T00351002 52013 $=
KTBN 110256Z AUTO 18005KT 10SM FEW025 17/15 A2946 RMK AO2
     DZB22E24RAB24E51DZB51E54 SLP973 P0002 60024 T01650145
     50001=
KVAD 110256Z AUTO 18003KT 8SM CLR 18/17 A3010 RMK AO2 SLP194
     T01790169 50005 $=
KDYS 110256Z AUTO 25009KT 10SM CLR 20/M00 A2981 RMK AO2 SLP065
     T02031004 52027=
KFCS 110255Z 33012KT 10SM FEW200 M03/M27 A2995 RMK AO2A SLP234 WND
     DATA ESTMD=
KHIF 110256Z 15010KT 10SM SCT070 M06/M11 A3019 RMK AO2A SLP256
     T10591107 52014 $=
KINS 110256Z AUTO 05005KT 10SM CLR 04/M09 A3024 RMK AO2 SLP244
     T00401087 52020 $=
KRIV 110256Z AUTO 00000KT 10SM CLR 06/04 A3014 RMK AO2 SLP210
     T00630035 50009=
KCOF 110256Z AUTO 00000KT 10SM CLR 22/22 A3012 RMK AO2 SLP204
     T02220220 50003 $=
KDAA 110256Z AUTO 00000KT 10SM OVC024 09/07 A3007 RMK AO2 SLP186
     60001 T00850073 58004 $=
KDYS 110256Z AUTO 25009KT 10SM CLR 20/M00 A2981 RMK AO2 SLP065
     T02031004 52027=
KEND 110256Z AUTO 30015KT 10SM CLR 05/M03 A2979 RMK AO2 PK WND
     32032/0159 PRESRR SLP089 T00481032 52065 $=
KFCS 110255Z 33012KT 10SM FEW200 M03/M27 A2995 RMK AO2A SLP234 WND
     DATA ESTMD=
KFTK 110256Z AUTO 16014G20KT 10SM -TSRA OVC010 18/17 A2967 RMK AO2
     RAB09E22DZB22E26RAB26E27RAB27E27RAB40 TSB43 SLP047 P0000
     60000 T01760174 57038=
KINS 110256Z AUTO 05005KT 10SM CLR 04/M09 A3024 RMK AO2 SLP244
     T00401087 52020 $=
KLHW 110256Z AUTO 12003KT 8SM CLR 15/14 A3011 RMK AO2 SLP199
     T01500144 50001 $=
KRIV 110256Z AUTO 00000KT 10SM CLR 06/04 A3014 RMK AO2 SLP210
     T00630035 50009=
KNTU 110256Z 13003KT 9SM SCT025 BKN050 OVC190 12/09 A3010 RMK AO2
     SLP196 T01170089 58013=
KNCA 110256Z AUTO 25003KT 5SM BR BKN050 OVC065 16/16 A3013 RMK AO2
     SLP205 60000 T01610156 50003=
KNBC 110256Z 15005KT 10SM CLR 15/13 A3013 RMK AO2 SLP204 T01500133
     58004=


068 
SAUS70 KWBC 110300
METAR
K04W 110255Z AUTO 00000KT 4SM -SN CLR M02/M02 A2972 RMK AO2=
K0S9 110255Z AUTO 15011G20KT 110V170 10SM BKN015 BKN065 OVC075
     06/05 A2975 RMK AO2=
K0VG 110255Z AUTO 00000KT 4SM BR 10/10 A2998 RMK AO2 PWINO=
K14Y 110255Z AUTO 00000KT 7SM SCT005 M03/M04 A2975 RMK AO2=
K21D 110255Z AUTO 01012G19KT 1SM SN VV007 M01/M02 A2964 RMK AO2
     P0001=
K22N 110255Z AUTO 00000KT 10SM OVC050 04/00 A3012 RMK AO2=
K24J 110255Z AUTO 00000KT 1/4SM FG VV002 18/18 A3012 RMK A01=
K2D5 110255Z AUTO 21003KT 10SM CLR M06/M07 A2977 RMK AO2=
K2W6 110255Z AUTO 00000KT 10SM OVC024 10/09 A3009 RMK AO1=
K35A 110255Z AUTO 00000KT 1/2SM FG OVC003 10/10 A3015 RMK A02
     T01010101=
K3N8 110255Z AUTO 20006KT 10SM CLR M07/M09 A2975 RMK AO2
     T10701086=
K42J 110255Z AUTO 13005KT 9SM BKN038 BKN045 20/20 A3013 RMK
     A01=
K46D 110255Z AUTO 26011KT 10SM CLR M09/M11 A2975 RMK AO2=
K4A6 110255Z AUTO 20011G16KT 160V230 10SM OVC011 19/19 A2991 RMK
     AO2=
K4M9 110255Z AUTO 21018KT 10SM VCTS FEW003 SCT060 OVC100 19/19
     A2957 RMK AO2 LTG DSNT NE-S PWINO=
K5H4 110255Z AUTO 23008KT 10SM FEW090 M12/M14 A2975 RMK AO2=
K6B9 110255Z AUTO 12006KT 10SM OVC048 05/02 A2999 RMK AO2=
K6L4 110255Z AUTO 18008G15KT 10SM FEW039 SCT046 BKN070 16/16 A2989
     RMK AO2=
K7L2 110255Z AUTO 26003KT 10SM CLR M08/M08 A2979 RMK AO2=
K8B0 110255Z AUTO 00000KT 10SM OVC037 M04/M06 A3011 RMK AO2=
K96D 110255Z AUTO 27008G15KT 10SM CLR M07/M12 A2970 RMK AO2=
KACB 110255Z AUTO 05008KT 3SM -SN OVC013 01/00 A2966 RMK AO2
     T00111003=
KACQ 110255Z AUTO 01018G26KT 1 1/2SM -SN BKN010 OVC017 M02/M03
     A2954 RMK AO2=
KADU 110255Z AUTO 34011KT 7SM -SN OVC010 M01/M02 A2947 RMK AO2=
KAEX 110253Z 19012KT 10SM BKN021 BKN027 24/21 A2983 RMK AO2
     RAB07E16 SLP102 P0000 60000 T02440211 50006=
KAFP 110255Z AUTO 00000KT 4SM BR OVC004 12/11 A3012 RMK AO2
     T01200110=
KAIO 110255Z AUTO 34012KT 4SM UP OVC009 M01/M01 A2948 RMK AO2=
KAIT 110255Z AUTO 00000KT 10SM CLR M05/M06 A2973 RMK AO2=
KAKR 110254Z AUTO 17009KT 10SM BKN110 13/09 A2975 RMK AO2 RAE45
     SLP076 P0000 60000 T01280089 58034=
KALO 110254Z AUTO 01007KT 3SM BR OVC006 02/M01 A2936 RMK AO2
     UPB25E38 SLP950 P0000 60001 T00171006 56029=
KAMN 110255Z AUTO 09008G16KT 2 1/2SM -SN OVC006 02/02 A2959 RMK
     AO2 T00200020=
KAPC 110254Z 14004KT 10SM CLR 03/00 A3024 RMK AO2 SLP229 T00330000
     51012=
KAQX 110255Z AUTO 00000KT 1/2SM BR VV005 14/14 A3012 RMK AO2=
KARW 110255Z AUTO 00000KT 10SM CLR 13/12 A3014 RMK AO2=
KATS 110255Z AUTO 26016G22KT 10SM CLR 13/M00 A2995 RMK AO2=
KAUM 110255Z AUTO 03012G21KT 1 3/4SM -SN OVC009 M02/M02 A2945 RMK
     AO2 P0001=
KAUW 110254Z AUTO 02009G17KT 1 1/4SM -SN BR OVC014 M01/M03 A2951
     RMK AO2 SLP010 P0002 60009 T10061028 58054=
KAVL 110254Z 17007KT 7SM FEW005 BKN011 OVC024 11/11 A3007 RMK AO2
     RAB17E42 SLP177 P0000 60000 T01060106 55005=
KAWG 110255Z AUTO 32004KT 5SM BR OVC007 10/10 A2926 RMK AO2=
KAXA 110255Z AUTO 01019G25KT 2 1/2SM BR SCT008 SCT014 BKN070
     M02/M02 A2946 RMK A01=
KAXV 110255Z AUTO 16012G17KT 5SM BR OVC003 12/12 A2967 RMK AO2=
KBAX 110255Z AUTO 09009G15KT 4SM -RA SCT007 BKN011 OVC024 04/04
     A2971 RMK AO2 T00360036=
KBFL 110254Z 01005KT 8SM CLR 09/04 A3023 RMK AO2 SLP237 T00890044
     53015=
KBKN 110255Z AUTO 31018G24KT 10SM BKN060 BKN070 05/M03 A2975 RMK
     AO2=
KBNW 110255Z AUTO 36018G26KT 1 3/4SM -UP OVC004 M00/M00 A2939 RMK
     AO2=
KBOS 110254Z 32005KT 10SM OVC028 03/M01 A3018 RMK AO2 SLP218
     T00281006 58003=
KBOW 110255Z AUTO 10006KT 10SM CLR 21/19 A3014 RMK AO2=


069 
SAXX60 KWBC 110300 CCA
METAR
PHBK 110251Z AUTO 00000KT 5SM -RA OVC037 25/22 A3003 RMK AO2 RAB43
     SLP172 P0000 60000 T02500217 53001=
KNTD 110252Z 06003KT 10SM CLR 10/07 A3017 RMK AO2 SLP219 T01000067
     51019 CHINO N VISNO N $=
KNSI 110253Z AUTO 32007KT 10SM CLR 08/07 A3015 RMK AO2 SLP208
     T00780067 51016 $=
PHBK 110251Z AUTO 00000KT 5SM -RA OVC037 25/22 A3003 RMK AO2 RAB43
     SLP172 P0000 60000 T02500217 53001=
KBAN 110252Z AUTO 00000KT 10SM CLR M07/M11 A3013 RMK AO2 SLP272
     T10721111 51014 $=
KNBG 110255Z 17009KT 9SM FEW015 SCT030 SCT045 23/22 A2996 RMK AO2
     SLP145 T02330222 50008 $=
KNMM 110256Z AUTO 18007KT 10SM SCT017 BKN022 OVC043 22/21 A2993
     RMK AO2 SLP141 T02220206 50000=


071 
SAUS70 KWBC 110300 RRR
METAR
KSXU 110255Z AUTO 29016G24KT 10SM CLR 02/M13 A3000 RMK AO2
     T00211131=
KTME 110255Z AUTO 22012KT 6SM HZ BKN019 OVC028 25/23 A2984 RMK
     AO2=
KTVY 110255Z AUTO 16008KT 10SM CLR M08/M10 A3024 RMK AO2=
K04W 110255Z AUTO 00000KT 4SM -SN CLR M02/M02 A2972 RMK AO2=
K2D5 110255Z AUTO 21003KT 10SM CLR M06/M07 A2977 RMK AO2=
K6B9 110255Z AUTO 12006KT 10SM OVC048 05/02 A2999 RMK AO2=
KACQ 110255Z AUTO 01018G26KT 1 1/2SM -SN BKN010 OVC017 M02/M03
     A2954 RMK AO2=
KALO 110254Z AUTO 01007KT 3SM BR OVC006 02/M01 A2936 RMK AO2
     UPB25E38 SLP950 P0000 60001 T00171006 56029=
KCNB 110255Z AUTO 30003KT 4SM -SN SCT017 OVC026 M02/M02 A2977 RMK
     AO2 T10181023=
KD57 110255Z AUTO 28005KT 10SM CLR M07/M11 A2976 RMK AO2=
KDEH 110255Z AUTO 02007G17KT 350V060 2 1/2SM BR OVC004 M00/00
     A2939 RMK AO2=
KEFK 110255Z AUTO 17003KT 10SM OVC031 00/M03 A3013 RMK AO2
     T10051031=
KFSO 110255Z AUTO 00000KT 10SM OVC038 03/M01 A3011 RMK AO2
     T00271010=
KHNR 110255Z AUTO 34015KT 2 1/2SM BR FEW003 SCT015 BKN024 M01/M01
     A2951 RMK A01=
KIND 110254Z 14014KT 1/2SM R05L/P6000FT BR OVC002 14/14 A2955 RMK
     AO2 SFC VIS 2 LTG DSNT SE AND S RAE49 SLP004 P0003 60003
     T01390139 58051=
KIPT 110254Z 04004KT 10SM BKN050 OVC070 07/M01 A3005 RMK AO2
     SLP181 T00671011 58006=
KLDM 110255Z AUTO 10017G20KT 4SM -RA OVC007 02/01 A2949 RMK AO2
     60021 T00180007 P0009=
KCGE 110255Z AUTO 12003KT 7SM SCT007 OVC015 09/09 A3010 RMK
     A01=
KDSV 110254Z AUTO 16007KT 10SM CLR 04/01 A2994 RMK AO2 SLP152
     T00440011 58021=
KEGV 110255Z AUTO 06007KT 1/2SM +SN OVC004 M03/M03 A2964 RMK AO2
     T10271027=
KFKA 110255Z AUTO 02013G19KT 3/4SM -SN OVC004 M02/M03 A2945 RMK
     AO2 T10251032=
KHZL 110255Z AUTO 13005KT 10SM OVC039 05/00 A3008 RMK AO2=
KHZX 110255Z AUTO 10SM OVC055 M04/M05 A2973 RMK AO2=
KI67 110255Z AUTO 18009KT 7SM OVC005 15/13 A2969 RMK AO1 P0001=
KIIB 110255Z AUTO 04011KT 4SM BR OVC006 03/03 A2932 RMK AO2 P0008
     T00260026=
KILN 110254Z AUTO 18014G18KT 3SM BR OVC002 14/13 A2974 RMK AO2
     SLP076 60001 T01390133 58030 $=
KISW 110254Z AUTO 06009G21KT 3SM -SN BR OVC012 M01/M02 A2949 RMK
     AO2 PK WND 05026/0216 SLP998 P0000 60000 T10061017 58059=
KJKJ 110255Z AUTO 00000KT 10SM CLR M06/M07 A2978 RMK AO2=
KONA 110255Z AUTO 02007KT 1 1/2SM -SN BKN006 OVC012 00/M01 A2952
     RMK AO2 P0005=
KPEX 110255Z AUTO 36007KT 1 3/4SM -SN OVC010 M03/M03 A2973 RMK
     AO2=
KS25 110255Z AUTO 27011KT 10SM M06/M10 A2976 RMK AO2=
KSGS 110255Z AUTO 02011G16KT 1 1/4SM -SN BKN001 BKN005 BKN009
     M01/M02 A2962 RMK AO2 60006 T10131017 P0001=
K2DP 110256Z AUTO 18008KT 10SM SCT030 SCT120 16/16 A3012 RMK AO2
     SLPNO 60000 T01630163 58003=
K22N 110255Z AUTO 00000KT 10SM OVC050 04/00 A3012 RMK AO2=
K46D 110255Z AUTO 26011KT 10SM CLR M09/M11 A2975 RMK AO2=
KADU 110255Z AUTO 34011KT 7SM -SN OVC010 M01/M02 A2947 RMK AO2=
KCKZ 110255Z AUTO 00000KT 10SM OVC046 06/02 A3012 RMK AO2=
KD95 110255Z AUTO 12006KT 3SM UP BKN007 BKN025 OVC034 04/04 A2968
     RMK AO2 60005 T00400040 P0005=
KDNS 110255Z AUTO 36013G19KT 1 1/4SM -RA SCT005 SCT008 BKN015
     M02/M02 A2952 RMK AO2=
KEOK 110255Z AUTO 20009KT 10SM FEW055 FEW065 SCT075 16/16 A2928
     RMK A01=
KEVM 110255Z AUTO 00000KT 10SM OVC080 M06/M07 A2973 RMK AO2=
KFFL 110255Z AUTO 00000KT M1/4SM FG OVC002 10/10 A2926 RMK A01=
KFIG 110254Z AUTO 06006KT 10SM OVC032 06/01 A2996 RMK AO2 SLP157
     T00560006 58015=
KGDB 110255Z AUTO 35011KT 2SM -SN OVC007 M01/M02 A2975 RMK AO2
     T10071016=
KHCD 110255Z AUTO 34013G20KT 1 1/2SM -SN VV007 M01/M02 A2969 RMK
     AO2 T10151020=


072 
SAUS70 KWBC 110300 RRL
METAR
KRAL 110253Z 00000KT 10SM CLR 11/06 A3015 RMK AO2 SLP202 T01060061
     51012=
KSAF 110253Z 31014G24KT 10SM CLR M04/M18 A3008 RMK AO2 PK WND
     30030/0237 SLP187 T10391178 51040=
KSNA 110253Z 00000KT 10SM CLR 14/08 A3015 RMK AO2 SLP210 T01390083
     51015=
KBKE 110253Z AUTO 23008KT 10SM CLR 00/M04 A3009 RMK AO2 SLP216
     T00001039 58004=
KEPH 110253Z AUTO 20005KT 10SM SCT080 01/M03 A2992 RMK AO2 SLP148
     T00111033 56023=
KFUL 110253Z 00000KT 10SM CLR 12/08 A3015 RMK AO2 SLP208 T01170083
     51016=
KGEY 110253Z AUTO 10SM CLR M08/M11 A2990 RMK AO2 SLP177 T10831111
     50007=
KGGW 110253Z AUTO 20004KT 10SM CLR M08/M12 A2973 RMK AO2 SLP109
     T10831117 56008=
KGKY 110253Z AUTO 21004KT 10SM OVC035 23/07 A2973 RMK AO2 SLPNO
     T02330067 51027=
KTKI 110253Z 23008KT 10SM OVC038 25/08 A2971 RMK AO2 SLP056
     T02500083 53025=
KTTD 110253Z 19006KT 10SM -RA BKN034 OVC050 09/03 A3006 RMK AO2
     RAB40 SLP178 P0000 60000 T00890033 58022=
KTYR 110253Z 20014G23KT 10SM CLR 24/19 A2972 RMK AO2 SLP059
     T02390194 51013 $=
KUAO 110253Z 19013G21KT 10SM OVC029 08/03 A3006 RMK AO2 RAB19E39
     SLP179 P0001 60001 T00830028 56023=
KDFI 110253Z AUTO 16008G16KT 8SM OVC007 13/11 A2962 RMK AO2 PRESFR
     SLP033 60001 T01280111 58039=
KHFD 110253Z 00000KT 10SM CLR 01/M03 A3016 RMK AO2 SLP213
     T00111028 50001=
KHIB 110253Z AUTO 32006KT 10SM OVC090 M07/M08 A2972 RMK AO2 SLP094
     T10671083 58003=
KHUL 110253Z AUTO VRB04KT 10SM CLR M07/M09 A3015 RMK AO2 SLP218
     T10721089 58003=
KIEN 110252Z AUTO 24005KT 2SM BR FEW003 SCT027 M10/M11 A2987 RMK
     AO2 SLP161 60000 I1000 I3000 T11001106 50004 $=
KIWI 110253Z AUTO 00000KT 10SM SCT025 OVC050 M04/M07 A3023 RMK AO2
     SLP237 T10391067 51006=
KMHT 110253Z 00000KT 10SM BKN220 M02/M05 A3016 RMK AO2 SLP233
     T10171050 50001=
KMRB 110253Z 08004KT 10SM BKN110 08/01 A3002 RMK AO2 SLP168
     T00830006 58016=
KMTJ 110253Z AUTO 15007KT 10SM CLR M07/M11 A3014 RMK AO2 SLP227
     T10721111 51024=
KMVY 110253Z AUTO 00000KT 3/4SM R24/1000V4500FT BR BKN003 OVC070
     01/01 A3017 RMK AO2 SLP215 T00060006 55002=
KPKB 110253Z 16005KT 10SM OVC016 14/11 A2984 RMK AO2 RAB0159E08
     SLP105 P0000 60006 T01390106 58023=
KPKD 110253Z AUTO 00000KT 10SM BKN120 M06/M08 A2972 RMK AO2 SLP091
     T10561078 58004=
KDLS 110253Z AUTO 00000KT 10SM OVC060 07/02 A3005 RMK AO2 SLP177
     T00720022 56017=
KDVT 110253Z 00000KT 10SM CLR 13/08 A3012 RMK AO2 SLP191 T01280078
     53017=
KHLN 110253Z VRB03KT 10SM FEW065 00/M13 A2990 RMK AO2 SLP180
     T00001133 53004=
KLHX 110253Z AUTO 31013KT 10SM FEW060 SCT110 00/M07 A2995 RMK AO2
     PK WND 29046/0201 SNB0159E11 SLP145 P0000 60001 T00001072
     51033=
KMTJ 110253Z AUTO 15007KT 10SM CLR M07/M11 A3014 RMK AO2 SLP227
     T10721111 51024=
KOLF 110253Z AUTO VRB03KT 10SM CLR M14/M17 A2976 RMK AO2 SLP126
     I1000 I3000 T11441172 58007=
KPSX 110253Z AUTO 19008KT 6SM BR FEW019 OVC034 24/23 A2981 RMK AO2
     SLP095 T02390228 51017=
KPUW 110253Z AUTO 23010KT 9SM FEW016 BKN049 OVC085 01/M02 A3003
     RMK AO2 SNE26 SLP200 P0000 60000 T00061022 58004=
KSHN 110253Z AUTO 18010KT 4SM -RA BR BKN014 OVC019 07/06 A2985 RMK
     AO2 SLP113 P0006 60013 T00670061 56032=
KSJC 110253Z 25003KT 10SM FEW080 SCT120 09/02 A3024 RMK AO2 SLP239
     T00890017 51015=
KSPB 110253Z AUTO VRB06KT 10SM OVC016 08/05 A3003 RMK AO2 RAE42
     SLP168 P0001 60003 T00780050 58021=
KSTS 110253Z 00000KT 10SM CLR 06/M01 A3023 RMK AO2 SLP231
     T00611006 53010=
KALI 110253Z AUTO 17009KT 10SM CLR 24/22 A2978 RMK AO2 SLP080
     T02440217 51021=


073 
SAUS70 KWBC 110300 RRX
METAR
PAFE 110256Z AUTO 11004KT 10SM SCT011 BKN060 OVC070 00/M01 A2898
     RMK AO2 UPB25E37 SLP824 P0002 60004 T00001011 56007 FZRANO
     $=
PAFM 110256Z AUTO 17003KT 10SM CLR M22/M24 A2933 RMK AO2 SLP945
     T12171239 53019 FZRANO=
PAGA 110256Z AUTO 27004KT 10SM CLR M22/M24 A2940 RMK AO2 SLP962
     T12221244 53027 FZRANO=
PAGL 110256Z AUTO 33008G17KT 10SM FEW024 M22/M26 A2969 RMK AO2
     SLP050 T12171256 51034 PWINO FZRANO $=
PAGN 110256Z AUTO 00000KT 1SM -SN BR BKN006 OVC014 01/00 A2894 RMK
     AO2 UPB00E10SNE00B10 CIG 003V009 SLP791 P0002 60004 T00060000
     58007 FZRANO RVRNO=
PAGS 110256Z AUTO 13012KT 3/4SM -SN BR FEW004 BKN008 OVC015
     M01/M02 A2888 RMK AO2 UPB04E23SNE04B23 CIG 006V011 SLP778
     P0000 60001 T10061017 55005 FZRANO RVRNO=
PAHC 110256Z AUTO VRB06KT OVC020 M16/M19 A2953 RMK AO2 SLP005
     T11611189 52041 PWINO FZRANO RVRNO $=
PAHL 110256Z AUTO 29008G14KT 10SM CLR M21/M23 A2931 RMK AO2 SLP935
     T12061233 53020 FZRANO=
PAHP 110256Z AUTO 33025G34KT 3SM -SN OVC020 M16/M19 A2987 RMK AO2
     PK WND 34036/0159 SNB0158 SLP116 P0000 60000 T11611189 53028
     FZRANO=
PAHY 110256Z AUTO 10SM BKN035 02/M01 A2902 RMK AO2 UPB08E18 SLP826
     6//// T00221006 58022 FZRANO PNO $=
PAIG 110256Z AUTO 29020G29KT 1/4SM FZFG FEW120 M12/M13 A2924 RMK
     AO2 PK WND 29029/0251 SLP912 T11171133 51033 PWINO FZRANO
     $=
PAII 110256Z AUTO 31014KT 10SM OVC045 M08/M12 A2938 RMK AO2 SLP946
     60000 T10831122 51047 FZRANO=
PAIK 110256Z AUTO 32014KT 10SM CLR M19/M24 A2945 RMK AO2 SLP978
     T11941239 53020 FZRANO=
PAIL 110253Z 34019G38 KT 10SM OVC130 M11/M15 A2909 RMK AO2 PK WND
     36038/0252 SLP855 T11061150 51033=
PAIN 110256Z AUTO 02006KT 7SM -SN OVC055 M13/M18 A2896 RMK AO2
     SLP854 P0000 60000 T11331178 53024 FZRANO=
PAJZ 110256Z AUTO 32029G37KT 1 1/4SM -SN FEW042 M13/M16 A2935 RMK
     AO2 PK WND 32037/0256 SLP945 P0000 60000 T11331161 51028
     FZRANO $=
PAKI 110256Z AUTO 33021G28KT 5SM BR CLR M17/M18 A2982 RMK AO2 PK
     WND 33029/0202 SNB38E56 SLP100 P0000 60000 T11671183 51029
     FZRANO=
PAKK 110256Z AUTO 32020G29KT 1 1/2SM -SN OVC007 M23/M26 A2952 RMK
     AO2 PK WND 32029/0254 CIG 005V010 SLP008 P0000 60000
     T12281256 53010 FZRANO=
PAKP 110256Z AUTO 07017G21KT 5SM -SN BKN043 BKN050 OVC085 M23/M27
     A2915 RMK AO2 SLP951 P0000 60000 T12331267 52011 FZRANO=
PALG 110256Z AUTO 29008G15KT 260V320 10SM CLR M18/M20 A2956 RMK
     AO2 SLP015 T11781200 51038 FZRANO=
PAMB 110256Z AUTO 28012G17KT 10SM CLR M11/M16 A2941 RMK AO2 PRESRR
     SLP965 T11111161 53051 FZRANO $=
PAMH 110256Z AUTO VRB04KT 3SM -SN BKN037 OVC050 M13/M16 A2914 RMK
     AO2 SLP876 P0000 60000 T11281156 53026 FZRANO=
PAMK 110256Z AUTO 32017G24KT 8SM BKN013 M19/M22 A2966 RMK AO2
     SLP045 60000 T11941217 53031 FZRANO=
PAMO 110256Z AUTO 33022G25KT 6SM -SN BR OVC022 M18/M20 A2969 RMK
     AO2 PK WND 33034/0208 SLP065 6//// T11781200 51026 FZRANO PNO
     $=
PANI 110256Z AUTO 31008KT 10SM OVC027 M17/M20 A2959 RMK AO2 SLP012
     T11671200 51038 FZRANO=
PANV 110256Z AUTO 31012G20KT 10SM FEW030 M18/M21 A2949 RMK AO2
     SLP116 60000 T11781206 51030 FZRANO TSNO=
PAOH 110256Z AUTO 10007KT 8SM -SN SCT019 BKN030 OVC070 M02/M02
     A2888 RMK AO2 SNB50 SLP778 P0000 60000 T10171022 55005
     FZRANO=
PAOO 110256Z AUTO 29019G30KT 3/4SM -SN BR OVC018 M15/M16 A2986 RMK
     AO2 PK WND 30036/0214 PRESRR SLP119 P0000 60000 T11501161
     53025 FZRANO TSNO $=
PAOU 110256Z AUTO 31034G40KT 2 1/2SM -SN BR FEW005 BKN017 OVC025
     M06/M08 A2968 RMK AO2 PK WND 34042/0216 VIS 1 1/2V4 SLP051
     P0000 60000 T10561078 53046 FZRANO=


074 
SAUS70 KWBC 110300 RRB
METAR
KDYL 110254Z AUTO 00000KT 10SM OVC047 07/01 A3011 RMK AO2 SLP199
     T00720011 56006=
KECG 110254Z AUTO 14006KT 10SM SCT029 BKN035 OVC090 13/11 A3011
     RMK AO2 SLP196 T01330111 58012=
KEDE 110255Z AUTO 00000KT 10SM BKN023 BKN050 OVC110 13/13 A3013
     RMK AO2 T01250125=
KEDJ 110255Z AUTO 17014G23KT 2SM BR OVC004 12/12 A2971 RMK A01=
KEFK 110255Z AUTO 17003KT 10SM OVC031 00/M03 A3013 RMK AO2
     T10051031=
KEGV 110255Z AUTO 06007KT 1/2SM +SN OVC004 M03/M03 A2964 RMK AO2
     T10271027=
KELO 110255Z AUTO 00000KT 10SM M08/M08 A2973 RMK AO2=
KEOK 110255Z AUTO 20009KT 10SM FEW055 FEW065 SCT075 16/16 A2928
     RMK A01=
KEST 110252Z AUTO 36021G34KT 1/2SM FZFG VV009 M02/M03 A2954 RMK
     AO2 PK WND 36034/0243 SNEMM SLP018 P0000 60000 T10221033
     56018 PWINO FZRANO $=
KEUG 110254Z 17006KT 10SM FEW040 SCT080 BKN160 07/03 A3014 RMK AO2
     SLP208 T00670033 55016=
KEVM 110255Z AUTO 00000KT 10SM OVC080 M06/M07 A2973 RMK AO2=
KEVU 110255Z AUTO 31015G23KT 4SM BR OVC004 01/01 A2946 RMK AO2
     T00170010=
KEVV 110254Z 17010G19KT 10SM FEW038 19/17 A2958 RMK AO2 SLP013
     60001 T01890172 58032=
KEWN 110254Z AUTO 15003KT 5SM BR FEW008 BKN013 BKN034 17/17 A3014
     RMK AO2 RAE12B30E53 SLP205 P0002 60002 T01720167 58004 $=
KEYF 110255Z AUTO 14003KT 5SM -DZ BR SCT018 OVC026 13/12 A3015 RMK
     AO2 T01280125=
KFDK 110255Z AUTO 00000KT 10SM SCT023 BKN100 08/02 A3007 RMK
     AO2=
KFFL 110255Z AUTO 00000KT M1/4SM FG OVC002 10/10 A2926 RMK A01=
KFFM 110255Z AUTO 23003KT 10SM CLR M04/M06 A2974 RMK AO2=
KFFX 110255Z AUTO 10005KT 3SM RA OVC005 02/02 A2952 RMK AO2
     T00210015=
KFFZ 110254Z AUTO 00000KT 10SM CLR A3011 RMK AO2 SLPNO 52016 TSNO
     $=
KFGN 110255Z AUTO 18003KT 10SM CLR M09/M12 A2970 RMK AO2=
KFIG 110254Z AUTO 06006KT 10SM OVC032 06/01 A2996 RMK AO2 SLP157
     T00560006 58015=
KFKA 110255Z AUTO 02013G19KT 3/4SM -SN OVC004 M02/M03 A2945 RMK
     AO2 T10251032=
KFKN 110255Z AUTO 17003KT 1/4SM FG OVC003 09/09 A3011 RMK AO2
     T00940090 TSNO=
KFOK 110253Z 00000KT 10SM CLR M01/M01 A3015 RMK AO2 SLP210
     T10061011 58007=
KFSO 110255Z AUTO 00000KT 10SM OVC038 03/M01 A3011 RMK AO2
     T00271010=
KFVX 110255Z AUTO 20003KT 10SM OVC020 12/08 A3006 RMK AO2
     T01150079=
KFXY 110255Z AUTO 01020G27KT 1 1/4SM -SN OVC007 M01/M02 A2943 RMK
     AO2=
KFYG 110255Z AUTO 19007KT 10SM CLR 17/17 A2942 RMK AO2 LTG DSNT NE
     AND W=
KGCK 110254Z 32017KT 10SM BKN110 M01/M07 A2987 RMK AO2 PK WND
     33032/0218 SLP128 T10061067 51043=
KGCN 110254Z AUTO 00000KT 10SM CLR M09/M11 A3016 RMK AO2 SLP244
     I1000 I3000 T10891106 51017=
KGDB 110255Z AUTO 35011KT 2SM -SN OVC007 M01/M02 A2975 RMK AO2
     T10071016=
KGED 110254Z AUTO 00000KT 7SM OVC007 10/09 A3010 RMK AO2 SLP194
     60004 T01000089 56008=
KGHW 110255Z AUTO 00000KT 10SM SCT070 M03/M04 A2974 RMK AO2=
KGLY 110255Z AUTO 27017G26KT 9SM 16/06 A2942 RMK AO2=
KGWR 110255Z AUTO 22006KT 10SM CLR M06/M06 A2977 RMK A01=
KGYL 110255Z AUTO 36011G18KT 2SM -SN OVC008 M02/M03 A2965 RMK AO2
     60007 T10181029 P0001=
KHAE 110255Z AUTO 18012G17KT 10SM CLR 16/13 A2934 RMK AO2=
KHAF 110255Z AUTO 00000KT 9SM CLR 05/04 A3025 RMK AO2=
KHAI 110255Z AUTO 15016G25KT 2 1/2SM BR OVC004 11/11 A2948 RMK AO2
     T01070107=
KHBI 110255Z AUTO 18004KT 10SM OVC008 12/09 A3013 RMK AO2
     T01160090=
KHCD 110255Z AUTO 34013G20KT 1 1/2SM -SN VV007 M01/M02 A2969 RMK
     AO2 T10151020=
KHCO 110255Z AUTO 00000KT 10SM CLR M12/M13 A2972 RMK AO2=
KHNR 110255Z AUTO 34015KT 2 1/2SM BR FEW003 SCT015 BKN024 M01/M01
     A2951 RMK A01=


075 
SAUS70 KWBC 110300 RRW
METAR
KHND 110256Z 05005KT 10SM CLR 06/M12 A3026 RMK AO2 SLP275
     T00611122 51021=
KHYI 110256Z AUTO 26004KT 9SM CLR 21/20 A2980 RMK AO2 SLP084 6////
     T02060200 53022 PNO $=
KHYS 110256Z AUTO 31016G23KT 10SM SCT120 M01/M04 A2983 RMK AO2
     SLP117 T10111044 53052 FZRANO $=
KILE 110256Z AUTO 21007KT 10SM CLR 22/18 A2977 RMK AO2 SLP070
     T02220183 51020=
KITH 110256Z AUTO 11004KT 10SM SCT050 03/M01 A3001 RMK AO2 SLP169
     T00281006 58012=
KIWD 110256Z AUTO 06004KT 1 1/4SM -SN OVC016 M03/M06 A2972 RMK AO2
     SLP086 P0000 60000 T10281056 50001 FZRANO=
KJAC 110256Z 20012KT 10SM FEW030 OVC038 M07/M14 A2999 RMK AO2
     SLP232 60000 T10721139 51010=
KJHW 110256Z AUTO 16006KT 10SM BKN036 BKN110 06/02 A2988 RMK AO2
     SLP133 T00560022 58023=
KKLS 110256Z AUTO 15015G20KT 10SM OVC015 07/05 A3000 RMK AO2 RAE30
     SLP161 P0000 60003 T00720050 58027=
KLBL 110256Z AUTO 34021G30KT 10SM BKN090 OVC100 02/M05 A2991 RMK
     AO2 PK WND 33032/0244 SLP125 60000 T00221050 51054 FZRANO=
KLCI 110256Z AUTO 00000KT 10SM CLR M04/M06 A3018 RMK AO2 SLP227
     T10391061 55001 FZRANO=
KLGD 110256Z AUTO 17009KT 10SM BKN055 02/M03 A3010 RMK AO2 SLP215
     T00171033 58002 FZRANO=
KLLJ 110255Z AUTO 22007KT 10SM OVC060 M04/M13 A3004 RMK AO2 SLP220
     T10391133 53010=
KLPC 110256Z AUTO 27005KT 10SM CLR 10/07 A3018 RMK AO2 SLP220
     T01000067 53015=
KLRD 110256Z 14007KT 10SM CLR 24/19 A2976 RMK AO2 SLP075 T02440189
     51020=
KLZU 110256Z AUTO 07006KT 1/2SM -RA FG OVC002 10/09 A3007 RMK AO2
     RAB25 SLP196 P0000 60000 T01000094 58007=
KM19 110256Z AUTO 21019KT 10SM TS BKN120 19/17 A2958 RMK AO2 PK
     WND 23040/0215 WSHFT 0209 LTG DSNT ALQDS RAB22E33 SLP014
     P0037 60043 T01890172 55013=
KMBL 110256Z AUTO 09016KT 4SM -RA BR FEW009 OVC015 01/01 A2951 RMK
     AO2 UPE41RAB41 PRESFR SLP998 P0006 60013 T00110011 58077
     FZRANO=
KMKT 110256Z AUTO 36020KT 1 1/4SM -SN OVC005 A2959 RMK AO2 SLPNO
     P0000 60000 58020 FZRANO $=
KMKY 110256Z AUTO 07003KT 1/2SM FG FEW110 22/21 A3013 RMK AO2
     SLP203 T02220211 50007 TSNO $=
KMML 110256Z AUTO 35013KT 1 1/2SM -SN BR BKN006 OVC013 M02/M03
     A2974 RMK AO2 CIG 004V009 SLP089 P0000 60000 T10221028 53001
     FZRANO=
KMNM 110256Z AUTO 07019G25KT 1 1/2SM -SN BR OVC004 01/01 A2958 RMK
     AO2 PK WND 07026/0245 PRESFR SLP023 P0002 60003 T00060006
     56056 FZRANO $=
KMQY 110256Z 17010KT 10SM OVC015 21/18 A2980 RMK AO2 SLP095
     T02060183 55018=
KMRF 110256Z AUTO 29013KT 10SM CLR 11/01 A3004 RMK AO2 SLP136
     T01110006 51024=
KMSV 110256Z AUTO 03005KT 10SM BKN048 00/M02 A3007 RMK AO2 SLP198
     T00001017 58016 FZRANO=
KMTN 110254Z 00000KT 10SM OVC028 08/04 A3011=
KMTW 110256Z AUTO 07008G16KT 6SM -RA BR OVC009 02/02 A2951 RMK AO2
     UPE24RAB24 CIG 007V010 SLP000 P0005 60016 T00170017 56070
     FZRANO=
KMVN 110256Z AUTO 18014G22KT 10SM BKN029 BKN038 OVC070 19/19 A2950
     RMK AO2 SLP991 60000 T01940194 56044=
KMYR 110256Z 00000KT 10SM OVC026 14/13 A3016 RMK AO2 RAB37E52
     SLP214 P0000 60000 T01390133 50000=
KMYV 110253Z AUTO 17003KT 10SM CLR 06/01 A3022 RMK AO2 SLP238
     T00610011 51007=
KOAJ 110256Z AUTO 00000KT 8SM SCT042 OVC055 13/13 A3014 RMK AO2
     RAE05 SLP207 P0000 60001 T01330128 58005=
KOCH 110256Z AUTO 18010KT 10SM OVC014 23/22 A2979 RMK AO2 SLP087
     T02330222 51007=
KOKK 110256Z AUTO 16021KT 1 1/2SM BR OVC002 13/ A2950 RMK AO2
     RAB08E35 PRESFR SLP994 6//// T0133 58057 PNO $=
KOLU 110256Z AUTO 33019G25KT 1 3/4SM -SN BR BKN009 OVC016 M02/M02
     A2970 RMK AO2 PK WND 33027/0234 CIG 007V011 SLP074 P0000
     60001 T10221022 51027 FZRANO=


076 
SAPQ50 KWBC 110300 CCA
METAR
PGUM 110254Z 08012KT 10SM FEW021 BKN028 OVC044 29/24 A2981 RMK AO2
     SLP088 T02940244 56017 $=


078 
SAUS70 KWBC 110300 RRX
METAR
KCPT 110255Z AUTO 25006KT 10SM FEW022 FEW030 FEW037 22/06 A2976
     RMK A01=
KPRB 110253Z AUTO 09003KT 10SM CLR 08/01 A3021 RMK AO2 SLP233
     T00780006 53017=
KNFE 110256Z AUTO 00000KT 10SM FEW029 OVC046 11/08 A3011 RMK AO2
     SLP197 T01060083 58013=


080 
SAUS80 KWBC 110300 RRC
METAR
KACY 110254Z 00000KT 4SM -RA BR SCT019 OVC029 08/06 A3012 RMK AO2
     RAB07 SLP198 P0003 60003 T00780061 55009=
KAPN 110254Z AUTO 09009G15KT 10SM OVC018 03/01 A2976 RMK AO2
     PRESFR SLP086 T00330006 58045=
KMTP 110254Z AUTO 00000KT 01/00 A3015 RMK AO1 SLP209 T00060000
     56010=
KNAK 110254Z AUTO 00000KT 10SM OVC029 08/05 A3009 RMK AO2 SLP192
     T00830050 56006=
KNYC 110251Z AUTO 06004KT 10SM FEW060 BKN080 08/01 A3013 RMK AO2
     SLP195 T00780011 58012=
KP59 110251Z AUTO 21003KT M02/M03 A2978 RMK AO1 SLP096 T10171033
     56024=
KTKC 110255Z AUTO 35015KT 1 3/4SM -SN OVC005 M02/M04 A2971 RMK AO2
     T10201038=
KBTV 110254Z 10004KT 10SM OVC055 02/M02 A3010 RMK AO2 SLP198
     T00171022 $=
KLYV 110255Z AUTO 35014G19KT OVC008 M02/M04 A2969 RMK AO2
     PWINO=
KSYR 110254Z 07006KT 10SM BKN050 BKN180 03/01 A3004 RMK AO2 SLP170
     T00280006 58008=
KBUF 110254Z 12009KT 10SM FEW045 OVC150 07/02 A2988 RMK AO2 SLP125
     T00670022 58036=
KCAR 110254Z AUTO 17005KT 10SM BKN025 OVC032 M07/M09 A3012 RMK AO2
     SLP217 T10671094 58004=
KMVL 110254Z AUTO 00000KT 10SM OVC050 M02/M03 A3014 RMK AO2 SLP218
     T10221033 53004=
KSYN 110255Z AUTO 02016KT 2SM -SN OVC005 M01/M02 A2956 RMK AO2
     T10151025=
KELY 110253Z AUTO 17011KT 10SM CLR M15/M17 A3020 RMK AO2 SLP306
     T11501167 51010=
KCKP 110255Z AUTO 35016G20KT 1 3/4SM -SN BKN009 OVC013 M02/M02
     A2957 RMK AO2 T10221025=
KCRW 110254Z 15004KT 10SM SCT027 BKN055 OVC080 16/13 A2986 RMK AO2
     SLP109 OVC V BKN T01610128 58021=
KDSM 110254Z 34012KT 3/4SM R31/P6000FT -DZ BR OVC002 01/01 A2936
     RMK AO2 TWR VIS 1 SLP951 PCPN VRY LGT P0000 60000 T00060006
     58009 $=
KPOV 110255Z AUTO 13007KT 10SM SCT014 SCT090 BKN120 10/07 A2976
     RMK AO2 T01000074 PWINO=
KROS 110255Z AUTO 01009KT 2SM -SN M03/M04 A2971 RMK AO2 SKY
     OBSCURED 60003 T10301038 P0002=
KSBN 110254Z 15011KT 3SM -RA BR OVC002 12/11 A2945 RMK AO2 SLP976
     P0001 60004 T01170111 58067=
KFWA 110254Z 15015G21KT 3SM -RA BR OVC005 12/12 A2956 RMK AO2
     DZB27E46RAB46 PRESFR SLP012 P0001 60001 T01220122 58050 $=
KRFD 110254Z 01008KT 2SM R01/6000VP6000FT +RA BR SCT005 BKN024
     OVC039 07/06 A2936 RMK AO2 LTG DSNT S TSE51 SLP946 P0039
     60059 T00670056 56041 $=
KSNC 110255Z AUTO 10SM BKN055 02/02 A3014 RMK AO2=
KTKV 110255Z AUTO 02005KT 1/2SM OVC006 M02/M03 A2960 RMK AO2
     T10221030 PWINO=
KROC 110254Z 00000KT 10SM FEW100 BKN200 03/01 A2994 RMK AO2 SLP147
     T00330006 58024=
KAID 110255Z AUTO 16010KT 1 1/4SM -DZ OVC002 14/13 A2959 RMK AO2
     LTG DSNT SE AND S P0001 60001 T01380128=
K9MN 110255Z AUTO 01011G19KT 300V040 1SM OVC005 M02/M02 A2949 RMK
     AO1 60011 T10171018 P0003=
KINL 110254Z AUTO 00000KT 10SM CLR M08/M09 A2972 RMK AO2 SLP089
     T10831094 56010 $=
KPIA 110254Z 21018G29KT 10SM -RA SCT022 SCT048 BKN080 15/12 A2934
     RMK AO2 PK WND 20034/0236 LTG DSNT E AND SE TSB39E54 SLP937
     P0018 60020 T01500122 56041=
KCOS 110254Z 29014G18KT 10SM FEW200 M04/M22 A2992 RMK AO2 SLP167
     T10391217 51042=
KAAT 110255Z AUTO 14003KT 8SM CLR M03/M08 A3016 RMK AO2 SLP247
     T10331083 53002=
KANJ 110255Z AUTO 09006KT 10SM BKN065 OVC080 01/M03 A2979 RMK AO2
     SLP091 T00111028 58040=
KAST 110255Z AUTO 18019G27KT 8SM -RA FEW022 BKN031 OVC038 10/07
     A2991 RMK AO2 PK WND 18031/0242 RAB20 SLP129 P0000 60001
     T01000067 58026=
KCAO 110255Z AUTO 35010KT 10SM FEW090 M03/M05 A2994 RMK AO2
     SNB09E21 SLP137 P0000 60000 T10281050 53056=
KCNK 110255Z AUTO 32019G30KT 10SM BKN017 OVC036 01/M03 A2969 RMK
     AO2 PK WND 33030/0249 SLP064 T00061033 53032=


082 
SAUS70 KWBC 110300 RRV
METAR
KCWI 110256Z AUTO 08008KT 3SM +RA BKN037 OVC046 09/ A2928 RMK AO2
     LTG DSNT N AND S RAE04B48 SLP922 P0007 6//// T0089 58034=
KDIJ 110256Z AUTO 16008KT 10SM CLR M11/M13 A3004 RMK AO2 SLP250
     T11061133 51008=
KDYR 110256Z AUTO 19010G28KT 10SM FEW037 OVC090 24/20 A2963 RMK
     AO2 PK WND 18028/0248 LTG DSNT NW-NE TSB0159E20B23E38 SLP037
     6//// T02440200 58024 PNO $=
KEAT 110255Z AUTO 13009KT 10SM OVC060 03/M03 A2988 RMK AO2 SLP129
     T00331028 58026=
KEEN 110256Z AUTO 00000KT CLR M03/M03 A3015 RMK AO2 SLP220
     T10331033 58007 PWINO FZRANO $=
KEGE 110256Z AUTO 11009KT 10SM CLR M14/M16 A3010 RMK AO2 SLP275
     T11391161 51026 FZRANO=
KEHR 110256Z AUTO 17017KT 10SM CLR 19/18 A2957 RMK AO2 SLP013
     60000 T01940183 58041=
KEKQ 110256Z AUTO 18016G22KT 10SM OVC014 17/16 A2985 RMK AO2
     SLP100 T01670161 58021=
KEKY 110256Z AUTO 20008G14KT 160V230 10SM OVC010 21/21 A2997 RMK
     AO2 CIG 008V012 SLP997 T02110206 51004=
KELZ 110256Z AUTO 16010KT 10SM CLR 04/M02 A2994 RMK AO2 SLP153
     T00391022 58020=
KENV 110256Z AUTO 10SM M03/M10 RMK AO2 SLPNO 6//// T10281100
     FZRANO $=
KESC 110256Z AUTO 05008KT 1/4SM +SN FG OVC003 00/M01 A2968 RMK AO2
     SLP061 P0000 60000 T00001006 58045 FZRANO $=
KEUL 110256Z AUTO 11006KT 10SM OVC065 02/M03 A3018 RMK AO2 SLP242
     T00221028 58000 FZRANO=
KEWK 110256Z AUTO 31021G35KT 10SM CLR 00/M04 A2971 RMK AO2 PK WND
     32035/0247 SLP063 T00001044 53047 FZRANO=
KFAM 110256Z AUTO 20014G22KT 10SM CLR 21/18 A2948 RMK AO2 PK WND
     19028/0212 SLP987 T02110178 58022=
KFCI 110256Z AUTO 18008KT 10SM BKN021 OVC027 12/10 A3007 RMK AO2
     SLP195 60000 T01170100 58012=
KFDR 110253Z AUTO 36021G29KT 10SM CLR 13/M02 A2975 RMK AO2 PK WND
     29033/0233 WSHFT 0226 PRESRR SLP063 T01281022 53049=
KFIT 110252Z AUTO 00000KT 10SM M03/M05 A3017 RMK AO2 SLP222
     T10281050 58002=
KFKL 110256Z AUTO 15008KT 10SM OVC019 09/04 A2988 RMK AO2 SLP125
     T00940044 58021=
KFLP 110256Z AUTO 22007KT 10SM CLR 23/16 A2953 RMK AO2 LTG DSNT W
     AND NW SLP994 T02280161 55017=
KFNL 110256Z 33008KT 10SM CLR M05/M17 A2994 RMK AO2 SLP168
     T10501167 51025 FZRANO=
KGAD 110256Z AUTO 00000KT 7SM OVC008 15/15 A2997 RMK AO2 CIG
     007V011 SLP154 T01500150 58003 $=
KGAI 110256Z AUTO 10004KT 10SM OVC019 08/02 A3007 RMK AO2 SLP198
     T00780022 58007=
KGBD 110256Z AUTO 31017G26KT 10SM BKN020 M01/M04 A2983 RMK AO2 PK
     WND 31029/0238 PRESRR SLP111 T10061039 53057 FZRANO=
KGDV 110256Z AUTO 27009KT 10SM CLR M07/M11 A2978 RMK AO2 SLP127
     T10671106 50003 FZRANO=
KGTR 110256Z AUTO 17016KT 10SM BKN021 BKN025 22/22 A2987 RMK AO2
     SLP120 6//// T02170217 58006 PNO $=
KGTU 110256Z 18006KT 9SM CLR 21/17 A2980 RMK AO2 SLP086 T02060172
     51021=
KGUC 110256Z AUTO 24008KT 9SM -SN OVC055 M11/M13 A3004 RMK AO2
     SNB18 SLP233 P0000 60000 T11111133 51026 FZRANO=
KGVQ 110256Z AUTO 18006KT 10SM CLR 05/02 A2991 RMK AO2 SLP133
     T00500017 58029=
KGXY 110256Z AUTO 34011KT 10SM CLR M05/M13 A2995 RMK AO2 SLP186
     T10501133 51033 FZRANO=
KHDN 110256Z AUTO 28009KT 10SM FEW033 M11/M13 A3006 RMK AO2 SLP247
     60000 T11061133 51025 FZRANO=
KHEF 110256Z 00000KT 10SM OVC026 08/07 A3007 RMK AO2 SLP190 60000
     T00830072 58008=
KHEZ 110256Z AUTO 20009G19KT 10SM OVC022 24/21 A2989 RMK AO2
     SLP118 T02390206 51009=
KHJO 110253Z AUTO 00000KT 5SM BR FEW028 06/05 A3025 RMK AO2 SLP247
     T00610050 53018=
KHNB 110256Z AUTO 17013G19KT 10SM SCT011 18/17 A2959 RMK AO2 LTG
     DSNT E AND SE TSE03RAE09 SLP018 P0000 60010 T01830172
     58045=


083 
SAUS70 KWBC 110300 RRS
METAR
KHYX 110255Z AUTO 11012KT 3SM -RA OVC007 05/03 A2963 RMK AO2
     T00450027=
KIKV 110255Z AUTO 35011G17KT 3/4SM BR OVC004 01/01 A2938 RMK
     AO2=
KMXO 110255Z AUTO 05008G16KT 4SM -RA SCT005 BKN025 OVC075 03/03
     A2929 RMK AO2 P0022=
KOVL 110255Z AUTO 02012G16KT 330V040 2SM -SN OVC005 M02/M03 A2971
     RMK AO2=
KPQN 110255Z AUTO 01010G15KT M03/M04 A2970 RMK AO2 PWINO=
KROX 110255Z AUTO 00000KT 10SM M09/M11 A2971 RMK AO2=
KSDA 110255Z AUTO 32010G18KT 10SM -UP OVC011 00/00 A2951 RMK
     AO2=
K21D 110255Z AUTO 01012G19KT 1SM SN VV007 M01/M02 A2964 RMK AO2
     P0001=
K2W6 110255Z AUTO 00000KT 10SM OVC024 10/09 A3009 RMK AO1=
K3N8 110255Z AUTO 20006KT 10SM CLR M07/M09 A2975 RMK AO2
     T10701086=
K6L4 110255Z AUTO 18008G15KT 10SM FEW039 SCT046 BKN070 16/16 A2989
     RMK AO2=
K7L2 110255Z AUTO 26003KT 10SM CLR M08/M08 A2979 RMK AO2=
KACB 110255Z AUTO 05008KT 3SM -SN OVC013 01/00 A2966 RMK AO2
     T00111003=
KAIT 110255Z AUTO 00000KT 10SM CLR M05/M06 A2973 RMK AO2=
KD39 110255Z AUTO 32005KT 10SM CLR M03/M03 A2974 RMK AO2
     T10331035=
KDEC 110254Z 18015G24KT 3SM VCTS RA BR BKN006 BKN012 OVC039 17/17
     A2941 RMK AO2 PK WND 17031/0203 LTG DSNT ALQDS RAB20 TSB39E54
     SLP959 TS S-W MOV NE P0009 60012 T01720172 56060=
KDRM 110255Z AUTO 11004KT 10SM OVC060 02/M01 A2980 RMK AO2
     T00161007=
KDYL 110254Z AUTO 00000KT 10SM OVC047 07/01 A3011 RMK AO2 SLP199
     T00720011 56006=
KELO 110255Z AUTO 00000KT 10SM M08/M08 A2973 RMK AO2=
KFFM 110255Z AUTO 23003KT 10SM CLR M04/M06 A2974 RMK AO2=
KFXY 110255Z AUTO 01020G27KT 1 1/4SM -SN OVC007 M01/M02 A2943 RMK
     AO2=
KGYL 110255Z AUTO 36011G18KT 2SM -SN OVC008 M02/M03 A2965 RMK AO2
     60007 T10181029 P0001=
KHAI 110255Z AUTO 15016G25KT 2 1/2SM BR OVC004 11/11 A2948 RMK AO2
     T01070107=
KMZH 110255Z AUTO 00000KT 10SM OVC033 M02/M05 A2971 RMK AO2=
KPCZ 110255Z AUTO 04008G17KT 4SM -RA BKN008 OVC013 01/00 A2950 RMK
     AO2 P0003 60013 T00130000=
KBWI 110254Z 09003KT 10SM OVC024 08/02 A3008 RMK AO2 SLP188
     T00830022 58002=
KBWP 110255Z AUTO 24004KT 10SM FEW120 M04/M05 A2977 RMK AO2=
KDTL 110255Z AUTO 00000KT 10SM FEW100 M06/M08 A2975 RMK AO2=
KFDK 110255Z AUTO 00000KT 10SM SCT023 BKN100 08/02 A3007 RMK
     AO2=
KRDG 110254Z 02003KT 6SM HZ OVC041 07/02 A3009 RMK AO2 SLP196
     T00720017 58006=
KRST 110254Z 02018G26KT 1SM R31/5500VP6000FT -SN BR OVC007 M02/M03
     A2947 RMK AO2 PK WND 02027/0230 SLP993 P0006 60022 T10221033
     56024=
KSBY 110254Z 00000KT 1 1/2SM BR OVC003 11/10 A3010 RMK AO2 SLP195
     60000 T01060100 55003=
KSPF 110255Z AUTO 26010KT 10SM CLR M05/M11 A2983 RMK AO2=
KTDZ 110253Z AUTO 17010KT 8SM BKN012 OVC020 12/11 A2968 RMK AO2
     RAE10 SLP052 P0000 60005 T01220106 58018=
KTME 110255Z AUTO 22012KT 6SM HZ BKN019 OVC028 25/23 A2984 RMK
     AO2=
KTNU 110255Z AUTO 12/79166713KT 3/4SM BR OVC002 02/02 A2931 RMK
     A01=
KUKT 110255Z AUTO 00000KT 10SM OVC044 06/02 A3011 RMK A01=
KVSF 110254Z AUTO 00000KT 8SM CLR M02/M03 A3016 RMK AO2 SLP221
     T10171033 50000=
KY63 110255Z AUTO 26003KT 10SM OVC110 M04/M04 A2977 RMK AO2
     T10361036=
K8B0 110255Z AUTO 00000KT 10SM OVC037 M04/M06 A3011 RMK AO2=
K96D 110255Z AUTO 27008G15KT 10SM CLR M07/M12 A2970 RMK AO2=
KAIO 110255Z AUTO 34012KT 4SM UP OVC009 M01/M01 A2948 RMK AO2=
KEDJ 110255Z AUTO 17014G23KT 2SM BR OVC004 12/12 A2971 RMK A01=
KEVV 110254Z 17010G19KT 10SM FEW038 19/17 A2958 RMK AO2 SLP013
     60001 T01890172 58032=
KFFX 110255Z AUTO 10005KT 3SM RA OVC005 02/02 A2952 RMK AO2
     T00210015=
KGHW 110255Z AUTO 00000KT 10SM SCT070 M03/M04 A2974 RMK AO2=


084 
SAUS80 KWBC 110300 RRD
METAR
KDLH 110255Z 02003KT 10SM OVC065 M04/M07 A2971 RMK AO2 SLP086
     T10391072 58001=
KDVL 110256Z AUTO 23003KT 10SM CLR M12/M12 A2973 RMK AO2 SLP657
     T11171122 56006 FZRANO=
KDWU 110256Z AUTO 14004KT 10SM OVC018 16/15 A2982 RMK AO2 SLP099
     T01610150 58022=
KEAR 110256Z AUTO 34019KT 10SM UP OVC014 M03/M04 A2976 RMK AO2 PK
     WND 35026/0239 UPB11SNE11 SLP096 P0000 60001 T10281044 51024
     FZRANO=
KGPI 110255Z 17007KT 10SM BKN038 OVC045 M01/M06 A2993 RMK AO2
     SLP172 60000 T10111056 51002=
KGPZ 110256Z AUTO 00000KT 10SM OVC090 M06/M07 A2975 RMK AO2 SLP100
     T10561072 58001 FZRANO=
KHON 110255Z AUTO 10SM OVC100 M03/M04 A2980 RMK AO2 SLP109 60000
     T10281044 50007=
KIRK 110255Z AUTO 21008KT 8SM CLR 15/13 A2929 RMK AO2 SLP922
     T01500133 56024=
KISM 110256Z AUTO 00000KT 10SM CLR 21/19 A3015 RMK AO2 SLP211
     T02110194 50006 $=
KJQF 110255Z 00000KT 1/4SM FG OVC003 12/12 A3013=
KLIC 110255Z AUTO 33011KT 10SM CLR M07/M17 A2990 RMK AO2 SLP155
     T10671172 51044=
KMKG 110255Z 15010G25KT 5SM -RA BR BKN006 OVC016 04/03 A2949 RMK
     AO2 SLP992 P0012 60042 T00440028 58063=
KPHP 110255Z AUTO 27007KT 10SM CLR M07/M07 A2986 RMK AO2 SLP137
     T10671072 51007 TSNO=
KRNO 110255Z 23003KT 10SM CLR M01/M07 A3020 RMK AO2 SLP248
     T10061067 53004=
KSCK 110255Z 19003KT 10SM CLR 05/00 A3023 RMK AO2 SLP237 T00500000
     53014=
KYKM 110253Z 19018G26KT 10SM CLR 06/00 A2994 RMK AO2 PK WND
     19026/0251 SLP148 T00610000 58024=
PADK 110256Z AUTO 31011KT 10SM OVC055 02/M05 A3054 RMK AO2
     RAB11E32UPB32E38 SLP343 P0000 60000 T00171050 53009
     FZRANO=
PFNO 110256Z AUTO 29013KT 8SM CLR M23/M26 A2948 RMK AO2 SLP071
     T12281256 53022 FZRANO=
PADK 110256Z AUTO 31011KT 10SM OVC055 02/M05 A3054 RMK AO2
     RAB11E32UPB32E38 SLP343 P0000 60000 T00171050 53009
     FZRANO=
PHNY 110256Z AUTO 02008KT 10SM SCT026 BKN035 22/21 A3008 RMK AO2
     SLP166 60000 T02220206 53001=
KORH 110254Z 00000KT 10SM FEW050 02/M03 A3013 RMK AO2 SLP216
     T00171028 58003=
KPZQ 110255Z AUTO 09008KT 10SM OVC022 02/00 A2978 RMK AO2
     T00201002=
KIKW 110255Z AUTO 08011KT 3SM -RA OVC006 02/01 A2960 RMK AO2
     T00210010=
KGNT 110255Z AUTO 35011KT 10SM SCT041 M04/M14 A3016 RMK AO2
     T10421137=
KDRA 110253Z AUTO 03011KT 10SM CLR 04/M08 A3022 RMK AO2 SLP234
     T00391083 51018=


085 
SAUS70 KWBC 110300 RRX
METAR
KOTG 110256Z AUTO 36025G31KT 1 1/4SM -SN BR SCT006 OVC014 M03/M04
     A2961 RMK AO2 PK WND 36031/0254 SLP051 P0000 60000 T10331039
     58007 FZRANO=
KOTH 110256Z 14008KT 10SM SCT036 08/05 A3016 RMK AO2 SLP213
     T00780050 56019=
KOWB 110256Z 17018G24KT 10SM CLR 19/17 A2959 RMK AO2 LTG DSNT
     SE-SW TSE51RAE51 SLP019 P0000 60001 T01890172 58036=
KPIB 110256Z AUTO 18010KT 1 1/4SM BR OVC012 23/22 A2995 RMK AO2
     SLP141 T02280217 50007 PWINO $=
KPQI 110256Z AUTO 00000KT 10SM SCT037 OVC070 M07/M08 A3015 RMK AO2
     SLP248 T10721083 58002=
KPRX 110256Z AUTO 21012KT 10SM CLR 22/18 A2968 RMK AO2 SLP060
     T02170183 53013=
KPTN 110256Z AUTO 18007KT 10SM OVC009 23/23 A2994 RMK AO2 SLP140
     T02330233 51009 $=
KPTV 110256Z AUTO 00000KT 9SM CLR 07/06 A3025 RMK AO2 SLP246
     T00670056 53014=
KPVC 110256Z AUTO 14005KT 10SM BKN030 BKN070 07/06 A3018 RMK AO2
     SLP218 T00720056 55005=
KPVG 110256Z AUTO 00000KT 4SM BR OVC007 10/10 A3012 RMK AO2
     RAB17E29 SLP202 P0000 60000 T01000100 58008=
KPVU 110256Z 11006KT 10SM CLR M07/M11 A3027 RMK AO2 SLP291
     T10671106 51019=
KPWG 110256Z AUTO 23005KT 10SM CLR 21/17 A2977 RMK AO2 SLP074
     T02110172 51027=
KPWT 110256Z AUTO 19012G29KT 9SM -RA OVC005 06/05 A2984 RMK AO2 PK
     WND 22029/0248 SLP111 P0005 60020 T00560050 58026=
KRKD 110256Z AUTO 00000KT 10SM BKN029 OVC050 M02/M03 A3021 RMK AO2
     SLP232 T10221028 53002 FZRANO=
KRUT 110256Z AUTO 13010KT 10SM CLR 01/M03 A3011 RMK AO2 SLP201
     T00111028 55006 FZRANO $=
KSDY 110256Z AUTO 19004KT 10SM CLR M09/M12 A2977 RMK AO2 SLP126
     T10941117 50000 FZRANO=
KSFM 110256Z AUTO 12003KT 10SM BKN009 M05/M07 A3020 RMK AO2 SLP233
     T10501067 53001 FZRANO=
KSFZ 110256Z AUTO 03003KT 10SM OVC022 02/M01 A3016 RMK AO2 SLP223
     6//// T00171006 58003 FZRANO PNO $=
KSGH 110256Z AUTO 16011KT 2SM BR OVC002 13/ A2973 RMK AO2 RAB08E54
     SLP069 6//// T0128 58032 PNO $=
KSGJ 110256Z AUTO 16005KT 10SM CLR 19/19 A3015 RMK AO2 SLP208
     T01940189 50001=
KSGT 110256Z AUTO 20022G35KT 10SM CLR 24/19 A2964 RMK AO2 PK WND
     19040/0240 LTG DSNT N AND NW SLP034 T02390189 56014=
KSGU 110256Z AUTO 06018KT 10SM CLR 03/M11 A3025 RMK AO2 SLP253
     6//// T00281106 51017 PNO $=
KSKX 110256Z AUTO 10SM CLR M09/M15 A3008 RMK AO2 SLP223 T10891150
     53043 FZRANO $=
KSLG 110256Z AUTO 22012KT 10SM BKN043 19/16 A2955 RMK AO2 SLP999
     60002 T01940156 53002=
KSMN 110256Z AUTO 00000KT 10SM OVC065 M02/M12 A3005 RMK AO2 SLP229
     T10171117 53011 FZRANO $=
KSOP 110256Z AUTO 19005KT 10SM OVC007 12/12 A3014 RMK AO2 SLP210
     60000 T01220117 55006=
KSQI 110256Z 14004KT 7SM RA BKN010 BKN015 OVC035 10/10 A2932 RMK
     AO2 LTG DSNT E AND SW CIG 007V012 SLP797 P0039 60093
     T01000100 55040=
KSUE 110256Z AUTO 06012G19KT 1 1/4SM -SN BR OVC004 01/00 A2954 RMK
     AO2 SLP010 P0002 6//// T00060000 56035 FZRANO $=
KTVF 110256Z AUTO 19008KT 10SM CLR M09/M10 A2975 RMK AO2 SLP099
     T10941100 55006 FZRANO=
KUCP 110256Z AUTO 14007KT 7SM RA FEW050 BKN070 OVC085 11/07 A2986
     RMK AO2 RAB38 PRESFR SLP128 P0000 60000 T01060072 58025=
KUDG 110256Z AUTO 00000KT 3SM BR OVC007 12/12 A3015 RMK AO2 SLP210
     6//// T01170117 58002 PNO $=
KUGN 110255Z 35005KT 2 1/2SM RA BR OVC002 08/07 A2934 RMK AO2
     SLP941 P0014 60033 T00780072 58078=
KVBT 110256Z AUTO 22012G19KT 10SM FEW055 18/16 A2955 RMK AO2
     SLP001 60002 T01830161 51024=
KVIS 110256Z AUTO 00000KT 10SM CLR 07/07 A3025 RMK AO2 SLP252
     T00720072 53016=
KWVL 110256Z AUTO 00000KT 10SM OVC046 M06/M08 A3018 RMK AO2 SLP254
     T10611083 50002 FZRANO=


089 
SAXX60 KWBC 110300 RRA
METAR
KNQX 110253Z 10010KT 10SM FEW025 27/21 A3010 RMK AO2 SLP192
     T02670211 51008 $=
KNRB 110252Z AUTO 16008KT 10SM CLR 21/19 A3014 RMK AO2 SLP204
     T02060194 51003=
KNSI 110253Z AUTO 32007KT 10SM CLR 08/07 A3015 RMK AO2 SLP208
     T00780067 51016 $=
KNTD 110252Z 06003KT 10SM CLR 10/07 A3017 RMK AO2 SLP219 T01000067
     51019 CHINO N VISNO N $=
KSLI 110256Z AUTO 00000KT 10SM CLR 10/10 A3015 RMK AO2 SLP213
     T01030103 52014 $=
MUGM 110251Z 33008KT 10SM FEW030 SCT090 25/19 A3002 RMK AO2 SLP167
     T02500194 51013 $=
TJNR 110253Z AUTO 05010KT 10SM FEW024 26/23 A3001 RMK AO2 SLP161
     60001 T02610233 51004=
K1BW 110256Z AUTO 29012KT 10SM FEW049 M09/M11 A2988 RMK AO2 SLP179
     60000 T10881106 52025 $=
K1HW 110256Z AUTO 32019G24KT 6SM -SN BR OVC024 M05/M06 A2986 RMK
     AO2 SLP153 P0000 60000 T10491059 52028 FZRANO $=
KAFF 110256Z 29016G24KT 10SM CLR M06/M21 A2988 RMK AO2A PK WND
     29028/25 SLP159 T10631211 52039=
KNKX 110255Z 00000KT 10SM CLR 09/07 A3013 RMK AO2 SLP199 T00890072
     50003 $=
KAFF 110256Z 29016G24KT 10SM CLR M06/M21 A2988 RMK AO2A PK WND
     29028/25 SLP159 T10631211 52039=
KBAB 110256Z AUTO 12003KT 10SM CLR 04/00 A3021 RMK AO2 SLP234
     T00390004 51007 $=
KLSV 110255Z 02010G15KT 10SM CLR 08/M13 A3025 RMK SLPNO 5//// WND
     DATA ESTMD ALSTG ESTMD $=
KOZR 110256Z AUTO 17009KT 10SM OVC008 21/21 A3005 RMK AO2 SLP176
     T02120210 52006=
KPAM 110256Z AUTO 15011KT 9SM OVC003 22/21 A3006 RMK AO2 SLP182
     T02150206 50002 $=
KPOB 110256Z AUTO 24005KT 10SM OVC015 12/12 A3012 RMK AO2 CIG 014
     RWY05 SLP203 60000 T01210116 58005 $=
KSUU 110256Z AUTO 00000KT 10SM CLR 04/M00 A3024 RMK AO2 SLP248
     T00351002 52013 $=
KSVN 110256Z AUTO 11004KT 10SM SCT065 16/14 A3011 RMK AO2 SLP199
     T01580143 58002 $=
KTBN 110256Z AUTO 18005KT 10SM FEW025 17/15 A2946 RMK AO2
     DZB22E24RAB24E51DZB51E54 SLP973 P0002 60024 T01650145
     50001=
KVAD 110256Z AUTO 18003KT 8SM CLR 18/17 A3010 RMK AO2 SLP194
     T01790169 50005 $=
PHHI 110256Z AUTO 10011KT 10SM FEW026 BKN035 24/17 A3007 RMK AO2
     SLP174 T02360173 53004 $=
KFZY 110254Z AUTO 11003KT 8SM FEW060 02/M02 A3001 RMK AO2 SLP168
     T00171017 58009=
K1LW 110256Z AUTO 32018KT 10SM CLR M07/M09 A2991 RMK AO2 PK WND
     31028/14 SLP184 T10701092 52030 $=
KBAB 110256Z AUTO 12003KT 10SM CLR 04/00 A3021 RMK AO2 SLP234
     T00390004 51007 $=
KNFG 110255Z AUTO RMK AO2 SLPNO 6//// PWINO PNO $=
PMDY 110256Z AUTO 08014KT 10SM FEW017 SCT028 25/21 A3003 RMK AO2
     SLP167 6//// T02500211 55003=
K1IW 110256Z AUTO 33016KT 9SM -SN OVC095 M05/M07 M RMK AO2 SLPNO
     P0000 60000 T10471067 $=
KMRT 110255Z AUTO 18012G17KT 4SM OVC004 12/11 A2975 RMK AO2 60005
     T01170110 P0002=
KAFF 110256Z 29016G24KT 10SM CLR M06/M21 A2988 RMK AO2A PK WND
     29028/25 SLP159 T10631211 52039=
KBAB 110256Z AUTO 12003KT 10SM CLR 04/00 A3021 RMK AO2 SLP234
     T00390004 51007 $=
KCOF 110256Z AUTO 00000KT 10SM CLR 22/22 A3012 RMK AO2 SLP204
     T02220220 50003 $=
KDAA 110256Z AUTO 00000KT 10SM OVC024 09/07 A3007 RMK AO2 SLP186
     60001 T00850073 58004 $=
KEND 110256Z AUTO 30015KT 10SM CLR 05/M03 A2979 RMK AO2 PK WND
     32032/0159 PRESRR SLP089 T00481032 52065 $=
KFTK 110256Z AUTO 16014G20KT 10SM -TSRA OVC010 18/17 A2967 RMK AO2
     RAB09E22DZB22E26RAB26E27RAB27E27RAB40 TSB43 SLP047 P0000
     60000 T01760174 57038=
KHOP 110256Z AUTO 18014G22KT 10SM SCT022 SCT027 22/22 A2967 RMK
     AO2 LTG DSNT N SLP046 T02190217 57024=
KLSV 110255Z 02010G15KT 10SM CLR 08/M13 A3025 RMK SLPNO 5//// WND
     DATA ESTMD ALSTG ESTMD $=


090 
SAUS80 KWBC 110300 RRB
METAR
KGCC 110253Z AUTO 25013KT 10SM CLR M09/M13 A2985 RMK AO2 SLP158
     T10891133 50007=
KGEG 110253Z 18009KT 10SM FEW035 SCT050 OVC070 01/M02 A2995 RMK
     AO2 SNE09 SLP166 P0000 60000 T00061017 58011=
KTCS 110253Z AUTO 34006KT 10SM CLR 09/M07 A3004 RMK AO2 SLP138
     T00891072 53036=
KUIL 110253Z AUTO 19013G31KT 5SM -RA BR BKN010 OVC015 08/08 A2973
     RMK AO2 PK WND 22032/0156 SLP069 P0007 60021 T00830083
     58030=
KLAN 110253Z 13016G26KT 4SM -RA BR BKN006 OVC012 08/07 A2957 RMK
     AO2 PK WND 11036/0206 WSHFT 0155 CIG 005V009 SLP018 P0009
     60023 T00830067 58071=
KSTC 110253Z 35007KT 1 3/4SM -SN BR OVC024 M03/M04 A2972 RMK AO2
     SLP087 P0002 60011 T10281039 58011=
KDRT 110253Z AUTO 00000KT 10SM CLR 22/13 A2979 RMK AO2 SLP082
     T02220133 51025=
KPGA 110253Z AUTO 27006KT 10SM CLR 01/M12 A3021 RMK AO2 SLP234
     T00111117 53025=
KBDR 110252Z 03003KT 10SM SCT060 04/01 A3014 RMK AO2 SLP204
     T00390011 58006=
KLWD 110253Z AUTO 30013G20KT 1 1/2SM BR OVC002 03/03 A2936 RMK AO2
     SLP950 T00330028 53008=
KGRR 110253Z 09010KT 2SM RA BR OVC004 04/03 A2953 RMK AO2 PRESFR
     SLP005 P0005 60028 T00390033 56065=
KHTL 110253Z AUTO 09014G23KT 5SM -RA BR OVC007 02/00 A2963 RMK AO2
     SLP045 P0006 60010 T00170000 58063=
KODX 110253Z AUTO 34017G25KT 3SM -SN BR FEW013 FEW020 OVC035
     M02/M04 A2978 RMK AO2 PK WND 34026/0158 SLP106 P0000 60001
     T10221044 53014=
KLBB 110253Z 30021G29KT 10SM BKN210 BKN240 13/M08 A2988 RMK AO2 PK
     WND 29029/0250 SLP090 BKN LYR THN T01331078 53036=
PHJR 110253Z 07008KT 10SM CLR 27/18 A3004 RMK AO2 SLP180 T02720178
     53004=
KLAX 110253Z 33005KT 10SM CLR 14/09 A3016 RMK AO2 SLP212 T01440094
     51018 $=
KMSO 110253Z AUTO 00000KT 10SM OVC060 M02/M06 A2998 RMK AO2 SLP188
     T10171061 50000=
KPDX 110253Z 17008KT 10SM OVC032 08/03 A3006 RMK AO2 SLP177 60000
     T00830033 58020 $=
KACY 110254Z 00000KT 4SM -RA BR SCT019 OVC029 08/06 A3012 RMK AO2
     RAB07 SLP198 P0003 60003 T00780061 55009=
KDAB 110253Z 00000KT 6SM BR CLR 19/18 A3015 RMK AO2 SLP207
     T01890178 50004=
KSAV 110253Z 12005KT 6SM BR FEW060 15/14 A3013 RMK AO2 SLP202
     T01500144 58002=
KMSN 110253Z 02007KT 4SM RA BR OVC005 02/02 A2939 RMK AO2 SLP961
     P0013 60023 T00220017 56063=
KCQC 110253Z AUTO 31028G39KT 10SM CLR M06/M14 A3002 RMK AO2 PK WND
     32039/0204 SLP183 T10561144 51036=
KCQT 110252Z AUTO 00000KT 10SM CLR 13/08 A3015 RMK AO2 SLP211
     T01280083 51021=
KCQT 110252Z AUTO 00000KT 10SM CLR 13/08 A3015 RMK AO2 SLP211
     T01280083 51021=
KP69 110252Z AUTO 00000KT 01/ A3013 RMK AO1 SLP226 60005 T0006
     58002 $=
KDMN 110253Z AUTO 27017G25KT 10SM CLR 08/M02 A3005 RMK AO2 SLP147
     T00781017 53008=
KHVR 110253Z AUTO 22016KT 10SM CLR M07/M12 A2969 RMK AO2 SLP092
     T10671117 58008=
KSDM 110253Z 00000KT 10SM CLR 12/08 A3012 RMK AO2 SLP198 T01220078
     50005=
KSEA 110253Z 18013G25KT 10SM -RA SCT034 OVC042 07/03 A2987 RMK AO2
     PK WND 18030/0155 RAB51 SLP123 P0000 60000 T00670028
     58036=
KAVP 110254Z 00000KT 10SM BKN047 OVC060 06/M01 A3006 RMK AO2
     SLP183 T00561006 55011=
KHSI 110253Z AUTO 34022G32KT 8SM UP OVC014 M02/M04 A2972 RMK AO2
     PK WND 34032/0253 UPB27SNE27 SLP082 P0000 60000 T10221039
     51025=
KNUI 110253Z AUTO 00000KT 9SM OVC009 12/09 A3008 RMK AO2 SLP185
     T01220089 56005=
KREO 110252Z AUTO 16013KT M02/M11 A3013 RMK AO1 SLP237 T10221111
     58002=
KSOW 110255Z AUTO 36005KT 10SM CLR M01/M09 A3016 RMK AO2=
K12N 110254Z AUTO 00000KT 04/01 A3010 RMK AO1 SLP201 T00390011
     58007=


091 
SAUS70 KWBC 110300 RRH
METAR
KRZN 110255Z AUTO 02006KT 1 3/4SM -SN OVC006 M03/M03 A2970 RMK AO2
     T10271035=
KSCR 110255Z AUTO 19007KT 10SM OVC007 12/11 A3011 RMK AO2
     T01170110=
KTEW 110255Z AUTO 14015G18KT 5SM BR OVC005 08/07 A2957 RMK AO2
     T00780070=
KTTF 110255Z AUTO 15006KT 4SM -RA OVC009 08/07 A2967 RMK AO2 60013
     T00780070 P0004=
KTWT 110255Z AUTO 17019G25KT 10SM SCT019 20/18 A2956 RMK AO2=
KUTA 110255Z AUTO 18018G27KT 10SM CLR 23/18 A2969 RMK AO2 TSNO=
KVJI 110255Z AUTO 09006KT 10SM SCT050 BKN070 11/09 A2999 RMK AO2
     T01080091=
KY31 110255Z AUTO 07008KT 3SM -RA OVC005 02/01 A2965 RMK AO2 60003
     T00170006 P0003=
KY49 110255Z AUTO 23004KT 10SM SCT120 M05/M08 A2973 RMK AO2
     T10541082=
KY70 110255Z AUTO 08007KT 2SM RA OVC005 03/03 A2955 RMK AO2 60013
     T00320032 P0001=
K1S5 110255Z AUTO 11006KT 10SM SCT080 OVC110 05/00 A3000 RMK AO2
     T00510002=
KAQP 110253Z AUTO 32004KT 10SM BKN006 M02/M03 A2976 RMK AO2=
KBLH 110252Z AUTO 33008KT 10SM CLR 12/M07 A3017 RMK AO2 SLP215
     T01171067 53020=
KFST 110253Z AUTO 30008KT 10SM CLR 17/01 A2995 RMK AO2 SLP106
     T01670011 51031=
KFTW 110253Z 26008KT 9SM OVC031 24/04 A2972 RMK AO2 SLP055
     T02390044 51026=
KGGG 110253Z 19013KT 10SM CLR 23/19 A2972 RMK AO2 SLP057 T02330194
     51009=
KGJT 110253Z 16005KT 10SM CLR M03/M09 A3016 RMK AO2 SLP232
     T10281089 53028=
KGLS 110252Z AUTO 18013KT 8SM FEW028 OVC035 24/22 A2984 RMK AO2
     SLP103 T02390217 53008=
KJXI 110255Z AUTO 18011G19KT 10SM CLR 24/18 A2971 RMK AO2
     T02360175=
KOKB 110252Z AUTO 33003KT 10SM CLR 08/08 A3014 RMK AO2 SLP204
     T00830083 50007=
KTIW 110253Z 20013G25KT 10SM -RA BKN030 OVC045 06/05 A2989 RMK AO2
     PK WND 20032/0206 RAB13 SLP123 P0000 60001 T00560050
     56032=
KEWB 110253Z 00000KT 8SM BKN025 02/01 A3016 RMK AO2 SLP213
     T00170006 55003=
KEYE 110253Z AUTO 14009KT 2SM BR OVC002 14/14 A2954 RMK AO2
     RAB0158E47 PRESFR SLP003 P0002 60002 T01440139 58050=
KFDY 110253Z AUTO 16017KT 6SM BR OVC008 13/11 A2966 RMK AO2 SLP042
     60009 T01280111 58026=
KFLD 110253Z AUTO 08009G19KT 6SM -RA OVC007 04/00 A2945 RMK AO2
     RAE00B28 SLP978 P0003 60023 T00390000 58052=
KFRG 110253Z AUTO 03004KT 10SM BKN065 04/02 A3012 RMK AO2 SLP199
     T00440017 58012=
KFVE 110253Z AUTO 17008KT 10SM OVC010 M08/M10 A3008 RMK AO2 SLP207
     T10831100 58003=
KFWN 110253Z AUTO 00000KT 10SM SCT060 BKN070 02/00 A3011 RMK AO2
     SLP199 T00220000 58007=
KGEZ 110253Z AUTO 16015KT 4SM -RA BR OVC002 16/15 A2960 RMK AO2
     LTG DSNT S AND SW RAB01E16B19 PRESFR SLP023 P0003 60003
     T01560150 58038=
KGFL 110253Z AUTO 00000KT 8SM CLR M02/M04 A3012 RMK AO2 SLP210
     T10221039 55002=
KGRB 110253Z 06015KT 6SM -RA BR OVC004 01/M01 A2950 RMK AO2
     RAB50SNE50 SLP999 P0005 60011 T00061006 58054 $=
KRCX 110255Z AUTO 00000KT 1SM SN M02/M02 A2964 RMK AO2 P0003 60009
     T10181018=
KTQE 110254Z AUTO M01/M03 A2961 RMK AO2 PK WND 34034/0247 SNEMM
     PRESRR SLP030 P0001 60002 T10061028 53018 PWINO FZRANO $=
KTTN 110253Z 00000KT 10SM OVC050 06/03 A3012 RMK AO2 RAB32E42
     SLP194 P0000 60000 T00610028 55008=
KBPI 110253Z AUTO 25003KT 10SM CLR M15/M18 A3001 RMK AO2 SLP245
     T11501178 51018=
KBPT 110253Z 17012G20KT 6SM BR BKN009 BKN027 OVC044 24/22 A2985
     RMK AO2 SLP107 T02390222 53007=
KCAG 110253Z AUTO 29007KT 10SM CLR M13/M16 A3007 RMK AO2 SLP257
     T11331156 53022=
KEVW 110253Z AUTO 23009KT 10SM BKN047 M13/M15 A3010 RMK AO2 SLP272
     60000 T11281150 51021=
KFHR 110253Z AUTO 15021G34KT 10SM OVC015 07/04 A2975 RMK AO2 PK
     WND 15034/0215 SLP074 60000 T00670044 58051 TSNO=


092 
SAUS70 KWBC 110300 RRE
METAR
KPNE 110254Z 00000KT 10SM OVC050 08/02 A3014 RMK AO2 SLP208
     T00780017 55002=
KPQN 110255Z AUTO 01010G15KT M03/M04 A2970 RMK AO2 PWINO=
KPRB 110253Z AUTO 09003KT 10SM CLR 08/01 A3021 RMK AO2 SLP233
     T00780006 53017=
KPSF 110254Z AUTO 00000KT 8SM BKN048 M02/M04 A3010 RMK AO2 SLP202
     I1000 I3000 T10221039 58004=
KPSK 110255Z AUTO 00000KT 4SM BR BKN065 06/06 A3005 RMK AO2
     T00620062=
KPTW 110254Z AUTO 06003KT 7SM OVC045 06/01 A3012 RMK AO2 SLP197
     T00560011 58007=
KPVB 110255Z AUTO 06014G19KT 1 3/4SM OVC005 A2933 RMK AO1 P0007
     60021=
KRBL 110254Z AUTO 29006KT 10SM CLR 05/M02 A3020 RMK AO2 SLP229
     T00501017 53004=
KRCE 110255Z AUTO 33026G32KT 10SM BKN047 BKN055 OVC070 07/M02
     A2977 RMK AO2=
KRCM 110255Z AUTO 27015G23KT 10SM SCT085 11/03 A2942 RMK AO2=
KRDG 110254Z 02003KT 6SM HZ OVC041 07/02 A3009 RMK AO2 SLP196
     T00720017 58006=
KRDK 110255Z AUTO 33013G20KT 6SM -UP OVC009 00/M00 A2948 RMK
     AO2=
KRGK 110255Z AUTO 05007KT 1 3/4SM -SN OVC008 M02/M03 A2957 RMK AO2
     P0001=
KRKS 110254Z AUTO 26022G30KT 10SM CLR M11/M15 A3002 RMK AO2 PK WND
     26030/0232 SLP243 60000 T11111150 51017=
KRMN 110255Z AUTO 00000KT 10SM OVC022 10/07 A3011 RMK AO2
     T00960065=
KRNH 110255Z AUTO 02012G16KT 1SM SN VV007 M02/M03 A2964 RMK AO2
     T10201031=
KROX 110255Z AUTO 00000KT 10SM M09/M11 A2971 RMK AO2=
KRST 110254Z 02018G26KT 1SM R31/5500VP6000FT -SN BR OVC007 M02/M03
     A2947 RMK AO2 PK WND 02027/0230 SLP993 P0006 60022 T10221033
     56024=
KRUG 110255Z AUTO 24011KT 10SM CLR M12/M13 A2972 RMK AO2=
KRZT 110255Z AUTO 17006KT 10SM SCT008 OVC013 12/12 A2977 RMK AO2
     PWINO=
KS25 110255Z AUTO 27011KT 10SM M06/M10 A2976 RMK AO2=
KSAZ 110255Z AUTO 00000KT 10SM M04/M06 A2974 RMK AO2=
KSBY 110254Z 00000KT 1 1/2SM BR OVC003 11/10 A3010 RMK AO2 SLP195
     60000 T01060100 55003=
KSDA 110255Z AUTO 32010G18KT 10SM -UP OVC011 00/00 A2951 RMK
     AO2=
KSDC 110255Z AUTO 14004KT 10SM CLR 04/00 A2998 RMK AO2=
KSET 110254Z AUTO 21012G21KT 10SM VCTS SCT085 BKN110 18/14 A2941
     RMK AO2 PK WND 28059/0202 WSHFT 0151 LTG DSNT E RAE36 TSE29
     SLP957 P0031 60034 T01780139 55013=
KSFQ 110255Z AUTO 00000KT 4SM BR OVC004 11/11 A3013 RMK AO2
     T01100110=
KSGS 110255Z AUTO 02011G16KT 1 1/4SM -SN BKN001 BKN005 BKN009
     M01/M02 A2962 RMK AO2 60006 T10131017 P0001=
KSHL 110255Z AUTO 36024G29KT 1/2SM BR OVC002 M03/M03 A2960 RMK AO2
     PWINO=
KSJX 110255Z AUTO 09013G19KT 2SM -SN BKN007 OVC011 01/00 A2973 RMK
     AO2 T00110004=
KSLB 110255Z AUTO 1/2SM +RA VV005 M03/M03 A2949 RMK AO2=
KSLC 110254Z 12005KT 10SM FEW050 SCT075 M03/M08 A3023 RMK AO2
     SLP263 T10281083 51016 $=
KSNK 110255Z AUTO 25016KT 10SM CLR 18/00 A2988 RMK AO2
     T01791002=
KSPF 110255Z AUTO 26010KT 10SM CLR M05/M11 A2983 RMK AO2=
KSRR 110255Z AUTO 30013G24KT 10SM CLR 02/M10 A3006 RMK AO2=
KSUT 110255Z AUTO 00000KT 10SM BKN042 OVC048 15/13 A3016 RMK AO2
     T01510131=
KSUZ 110255Z AUTO 25009G17KT 10SM BKN023 BKN028 OVC035 24/20 A2963
     RMK A01=
KSVC 110255Z AUTO 34007KT 10SM CLR 05/M01 A3008 RMK AO2
     T00451011=
KSWO 110253Z 31013G19KT 10SM OVC070 08/M02 A2974 RMK AO2 SLP067
     T00781017 51087=
KSXU 110255Z AUTO 29016G24KT 10SM CLR 02/M13 A3000 RMK AO2
     T00211131=
KSYM 110255Z AUTO 19009KT 9SM -RA OVC013 16/14 A2982 RMK AO2=
KTAD 110254Z AUTO 32009G20KT 10SM CLR M03/M18 A2996 RMK AO2 PK WND
     30034/0156 SLP143 T10331183 51044=
KTDZ 110253Z AUTO 17010KT 8SM BKN012 OVC020 12/11 A2968 RMK AO2
     RAE10 SLP052 P0000 60005 T01220106 58018=


096 
SAUS70 KWBC 110300 RRA
METAR
KBRG 110255Z AUTO 03009KT 10SM SCT046 00/M15 A3015 RMK AO2
     T00001149=
KBUY 110254Z AUTO 18004KT 9SM OVC007 12/11 A3010 RMK AO2 RAB33E44
     SLP193 P0000 60000 T01220106 51002=
KBVU 110255Z AUTO 02010KT 10SM CLR 08/M14 A3025 RMK AO2=
KBWI 110254Z 09003KT 10SM OVC024 08/02 A3008 RMK AO2 SLP188
     T00830022 58002=
KBWP 110255Z AUTO 24004KT 10SM FEW120 M04/M05 A2977 RMK AO2=
KBXK 110255Z AUTO 34005KT 10SM 13/02 A3013 RMK A01=
KC35 110255Z AUTO 05004G15KT 10SM OVC006 00/00 A2942 RMK AO2 P0006
     60024 T00000000 PWINO=
KCBG 110255Z AUTO 35005KT 1 3/4SM -SN VV007 M02/M06 A2971 RMK
     AO2=
KCCY 110255Z AUTO 4SM BR OVC006 M01/M01 A2938 RMK AO2=
KCDA 110255Z AUTO 00000KT 10SM OVC048 M02/M04 A3014 RMK AO2
     T10171036=
KCDI 110255Z AUTO 12003KT 10SM BKN016 OVC022 12/11 A2982 RMK AO2
     T01160105=
KCDN 110255Z AUTO 00000KT 3/4SM BR OVC002 11/11 A3014 RMK AO2=
KCEU 110254Z AUTO 00000KT 3/4SM BR VV003 10/10 A3010 RMK AO2
     SLP194 T01000100 58002=
KCFE 110255Z AUTO 36017KT 3/4SM -SN BR OVC003 M02/M03 A2969 RMK
     AO2=
KCFJ 110255Z AUTO 14013G22KT 3SM BR OVC003 14/14 A2946 RMK AO2 LTG
     DSNT SE 60001 T01350135=
KCGC 110255Z AUTO RMK AO2 PWINO TSNO=
KCGE 110255Z AUTO 12003KT 7SM SCT007 OVC015 09/09 A3010 RMK
     A01=
KCJR 110255Z AUTO 00000KT 10SM OVC024 08/07 A3008 RMK AO2
     T00800066=
KCKI 110255Z AUTO 00000KT 4SM BR SCT003 OVC015 12/11 A3015 RMK AO2
     P0001=
KCKM 110255Z AUTO 17020G27KT 10SM FEW025 FEW030 SCT039 24/21 A2970
     RMK A01=
KCKV 110252Z AUTO 19016G23KT 10SM BKN023 OVC029 23/18 A2968 RMK
     AO2 LTG DSNT N SLP046 T02280183 58025=
KCKZ 110255Z AUTO 00000KT 10SM OVC046 06/02 A3012 RMK AO2=
KCLW 110255Z AUTO 00000KT 10SM CLR 21/20 A3012 RMK AO2=
KCMR 110255Z AUTO 16004KT 10SM CLR M07/M10 A3015 RMK AO2=
KCNB 110255Z AUTO 30003KT 4SM -SN SCT017 OVC026 M02/M02 A2977 RMK
     AO2 T10181023=
KCNC 110255Z AUTO 31013G18KT M1/4SM FG OVC002 04/04 A2933 RMK
     AO2=
KCOQ 110255Z AUTO 00000KT 10SM BKN065 OVC075 M04/M07 A2970 RMK AO2
     TSNO=
KCPC 110255Z AUTO 00000KT 3SM BR BKN018 OVC023 14/13 A3017 RMK AO2
     P0006 60006 T01350125=
KCPT 110255Z AUTO 25006KT 10SM FEW022 FEW030 FEW037 22/06 A2976
     RMK A01=
KCSQ 110255Z AUTO 32015KT 2 1/2SM BR OVC003 00/00 A2939 RMK
     AO2=
KCVH 110255Z AUTO 00000KT 10SM CLR 06/01 A3024 RMK A01=
KD25 110255Z AUTO 02005KT 3/4SM SN OVC007 M03/M03 A2966 RMK AO2
     P0003 60004 T10351035=
KD39 110255Z AUTO 32005KT 10SM CLR M03/M03 A2974 RMK AO2
     T10331035=
KD57 110255Z AUTO 28005KT 10SM CLR M07/M11 A2976 RMK AO2=
KD60 110255Z AUTO 26012KT 10SM CLR M10/M12 A2972 RMK AO2=
KD95 110255Z AUTO 12006KT 3SM UP BKN007 BKN025 OVC034 04/04 A2968
     RMK AO2 60005 T00400040 P0005=
KDDH 110254Z AUTO 00000KT 10SM SCT055 M01/M02 A3011 RMK AO2 SLP206
     T10111022 55002=
KDEC 110254Z 18015G24KT 3SM VCTS RA BR BKN006 BKN012 OVC039 17/17
     A2941 RMK AO2 PK WND 17031/0203 LTG DSNT ALQDS RAB20 TSB39E54
     SLP959 TS S-W MOV NE P0009 60012 T01720172 56060=
KDEH 110255Z AUTO 02007G17KT 350V060 2 1/2SM BR OVC004 M00/00
     A2939 RMK AO2=
KDNA 110255Z AUTO 28012G17KT 10SM CLR 09/00 A3006 RMK AO2=
KDNS 110255Z AUTO 36013G19KT 1 1/4SM -RA SCT005 SCT008 BKN015
     M02/M02 A2952 RMK AO2=
KDRM 110255Z AUTO 11004KT 10SM OVC060 02/M01 A2980 RMK AO2
     T00161007=
KDSV 110254Z AUTO 16007KT 10SM CLR 04/01 A2994 RMK AO2 SLP152
     T00440011 58021=
KDTL 110255Z AUTO 00000KT 10SM FEW100 M06/M08 A2975 RMK AO2=
KDTN 110253Z 18014G21KT 10SM FEW023 24/21 A2973 RMK AO2 SLP065
     T02440206 50007=


097 
SAUS70 KWBC 110300 RRI
METAR
KLVM 110253Z AUTO 23032G47KT 10SM SCT070 M02/M17 A2984 RMK AO2 PK
     WND 23047/0252 SLP145 T10221172 58001=
KRDD 110253Z 06004KT 10SM CLR 04/M01 A3019 RMK AO2 SLP225
     T00391006 53004=
KRWL 110253Z AUTO 26022G33KT 6SM HZ CLR M10/M14 A2993 RMK AO2 PK
     WND 26035/0224 SNB34E35 SLP209 P0000 60000 T11001144
     53018=
KTOR 110253Z AUTO 20006KT 10SM CLR M08/M11 A2991 RMK AO2 SLP175
     60000 T10831106 51022=
KTRL 110253Z AUTO 24010KT 10SM FEW060 SCT075 BKN110 23/19 A2973
     RMK AO2 SLP062 T02330189 53021=
KTWF 110253Z 21012KT 10SM OVC060 M02/M08 A3017 RMK AO2 SLP236
     T10221083 53003=
KVNY 110251Z 00000KT 10SM CLR 12/06 A3015 RMK AO2 SLP208 T01220056
     52021=
KBEH 110253Z AUTO 14010G19KT 4SM BR OVC005 12/11 A2940 RMK AO2
     RAB0154E27 PRESFR SLP958 P0001 60007 T01170106 58076=
KBGR 110253Z 00000KT 10SM FEW018 OVC047 M06/M08 A3021 RMK AO2
     SLP234 T10611078 58001=
KBMG 110253Z AUTO 15012KT 6SM BR OVC002 16/16 A2956 RMK AO2 LTG
     DSNT E RAE31 SLP008 TS VC W MOV E P0010 60011 T01610156
     58043=
KBTL 110253Z 15014G22KT 6SM BR OVC004 11/09 A2951 RMK AO2
     RAB0154E37 PRESFR SLP996 P0000 60029 T01060094 58064=
KFCM 110253Z AUTO 02012G21KT 1/2SM SN FZFG VV008 M02/M03 A2962 RMK
     AO2 SLP039 P0002 60007 T10171028 58024=
KGFK 110253Z 14005KT 10SM SCT240 M12/M13 A2974 RMK AO2 SLP090
     I3001 T11171133 56007=
KGLR 110253Z AUTO 07009G15KT 3/4SM -SN OVC008 01/M02 A2967 RMK AO2
     SNB23 CIG 005V010 PRESFR SLP061 P0002 60002 T00111017
     58050=
KLPR 110253Z AUTO 18016G21KT 10SM BKN100 BKN120 12/09 A2973 RMK
     AO2 SLP067 60000 T01170094 58043=
KLWV 110253Z AUTO 17017KT 10SM BKN009 17/17 A2953 RMK AO2 PK WND
     16028/0220 SLP999 60008 T01720167 56037=
KTHV 110253Z AUTO 10005KT 10SM OVC028 07/01 A3006 RMK AO2 SLP185
     T00720006 58011=
KTVC 110253Z AUTO 05006KT 4SM -RA BR OVC012 02/00 A2962 RMK AO2
     RAB01SNE01 PRESFR SLP035 P0009 60011 T00170000 58060=
KADG 110253Z AUTO 15006KT 10SM -RA OVC002 08/08 A2964 RMK AO2
     PRESFR SLP043 P0004 60037 T00780078 56053=
KAOO 110253Z AUTO 14003KT 10SM CLR 06/M01 A2999 RMK AO2 SLP165
     T00611011 58012=
KBIV 110253Z AUTO 09008KT 3SM RA BR OVC004 06/06 A2947 RMK AO2
     SLP984 P0013 60035 T00610056 58060=
KBRD 110253Z AUTO 00000KT 9SM OVC060 M03/M06 A2973 RMK AO2 SLP088
     T10331061 58013 TSNO=
KBVY 110253Z AUTO 35004KT 10SM OVC031 00/M02 A3018 RMK AO2 SLP216
     6//// T00001017 55003 PNO=
KCKB 110253Z 12006KT 10SM OVC024 13/11 A2988 RMK AO2 RAE07B10E20
     PRESFR SLP112 P0000 60014 T01280106 58019=
KHGR 110253Z 06005KT 10SM BKN027 08/01 A3003 RMK AO2 SLP183
     T00780006 58014 $=
KLUK 110253Z 20006KT 10SM OVC010 15/14 A2972 RMK AO2 SLP065
     T01500144 56025=
KMBS 110253Z 09013KT 2SM -RA BR OVC006 03/02 A2962 RMK AO2 SLP035
     P0006 60007 T00280017 58064=
KMGW 110253Z 14005KT 9SM -RA BKN060 BKN070 OVC085 13/11 A2991 RMK
     AO2 RAB01 SLP126 P0003 60003 T01280106 58017=
KRHI 110253Z AUTO 05007KT 1/2SM SN FZFG VV006 M03/M04 A2960 RMK
     AO2 SLP047 P0009 60024 T10281044 58030=
KSBM 110253Z AUTO 07011KT 4SM -RA BR OVC006 03/02 A2948 RMK AO2
     RAE26B52UPB50E52 SLP989 P0001 60024 T00280022 58066=
KSNY 110253Z AUTO 31015KT 7SM -SN FEW016 SCT042 BKN095 M05/M07
     A2987 RMK AO2 SNE30B50 SLP152 P0000 60000 T10501067 51018=
KWST 110253Z AUTO 36003KT 7SM CLR 01/M01 A3015 RMK AO2 SLP209
     T00061006 56008=
KABR 110253Z AUTO 22005KT 10SM CLR M06/M08 A2979 RMK AO2 SLP108
     T10561078 50004=
KAMW 110253Z AUTO 35014KT 2SM BR OVC004 01/M01 A2937 RMK AO2
     SLP951 T00061011 58014=


098 
SAUS70 KWBC 110300 RRP
METAR
KLUM 110255Z AUTO 01010KT 1 1/4SM -SN M01/M01 A2960 RMK AO2 60004
     T10061010=
KLWM 110254Z 04004KT 10SM OVC018 00/M04 A3020 RMK AO2 SLP228
     T00001039 56002=
KMOT 110254Z 23012KT 10SM CLR M04/M11 A2971 RMK AO2 SLP089
     T10391106 55002=
KMPZ 110255Z AUTO 18008KT 5SM BR CLR 13/13 A2927 RMK AO2=
KMQJ 110255Z AUTO 15011G17KT 2 1/2SM OVC003 14/14 A2959 RMK
     AO1=
KTOB 110255Z AUTO 02021G25KT 2SM M02/M03 A2948 RMK AO2 PWINO=
KDTW 110253Z 12005KT 2SM RA BR BKN008 OVC016 09/08 A2968 RMK AO2
     TWR VIS 2 1/2 SLP052 P0034 60040 T00890078 56052=
KENW 110253Z 10004KT 1 1/4SM +RA BR OVC003 08/07 A2938 RMK AO2
     SLP952 P0010 60023 T00780067 58070=
KHEI 110253Z AUTO 28006KT 10SM CLR M07/M11 A2979 RMK AO2 SLP124
     T10671111 51005=
KHLG 110253Z 12003KT 6SM -RA BR SCT020 BKN028 OVC080 12/10 A2985
     RMK AO2 RAB13 SLP113 P0003 60003 T01170100 58022=
KHYR 110253Z AUTO 02009KT 3/4SM -SN BR VV009 M03/M04 A2969 RMK AO2
     SLP075 P0005 60008 T10281044 58020=
KMHE 110253Z AUTO 10SM BKN055 OVC070 M02/M03 A2982 RMK AO2 SNE43
     SLP113 P0000 60000 T10171028 50003=
KMNN 110253Z AUTO 17015KT 7SM BKN008 OVC015 12/11 A2973 RMK AO2
     CIG 007V012 SLP071 60006 T01220111 56025 $=
KOSH 110253Z 07009G17KT 4SM RA BR OVC007 01/01 A2946 RMK AO2
     SLP987 P0004 60020 T00110006 58057=
KPHD 110253Z AUTO 15005KT 10SM BKN024 BKN040 11/09 A2981 RMK AO2
     RAE39 SLP098 P0003 60003 T01110094 58032=
KPIR 110253Z AUTO 27010KT 10SM BKN100 M02/M04 A2982 RMK AO2 SLP118
     T10221044 50007=
KSEG 110253Z AUTO 00000KT 10SM OVC041 07/01 A3008 RMK AO2 SLP187
     T00670011 58006=
KGUP 110253Z AUTO 01008KT 10SM CLR M04/M10 A3015 RMK AO2 SLP240
     T10391100 51030=
KHIO 110253Z 18009KT 10SM BKN018 OVC041 07/05 A3004 RMK AO2 RAE50
     SLP176 P0001 60003 T00670050 58020=
KHRI 110253Z AUTO 19007KT 10SM SCT080 SCT110 07/00 A3005 RMK AO2
     SLP180 T00670000 56019=
KINK 110253Z AUTO 28014KT 10SM CLR 16/02 A2993 RMK AO2 SLP106
     T01610022 51027=
KMLS 110253Z AUTO 22009KT 10SM CLR M06/M09 A2981 RMK AO2 SLP131
     T10561094 58001=
KMWL 110253Z AUTO 25006KT 10SM SCT040 BKN120 22/04 A2974 RMK AO2
     SLP059 T02170044 51026=
KPDT 110253Z 18009KT 10SM FEW055 OVC070 04/M01 A3006 RMK AO2
     SLP182 T00441011 58015=
KSHR 110253Z AUTO 21004KT 10SM CLR M07/M14 A2984 RMK AO2 SLP154
     T10721139 50000=
KSMF 110253Z 00000KT 10SM CLR 06/01 A3022 RMK AO2 SLP233 T00610006
     51009=
KSSF 110253Z 00000KT 8SM CLR 22/18 A2977 RMK AO2 SLP071 T02170178
     53019=
K1NW 110256Z AUTO 32010KT 10SM CLR M06/M11 A2990 RMK AO2 PK WND
     34026/07 SLP164 T10641112 52029 $=
KAPC 110254Z 14004KT 10SM CLR 03/00 A3024 RMK AO2 SLP229 T00330000
     51012=
KBFL 110254Z 01005KT 8SM CLR 09/04 A3023 RMK AO2 SLP237 T00890044
     53015=
KBVU 110255Z AUTO 02010KT 10SM CLR 08/M14 A3025 RMK AO2=
KBXK 110255Z AUTO 34005KT 10SM 13/02 A3013 RMK A01=
KGFA 110256Z AUTO 23021KT 10SM BKN190 M02/M12 A2975 RMK AO2 PK WND
     22027/37 SLP128 T10171119 58009 $=
KLOL 110253Z AUTO 33003KT 10SM CLR M03/M07 A3022 RMK AO2 SLP273
     T10281067 50003=
KLWT 110254Z AUTO 23016KT 10SM CLR M06/M13 A2974 RMK AO2 SLP117
     T10611128 58003=
KMAN 110255Z AUTO 13007KT 10SM 02/M00 A3018 RMK A01=
KSLC 110254Z 12005KT 10SM FEW050 SCT075 M03/M08 A3023 RMK AO2
     SLP263 T10281083 51016 $=
KSNK 110255Z AUTO 25016KT 10SM CLR 18/00 A2988 RMK AO2
     T01791002=
KTAD 110254Z AUTO 32009G20KT 10SM CLR M03/M18 A2996 RMK AO2 PK WND
     30034/0156 SLP143 T10331183 51044=
KCCY 110255Z AUTO 4SM BR OVC006 M01/M01 A2938 RMK AO2=


099 
SAUS70 KWBC 110300 RRM
METAR
KAMA 110253Z 34014KT 10SM CLR 03/M04 A2992 RMK AO2 SLP117
     T00281044 51068=
KAPA 110253Z 31015G22KT 10SM FEW080 FEW100 M06/M17 A2992 RMK AO2
     PK WND 29027/0207 SLP176 T10561167 51030=
KBFI 110253Z 16015G26KT 8SM -RA BKN023 OVC040 07/03 A2988 RMK AO2
     PK WND 18028/0224 RAB34 SLP119 P0000 60000 T00720033
     58037=
KCNO 110253Z 00000KT 10SM CLR 11/06 A3016 RMK AO2 SLP215 T01060056
     51014=
KCRS 110253Z AUTO 19008KT 10SM CLR 23/19 A2974 RMK AO2 SLP068
     T02280194 53019=
KCXO 110253Z AUTO 20012G20KT 10SM CLR 24/21 A2981 RMK AO2 SLP092
     T02440211 51015=
KDEN 110253Z 29014KT 10SM FEW250 M04/M16 A2992 RMK AO2 SLP154
     T10391161 51028=
KLVJ 110253Z AUTO 18008KT 8SM SCT014 BKN018 OVC046 25/23 A2984 RMK
     AO2 SLP104 T02500228 53013=
KMAE 110253Z AUTO 00000KT 10SM CLR 06/04 A3025 RMK AO2 SLP245
     T00610044 53018=
KMFE 110253Z 16013G25KT 9SM SCT014 25/23 A2979 RMK AO2 SLP085
     T02500228 51023=
KSAC 110253Z 00000KT 10SM CLR 05/01 A3023 RMK AO2 SLP236 T00500011
     52010=
KVCB 110253Z AUTO 26003KT 10SM CLR 05/01 A3024 RMK AO2 SLP241
     T00500006 51013=
KVEL 110253Z AUTO 00000KT 10SM CLR M13/M15 A3013 RMK AO2 SLP259
     T11281150 53027=
KWVI 110253Z AUTO 35005KT 10SM CLR 07/05 A3023 RMK AO2 SLP238
     T00670050 51015=
KACK 110253Z 16005KT 10SM FEW070 09/08 A3017 RMK AO2 SLP215
     T00940078 55007=
KAGC 110253Z 17005KT 10SM SCT036 SCT075 BKN090 12/07 A2989 RMK AO2
     SLP127 T01220072 58015=
KAIA 110253Z AUTO 31006KT 10SM FEW040 BKN110 M07/M08 A2987 RMK AO2
     SNE37 SLP154 P0000 60000 T10671078 51024=
KAUG 110253Z AUTO 00000KT 8SM OVC047 M06/M08 A3020 RMK AO2 SLP234
     T10561078 58001=
KAXN 110253Z AUTO 28003KT 7SM OVC070 M04/M04 A2974 RMK AO2 SLP095
     T10391044 58007=
KAZO 110253Z 14008G19KT 4SM BR OVC004 11/09 A2949 RMK AO2 RAE27
     PRESFR SLP988 P0000 60021 T01110094 58059=
KBDE 110253Z AUTO 16003KT 10SM CLR M09/M11 A2971 RMK AO2 SLP083
     T10891111 56010=
KBGM 110253Z 12006KT 10SM BKN043 BKN050 01/M02 A3001 RMK AO2
     SLP177 T00111017 58010=
KBKL 110253Z 16013G21KT 10SM FEW100 SCT120 13/08 A2972 RMK AO2 PK
     WND 16026/0224 RAB04E21 SLP064 P0000 60000 T01330083
     58048=
KMCK 110253Z AUTO 31011KT 10SM FEW075 BKN100 M03/M06 A2987 RMK AO2
     SLP138 T10331056 53042=
KUUU 110253Z AUTO 32003KT 7SM OVC024 05/04 A3015 RMK AO2 SLP210
     T00500044 56003=
KXWA 110251Z AUTO 26008KT 10SM CLR M10/M14 A2972 RMK AO2 SLP118
     T11001144 58001=
KYIP 110253Z 11006KT 3SM -RA SCT005 OVC011 09/07 A2967 RMK AO2 CIG
     008V013 SLP047 P0024 60032 T00940067 56052 $=
KDUJ 110253Z AUTO 13010KT 10SM FEW026 BKN032 BKN120 07/01 A2991
     RMK AO2 SLP136 T00720006 58021=
KGRI 110253Z AUTO 34025G31KT 4SM -SN SCT014 OVC029 M02/M04 A2975
     RMK AO2 PK WND 35031/0252 SLP095 P0000 60004 T10171044
     51032=
KHAO 110253Z AUTO VRB04KT 5SM BR OVC004 14/14 A2970 RMK AO2 LTG
     DSNT W PRESFR SLP059 T01440139 58036=
KMGY 110253Z AUTO 16010KT 1 1/2SM BR OVC002 15/14 A2971 RMK AO2
     RAB02E11 SLP058 P0000 60000 T01500139 58027=
KMIE 110253Z 18012G19KT 3SM -RA BR OVC003 16/13 A2959 RMK AO2
     RAB42 SLP016 P0000 60000 T01560133 58041=
KMTO 110253Z AUTO 17018G27KT 7SM BKN004 OVC012 17/16 A2945 RMK AO2
     PK WND 20027/0159 LTG DSNT NW CIG 003V008 SLP970 60001
     T01720161 58040=
KOVS 110253Z AUTO 04005KT 6SM -RA BR OVC009 02/01 A2940 RMK AO2
     RAE21B28UPB21E28 SLP960 P0002 60007 T00220006 56053=
KOXB 110253Z AUTO 00000KT 7SM OVC007 11/11 A3011 RMK AO2 CIG
     003V009 SLP196 60002 T01110106 55007=


100 
SAUS70 KWBC 110300 RRT
METAR
KGWR 110255Z AUTO 22006KT 10SM CLR M06/M06 A2977 RMK A01=
KHCO 110255Z AUTO 00000KT 10SM CLR M12/M13 A2972 RMK AO2=
KHZE 110255Z AUTO 23007KT 10SM SCT013 OVC080 M07/M09 A2979 RMK
     AO2=
KI69 110255Z AUTO 18008KT 150V220 10SM OVC008 15/14 A2975 RMK AO2
     T01500141=
KLAF 110254Z 16011G22KT 6SM BR OVC004 15/14 A2943 RMK AO2 PK WND
     17029/0230 RAE0157 SLP965 P0000 60000 T01500144 58070=
KSAZ 110255Z AUTO 00000KT 10SM M04/M06 A2974 RMK AO2=
KVAY 110254Z AUTO 00000KT 10SM -RA OVC049 07/04 A3013 RMK AO2
     RAB46 SLP203 P0000 60000 T00720039 56003=
KVLL 110255Z AUTO 10006KT 1 3/4SM UP OVC006 07/06 A2971 RMK AO2
     T00650059=
KVTA 110254Z AUTO 16006KT 10SM OVC012 13/11 A2978 RMK AO2 SLP085
     60008 T01330106 56029=
KVVV 110255Z AUTO 29004KT 10SM OVC085 M03/M04 A2977 RMK AO2=
KY19 110255Z AUTO 27009KT 10SM CLR M08/M09 A2977 RMK AO2=
K14Y 110255Z AUTO 00000KT 7SM SCT005 M03/M04 A2975 RMK AO2=
KCNC 110255Z AUTO 31013G18KT M1/4SM FG OVC002 04/04 A2933 RMK
     AO2=
KCOQ 110255Z AUTO 00000KT 10SM BKN065 OVC075 M04/M07 A2970 RMK AO2
     TSNO=
KCSQ 110255Z AUTO 32015KT 2 1/2SM BR OVC003 00/00 A2939 RMK
     AO2=
KD25 110255Z AUTO 02005KT 3/4SM SN OVC007 M03/M03 A2966 RMK AO2
     P0003 60004 T10351035=
KFOK 110253Z 00000KT 10SM CLR M01/M01 A3015 RMK AO2 SLP210
     T10061011 58007=
KICL 110255Z AUTO 33012G24KT 9SM OVC008 01/01 A2949 RMK AO2=
KIMT 110254Z AUTO 05011G15KT 1/2SM SN FZFG VV005 M01/M03 A2963 RMK
     AO2 PRESFR SLP050 P0005 60012 T10111033 58043=
KIZG 110254Z AUTO 00000KT 10SM OVC046 M04/M07 A3018 RMK AO2 SLP229
     T10441072 50001=
KJST 110254Z AUTO 16005KT 10SM SCT110 07/01 A2994 RMK AO2 SLP148
     T00720011 58014=
KMWM 110255Z AUTO 34022G28KT 1 3/4SM -SN BKN004 BKN009 M03/M04
     A2962 RMK AO2=
KOLZ 110255Z AUTO 05018KT 3SM BR OVC004 00/00 A2932 RMK A01=
KPEA 110255Z AUTO 32011KT 1SM BR OVC002 04/ A2932 RMK AO2
     T0040////=
KPLN 110254Z AUTO 10011KT 10SM BKN023 OVC046 02/M02 A2975 RMK AO2
     PRESFR SLP080 T00171017 58042=
KRUG 110255Z AUTO 24011KT 10SM CLR M12/M13 A2972 RMK AO2=
KRZT 110255Z AUTO 17006KT 10SM SCT008 OVC013 12/12 A2977 RMK AO2
     PWINO=
KSDC 110255Z AUTO 14004KT 10SM CLR 04/00 A2998 RMK AO2=
KVNW 110255Z AUTO RMK AO2 PWINO=
K5H4 110255Z AUTO 23008KT 10SM FEW090 M12/M14 A2975 RMK AO2=
KAKR 110254Z AUTO 17009KT 10SM BKN110 13/09 A2975 RMK AO2 RAE45
     SLP076 P0000 60000 T01280089 58034=
KCFE 110255Z AUTO 36017KT 3/4SM -SN BR OVC003 M02/M03 A2969 RMK
     AO2=
KCFJ 110255Z AUTO 14013G22KT 3SM BR OVC003 14/14 A2946 RMK AO2 LTG
     DSNT SE 60001 T01350135=
KD60 110255Z AUTO 26012KT 10SM CLR M10/M12 A2972 RMK AO2=
KDDH 110254Z AUTO 00000KT 10SM SCT055 M01/M02 A3011 RMK AO2 SLP206
     T10111022 55002=
KFGN 110255Z AUTO 18003KT 10SM CLR M09/M12 A2970 RMK AO2=
KGED 110254Z AUTO 00000KT 7SM OVC007 10/09 A3010 RMK AO2 SLP194
     60004 T01000089 56008=
KJMR 110255Z AUTO 36004KT 4SM +RA OVC008 M03/M03 A2974 RMK AO2
     P0002=
KOXD 110255Z AUTO 15010KT 1/4SM HZ OVC002 14/10 A2967 RMK AO2 LTG
     DSNT SW AND W 60011 T01430095 P0004=
KPNE 110254Z 00000KT 10SM OVC050 08/02 A3014 RMK AO2 SLP208
     T00780017 55002=
KPSF 110254Z AUTO 00000KT 8SM BKN048 M02/M04 A3010 RMK AO2 SLP202
     I1000 I3000 T10221039 58004=
KRNH 110255Z AUTO 02012G16KT 1SM SN VV007 M02/M03 A2964 RMK AO2
     T10201031=
K1MW 110256Z AUTO 32017KT 10SM CLR M05/M10 A2991 RMK AO2 PK WND
     33028/0158 SLP170 T10551099 52033 $=
KCMR 110255Z AUTO 16004KT 10SM CLR M07/M10 A3015 RMK AO2=
KCVH 110255Z AUTO 00000KT 10SM CLR 06/01 A3024 RMK A01=


102 
SAUS70 KWBC 110300 RRJ
METAR
KASX 110253Z AUTO 01006KT 1SM -SN BR VV016 M02/M04 A2974 RMK AO2
     SNB18 SLP085 P0001 60001 T10171039 58001=
KBFD 110253Z AUTO 13007KT 10SM FEW038 05/00 A2990 RMK AO2 SLP137
     T00500000 58027=
KDET 110253Z 12009KT 2 1/2SM RA BR BKN016 OVC025 08/06 A2970 RMK
     AO2 SLP059 P0013 60013 T00830061 56050=
KDKK 110253Z AUTO 13010KT 10SM CLR 08/03 A2986 RMK AO2 SLP115
     T00830028 58028=
KELM 110253Z 05003KT 10SM BKN055 03/00 A3000 RMK AO2 PRESFR SLP166
     T00280000 58019=
KGSH 110253Z AUTO 14014G22KT 2 1/2SM BR OVC003 12/11 A2946 RMK AO2
     RAE0154B17E40 PRESFR SLP978 P0001 60004 T01220111 58070=
KHZY 110253Z AUTO 15009KT 10SM -RA BKN021 OVC046 12/05 A2980 RMK
     AO2 RAB52 PRESFR SLP093 P0000 60000 T01170050 58038=
KLHQ 110253Z AUTO 14009KT 10SM OVC008 13/12 A2978 RMK AO2 SLP083
     60007 T01280117 56024=
KMCW 110253Z AUTO 02020G28KT 3/4SM BR SCT007 OVC012 M02/M04 A2942
     RMK AO2 PK WND 02032/0238 SNEMM SLP971 P0001 60008 I3002
     T10221039 58026 PWINO FZRANO $=
KOSU 110253Z 14008KT 4SM BR OVC007 13/12 A2975 RMK AO2 RAE19B40E50
     CIG 004V009 SLP074 P0000 60008 T01280117 58035=
KPOU 110253Z AUTO 00000KT 7SM OVC060 01/M01 A3011 RMK AO2 PRESFR
     SLP194 T00111011 58009=
KSTP 110253Z 01012G21KT 3/4SM -SN VV009 00/M03 A2965 RMK AO2
     SLP045 P0000 60000 T00001028 58023 RVRNO=
KAFW 110253Z 27012KT 9SM SCT030 SCT110 SCT220 24/05 A2970 RMK AO2
     SLP047 T02390050 51024=
KBMQ 110253Z AUTO 00000KT 10SM CLR 19/16 A2981 RMK AO2 SLP081
     T01890161 51022 TSNO=
KCCR 110253Z 12005KT 10SM CLR 08/01 A3024 RMK AO2 SLP225 T00780006
     53012=
KCEZ 110253Z AUTO 11004KT 10SM CLR M07/M11 A3016 RMK AO2 SLP235
     T10671106 51029=
KCNM 110253Z AUTO 10SM CLR 14/00 A2993 RMK AO2 SLP102 T01390000
     53021 $=
KLVK 110253Z 00000KT 10SM CLR 06/00 A3024 RMK AO2 SLP241 T00610000
     53015=
KMFR 110253Z 18004KT 10SM FEW120 05/01 A3019 RMK AO2 SLP232
     T00500011 58003=
KRBG 110253Z AUTO 22004KT 10SM FEW110 07/03 A3015 RMK AO2 SLP214
     T00720028 58015=
KSDL 110253Z 00000KT 10SM CLR 14/06 A3012 RMK AO2 SLP191 T01390056
     51016=
KVGT 110253Z 06005KT 10SM CLR 09/M11 A3025 RMK AO2 SLP265
     T00891111 51025=
KVUO 110253Z AUTO 17006KT 10SM OVC027 08/04 A3006 RMK AO2 SLP178
     60000 T00780039 58020=
KALW 110253Z AUTO 17014KT 10SM OVC070 05/M01 A3006 RMK AO2 SLP186
     60000 T00501006 58010=
KASE 110253Z AUTO 01005KT 4SM -SN BR OVC016 M12/M14 A3002 RMK AO2
     UPE06SNB06 SLP196 P0000 60000 T11171139 51025=
KBLI 110253Z 16019G39KT 10SM OVC020 07/04 A2976 RMK AO2 PK WND
     14039/0247 RAB02E41 SLP086 P0000 60000 T00720039 58046=
KBTM 110253Z AUTO 12007KT 10SM FEW047 OVC055 M05/M14 A2991 RMK AO2
     SLP195 T10501139 51006=
KBYI 110253Z AUTO 24010KT 10SM BKN060 M02/M08 A3016 RMK AO2 SLP240
     T10221078 51010=
KCDC 110253Z AUTO 35005KT 10SM CLR M12/M16 A3022 RMK AO2 SLP287
     T11221156 53016=
KCLM 110253Z AUTO VRB04KT 7SM -RA OVC036 05/03 A2974 RMK AO2
     SLP073 P0003 60006 T00500033 58041=
KDEW 110253Z AUTO 16006KT 10SM OVC065 00/M02 A2997 RMK AO2 SNE13
     SLP170 P0000 60000 T00001022 58009=
KMAF 110253Z 26009KT 10SM CLR 15/01 A2992 RMK AO2 SLP103 T01500006
     51029=
KRXE 110253Z AUTO 18010KT 10SM CLR M06/M12 A3005 RMK AO2 SLP227
     T10611122 53009=
KSBA 110253Z 00000KT 10SM CLR 09/04 A3017 RMK AO2 SLP215 T00940044
     53016 $=
KUTS 110253Z AUTO 19013G21KT 10SM FEW019 26/21 A2979 RMK AO2
     SLP082 T02560206 53012=
KWRL 110253Z AUTO 00000KT 10SM CLR M15/M18 A2989 RMK AO2 SLP193
     T11501178 50007=


104 
SAUS70 KWBC 110300 RRK
METAR
KAOH 110253Z AUTO 18013G21KT 5SM BR OVC004 13/12 A2968 RMK AO2
     SLP050 60001 T01280117 58034=
KARB 110253Z AUTO 14004KT 2 1/2SM RA BR BKN004 OVC008 08/07 A2965
     RMK AO2 SLP045 P0022 60035 T00780072 58050=
KATY 110253Z AUTO 28005KT 10SM OVC080 M03/M04 A2976 RMK AO2 SLP098
     T10281039 50002=
KBAF 110253Z 36003KT 10SM CLR M02/M03 A3016 RMK AO2 SLP221
     T10171033 51001=
KBBW 110253Z AUTO 33015G22KT 9SM -SN SCT014 OVC038 M03/M05 A2980
     RMK AO2 PK WND 32026/0233 SLP117 P0000 60000 T10281050
     51027=
KBRL 110253Z AUTO 21007KT 6SM BR CLR 14/13 A2928 RMK AO2 SLP915
     60004 T01390133 56029=
KCDW 110253Z 00000KT 10SM SCT060 BKN080 06/00 A3013 RMK AO2 SLP208
     T00560000 58010=
KCMI 110253Z 17023G31KT 4SM RA BR OVC004 17/16 A2942 RMK AO2 PK
     WND 15034/0212 LTG DSNT ALQDS RAB44 SLP961 P0001 60001
     T01670156 56065=
KGKJ 110253Z AUTO 16004KT 10SM OVC019 10/04 A2984 RMK AO2 SLP109
     T01000039 58027=
KMDW 110253Z 17009G20KT 7SM -RA OVC006 13/11 A2934 RMK AO2
     RAE13B52 SLP938 P0000 60016 T01330111 58079=
KRME 110253Z AUTO 11005KT 10SM BKN050 01/M02 A3008 RMK AO2 SLP191
     T00061017 58003=
KRWF 110253Z AUTO 36015G24KT 1 1/4SM -SN BR SCT006 BKN011 OVC017
     M02/M03 A2970 RMK AO2 SLP071 P0000 60001 T10171028 58006=
KZZV 110253Z AUTO 16011KT 10SM BKN013 OVC018 12/11 A2981 RMK AO2
     RAE04 SLP093 P0000 60005 T01220111 58030=
KBYG 110253Z AUTO 23009KT 10SM CLR M10/M17 A2982 RMK AO2 SLP150
     T11001167 50001=
KCDS 110253Z AUTO 01023G29KT 10SM CLR 11/M03 A2986 RMK AO2 PK WND
     01029/0253 WSHFT 0208 SLP101 T01061028 53058=
KCOT 110253Z AUTO 12004KT 10SM CLR 24/15 A2976 RMK AO2 SLP070
     T02440150 53020=
KIPL 110253Z AUTO 01003KT 10SM CLR 16/03 A3015 RMK AO2 SLP209
     T01560028 51019=
KONT 110253Z 00000KT 10SM FEW027 11/04 A3015 RMK AO2 SLP212
     T01060044 51015=
KPIH 110253Z 23015KT 10SM CLR M04/M09 A3013 RMK AO2 SLP239
     T10391094 51011=
KRBD 110253Z AUTO 25007KT 10SM OVC038 24/08 A2972 RMK AO2 SLP058
     T02440078 51023=
KRIL 110253Z AUTO 12005KT 10SM CLR M11/M14 A3013 RMK AO2 SLP245
     T11061144 53026=
KRKP 110253Z AUTO 17008KT 5SM BR OVC008 24/23 A2980 RMK AO2 SLP092
     T02390228 51022=
KRNT 110253Z 17008G17KT 10SM OVC045 08/02 A2988 RMK AO2 SLP122
     60000 T00830022 58038=
KRTN 110253Z AUTO 34014G22KT 10SM CLR M04/M23 A2995 RMK AO2 SLP141
     60000 T10441228 51052=
KSFF 110253Z 20004KT 10SM OVC070 02/M01 A2999 RMK AO2 SLP171
     T00171011 58006=
KSNS 110253Z AUTO 26006KT 10SM CLR 10/04 A3023 RMK AO2 SLP247
     T01000044 51020=
KACV 110253Z AUTO 10003KT 10SM CLR 06/04 A3022 RMK AO2 SLP243
     T00560039 58004=
KAKO 110253Z AUTO 32018G24KT 10SM CLR M06/M10 A2989 RMK AO2 PK WND
     32028/0228 SLP162 T10611100 51039=
KAUS 110253Z 00000KT 10SM FEW250 20/19 A2979 RMK AO2 SLP079
     T02000189 53026=
KBOI 110253Z 13006KT 10SM OVC065 01/M04 A3018 RMK AO2 SLP243
     T00111039 53002=
KBRO 110253Z 17012KT 10SM OVC016 26/23 A2981 RMK AO2 SLP091
     T02610233 51017 $=
KBUR 110253Z 00000KT 10SM CLR 13/04 A3015 RMK AO2 SLP205 T01280044
     53020 $=
KCPR 110253Z 22010KT 10SM CLR M12/M16 A2988 RMK AO2 SLP177
     T11171156 51007=
KCYS 110253Z 30015G24KT 10SM CLR M07/M14 A2987 RMK AO2 PK WND
     30027/0230 SLP171 T10721144 51023 $=
KLVS 110253Z AUTO 30018G28KT 10SM CLR M05/M23 A2997 RMK AO2 PK WND
     30035/0155 SLP138 T10501233 53041=
KPAE 110253Z 16016G31KT 10SM -RA BKN013 OVC017 06/03 A2984 RMK AO2
     PK WND 15031/0244 SLP108 P0000 60000 T00610028 58037=
KPSP 110253Z 31006KT 10SM CLR 14/M02 A3018 RMK AO2 SLP220
     T01441022 51018=


105 
SAUS70 KWBC 110300 RRX
METAR
KWWD 110256Z AUTO 18006KT 6SM -RA BR FEW004 BKN018 OVC026 11/10
     A3012 RMK AO2 RAB51 SLP202 P0000 60001 T01060100 55006 $=
KY50 110256Z AUTO 06009KT OVC006 00/M01 A2948 RMK AO2 SLP990 P0005
     60008 T00001006 56059 PWINO FZRANO $=
KYKN 110256Z AUTO 32019G26KT 2SM -SN BR BKN009 OVC015 M02/M03
     A2976 RMK AO2 PK WND 32026/0250 CIG 007V010 SLP104 P0000
     60001 T10221028 51020 FZRANO=
PABV 110256Z AUTO 21009KT 10SM FEW029 OVC034 M05/M09 A2881 RMK AO2
     SLP762 60000 T10501089 51024 FZRANO=
PACM 110256Z AUTO 29027G33KT 10SM OVC019 M17/M19 A2989 RMK AO2 PK
     WND 30035/0158 SNE09 SLP117 6//// T11671194 53034 FZRANO PNO
     $=
PAFE 110256Z AUTO 11004KT 10SM SCT011 BKN060 OVC070 00/M01 A2898
     RMK AO2 UPB25E37 SLP824 P0002 60004 T00001011 56007 FZRANO
     $=
PAFM 110256Z AUTO 17003KT 10SM CLR M22/M24 A2933 RMK AO2 SLP945
     T12171239 53019 FZRANO=
PAGL 110256Z AUTO 33008G17KT 10SM FEW024 M22/M26 A2969 RMK AO2
     SLP050 T12171256 51034 PWINO FZRANO $=
PAGN 110256Z AUTO 00000KT 1SM -SN BR BKN006 OVC014 01/00 A2894 RMK
     AO2 UPB00E10SNE00B10 CIG 003V009 SLP791 P0002 60004 T00060000
     58007 FZRANO RVRNO=
PAHP 110256Z AUTO 33025G34KT 3SM -SN OVC020 M16/M19 A2987 RMK AO2
     PK WND 34036/0159 SNB0158 SLP116 P0000 60000 T11611189 53028
     FZRANO=
PAII 110256Z AUTO 31014KT 10SM OVC045 M08/M12 A2938 RMK AO2 SLP946
     60000 T10831122 51047 FZRANO=
PAKK 110256Z AUTO 32020G29KT 1 1/2SM -SN OVC007 M23/M26 A2952 RMK
     AO2 PK WND 32029/0254 CIG 005V010 SLP008 P0000 60000
     T12281256 53010 FZRANO=
PAKP 110256Z AUTO 07017G21KT 5SM -SN BKN043 BKN050 OVC085 M23/M27
     A2915 RMK AO2 SLP951 P0000 60000 T12331267 52011 FZRANO=
PANI 110256Z AUTO 31008KT 10SM OVC027 M17/M20 A2959 RMK AO2 SLP012
     T11671200 51038 FZRANO=
PANV 110256Z AUTO 31012G20KT 10SM FEW030 M18/M21 A2949 RMK AO2
     SLP116 60000 T11781206 51030 FZRANO TSNO=
PAOH 110256Z AUTO 10007KT 8SM -SN SCT019 BKN030 OVC070 M02/M02
     A2888 RMK AO2 SNB50 SLP778 P0000 60000 T10171022 55005
     FZRANO=
PASL 110256Z AUTO 9SM CLR M16/M18 A2940 RMK AO2 SNE56 SLPNO P0000
     6//// T11561183 FZRANO=
PAZK 110256Z AUTO 00000KT 6SM -SN BR OVC013 M12/M14 A2858 RMK AO2
     SLP750 P0000 60000 T11221139 53014 FZRANO=
PFCL 110256Z AUTO 31016KT 10SM CLR M10/M14 A2939 RMK AO2 SLP946
     T11001139 51047 FZRANO TSNO=
PFSH 110256Z AUTO 02023KT 10SM BKN050 OVC060 M21/M24 A2961 RMK AO2
     PK WND 02033/0211 SLP028 T12061239 53023 FZRANO=
PFWS 110256Z AUTO 34023G29KT 6SM HZ FEW025 OVC044 M09/M13 A2936
     RMK AO2 PK WND 34030/0244 SLP986 60000 T10941128 53028
     FZRANO=
PPIT 110256Z AUTO 33026G31KT 3SM -SN BKN018 A2969 RMK AO2 PK WND
     33035/0228 SLPNO P0000 60000 51027 FZRANO TSNO $=
PABL 110256Z AUTO 30025G34KT 3SM BR FEW020 M21/M23 A2954 RMK AO2
     PK WND 29034/0254 SNB05E28 SLP006 P0000 60000 T12061228 51022
     FZRANO=
PABV 110256Z AUTO 21009KT 10SM FEW029 OVC034 M05/M09 A2881 RMK AO2
     SLP762 60000 T10501089 51024 FZRANO=
PACM 110256Z AUTO 29027G33KT 10SM OVC019 M17/M19 A2989 RMK AO2 PK
     WND 30035/0158 SNE09 SLP117 6//// T11671194 53034 FZRANO PNO
     $=
PADL 110256Z 26008KT 10SM CLR M12/M14 A2938 RMK AO2 SLP954
     T11221144 51049 $=
PADM 110256Z AUTO 33014G18KT 10SM BKN022 M17/M20 A2970 RMK AO2
     SNB05E31 SLP063 P0000 60000 T11671200 53025 FZRANO=
PADU 110256Z 32024G40KT 10SM -SN BKN026 BKN049 00/M06 A3010 RMK
     AO2 PK WND 31040/0252 SLP199 OBS PK WND 32042/0209 6////
     T00001056 51042 PNO $=


106 
SAUS70 KWBC 110300 RRF
METAR
KTKX 110255Z AUTO 20016G27KT 9SM VCTS DZ FEW040 BKN055 OVC110
     23/21 A2957 RMK AO2 LTG DSNT ALQDS P0023=
KTME 110255Z AUTO 22012KT 6SM HZ BKN019 OVC028 25/23 A2984 RMK
     AO2=
KTNU 110255Z AUTO 12.79166713KT 3/4SM BR OVC002 02/02 A2931 RMK
     A01=
KTOB 110255Z AUTO 02021G25KT 2SM M02/M03 A2948 RMK AO2 PWINO=
KTPF 110255Z AUTO 12006KT 7SM SCT048 BKN085 OVC110 23/21 A3013 RMK
     AO2=
KTVY 110255Z AUTO 16008KT 10SM CLR M08/M10 A3024 RMK AO2=
KTWM 110255Z AUTO 34003KT 10SM BKN080 M04/M07 A2972 RMK AO2=
KUIN 110254Z AUTO 18010KT 10SM CLR 14/12 A2933 RMK AO2 SLP931
     60007 T01440122 56022 TSNO=
KUKT 110255Z AUTO 00000KT 10SM OVC044 06/02 A3011 RMK A01=
KULM 110255Z AUTO 36010G16KT BKN007 OVC012 M02/M03 A2964 RMK AO2
     PWINO=
KUOX 110255Z AUTO 19012G19KT 170V230 10SM FEW027 BKN034 OVC046
     22/20 A2977 RMK AO2 PWINO=
KUZA 110254Z AUTO 21005KT 2SM BR OVC002 11/11 A3011 RMK AO2 SLP196
     T01110106 58005=
KVAY 110254Z AUTO 00000KT 10SM -RA OVC049 07/04 A3013 RMK AO2
     RAB46 SLP203 P0000 60000 T00720039 56003=
KVDF 110255Z AUTO 00000KT 10SM SCT046 23/20 A3014 RMK AO2=
KVER 110255Z AUTO 23004KT 10SM OVC028 18/15 A2935 RMK AO2
     T01750149=
KVKS 110255Z AUTO 18010G17KT 10SM OVC026 24/21 A2983 RMK A01=
KVLL 110255Z AUTO 10006KT 1 3/4SM UP OVC006 07/06 A2971 RMK AO2
     T00650059=
KVNC 110255Z AUTO 07003KT 3SM BR BKN037 BKN043 21/21 A3012 RMK
     AO2=
KVNW 110255Z AUTO RMK AO2 PWINO=
KVSF 110254Z AUTO 00000KT 8SM CLR M02/M03 A3016 RMK AO2 SLP221
     T10171033 50000=
KVTA 110254Z AUTO 16006KT 10SM OVC012 13/11 A2978 RMK AO2 SLP085
     60008 T01330106 56029=
KVVV 110255Z AUTO 29004KT 10SM OVC085 M03/M04 A2977 RMK AO2=
KW81 110255Z AUTO 16004KT 10SM OVC012 11/07 A3007 RMK AO1
     T01130070=
KX60 110255Z AUTO 00000KT 2 1/2SM BR CLR 18/18 A3013 RMK AO2
     T01790177=
KY19 110255Z AUTO 27009KT 10SM CLR M08/M09 A2977 RMK AO2=
KY63 110255Z AUTO 26003KT 10SM OVC110 M04/M04 A2977 RMK AO2
     T10361036=
PAKN 110254Z 33018G28KT 6SM BLSN OVC044 M11/M13 A2929 RMK AO2 PK
     WND 33028/0250 SLP920 60000 T11061133 51045=
PAKN 110254Z 33018G28KT 6SM BLSN OVC044 M11/M13 A2929 RMK AO2 PK
     WND 33028/0250 SLP920 60000 T11061133 51045=
PASC 110253Z 26010KT 3SM BR OVC041 M23/M26 A2942 RMK AO2 SNE30
     SLP965 T12281261 53011 PNO=
K0E0 110255Z AUTO 31022G29KT 10SM CLR M01/M15 A3010 RMK AO2
     T10151154 TSNO=
K0V4 110255Z AUTO 16009KT 10SM OVC017 13/08 A3007 RMK AO1
     T01250081=
K4R5 110255Z AUTO 00000KT 10SM SCT028 BKN048 OVC060 00/M03 A2974
     RMK AO2 T00021031=
K6B0 110255Z AUTO 16003KT 10SM CLR 01/M01 A3012 RMK AO2
     T00101015=
K6S2 110255Z AUTO 14006KT 10SM OVC029 08/05 A3012 RMK AO2
     T00800045=
KAVC 110255Z AUTO 19004KT 10SM OVC015 11/08 A3014 RMK AO2
     T01100081=
KBBB 110256Z AUTO 36003KT 10SM SCT008 BKN065 M03/M03 A2976 RMK
     AO2=
KBCK 110255Z AUTO 03009KT 360V060 1/2SM -SN BKN003 M01/M01 A2949
     RMK AO2 P0005 60009 T10081015=
KBDH 110255Z AUTO 35008KT 3SM UP CLR M01/M03 A2976 RMK AO2
     P0001=
KBKT 110255Z AUTO 20005KT 10SM OVC016 12/09 A3008 RMK AO1
     T01200088=
KBVI 110255Z AUTO 14005KT 7SM RA SCT060 OVC080 12/08 A2987 RMK AO2
     T01220078=
KBYL 110255Z AUTO 13008KT 10SM OVC020 13/12 A2989 RMK AO1=
KCAD 110255Z AUTO 08016G21KT 3SM -SN OVC006 01/00 A2957 RMK AO2
     T00130000=
KCFS 110255Z AUTO 09012G19KT 3SM -RA 04/03 A2965 RMK AO2 SKY
     OBSCURED T00360028=
KCKN 110255Z AUTO 16005KT 10SM CLR M10/M11 A2976 RMK AO2 PWINO=
KCLS 110255Z AUTO 18012KT 160V220 10SM BKN015 BKN021 OVC028 07/06
     A2994 RMK AO2=


109 
SAUS70 KWBC 110300 RRC
METAR
KHOB 110255Z AUTO 24017G24KT 10SM OVC038 13/M01 A2992 RMK AO2=
KHVS 110255Z AUTO 00000KT 1/2SM FG OVC003 11/11 A3013 RMK AO2=
KHWD 110254Z 07004KT 10SM CLR 09/02 A3024 RMK AO2 SLP250 T00940022
     53014=
KHWY 110255Z AUTO 00000KT 10SM OVC023 08/07 A3006 RMK AO2
     T00800065=
KHXD 110255Z AUTO 16004KT 10SM BKN055 16/16 A3015 RMK AO2
     PWINO=
KHYW 110255Z AUTO 00000KT 4SM BR BKN020 OVC031 12/12 A3015 RMK AO2
     P0001=
KHYX 110255Z AUTO 11012KT 3SM -RA OVC007 05/03 A2963 RMK AO2
     T00450027=
KHZE 110255Z AUTO 23007KT 10SM SCT013 OVC080 M07/M09 A2979 RMK
     AO2=
KHZL 110255Z AUTO 13005KT 10SM OVC039 05/00 A3008 RMK AO2=
KHZX 110255Z AUTO 10SM OVC055 M04/M05 A2973 RMK AO2=
KI67 110255Z AUTO 18009KT 7SM OVC005 15/13 A2969 RMK AO1 P0001=
KI69 110255Z AUTO 18008KT 150V220 10SM OVC008 15/14 A2975 RMK AO2
     T01500141=
KICL 110255Z AUTO 33012G24KT 9SM OVC008 01/01 A2949 RMK AO2=
KIIB 110255Z AUTO 04011KT 4SM BR OVC006 03/03 A2932 RMK AO2 P0008
     T00260026=
KIKV 110255Z AUTO 35011G17KT 3/4SM BR OVC004 01/01 A2938 RMK
     AO2=
KILN 110254Z AUTO 18014G18KT 3SM BR OVC002 14/13 A2974 RMK AO2
     SLP076 60001 T01390133 58030 $=
KIMT 110254Z AUTO 05011G15KT 1/2SM SN FZFG VV005 M01/M03 A2963 RMK
     AO2 PRESFR SLP050 P0005 60012 T10111033 58043=
KIND 110254Z 14014KT 1/2SM R05L/P6000FT BR OVC002 14/14 A2955 RMK
     AO2 SFC VIS 2 LTG DSNT SE AND S RAE49 SLP004 P0003 60003
     T01390139 58051=
KINT 110254Z AUTO 19005KT 2SM BR OVC002 11/10 A3010 RMK AO2 SLP190
     T01110100 58006=
KIPT 110254Z 04004KT 10SM BKN050 OVC070 07/M01 A3005 RMK AO2
     SLP181 T00671011 58006=
KISW 110254Z AUTO 06009G21KT 3SM -SN BR OVC012 M01/M02 A2949 RMK
     AO2 PK WND 05026/0216 SLP998 P0000 60000 T10061017 58059=
KIXA 110255Z AUTO 00000KT 1/4SM FG OVC002 08/08 A3011 RMK AO2=
KIZG 110254Z AUTO 00000KT 10SM OVC046 M04/M07 A3018 RMK AO2 SLP229
     T10441072 50001=
KJAQ 110255Z AUTO 00000KT 10SM CLR 05/02 A3021 RMK AO1
     T00530020=
KJFX 110255Z AUTO 17007G14KT 140V220 10SM BKN015 BKN019 22/22
     A2989 RMK AO2 PWINO=
KJFZ 110255Z AUTO 15005KT 10SM SCT034 BKN049 OVC065 13/12 A2998
     RMK AO2 T01340118=
KJKJ 110255Z AUTO 00000KT 10SM CLR M06/M07 A2978 RMK AO2=
KJMR 110255Z AUTO 36004KT 4SM +RA OVC008 M03/M03 A2974 RMK AO2
     P0002=
KJST 110254Z AUTO 16005KT 10SM SCT110 07/01 A2994 RMK AO2 SLP148
     T00720011 58014=
KKY8 110255Z AUTO 16015G22KT 10SM FEW085 20/20 A2960 RMK A01
     P0001=
KL08 110255Z AUTO 00000KT 10SM FEW043 BKN050 BKN055 11/M02 A3015
     RMK AO2=
KL52 110255Z AUTO 36003KT 10SM CLR 11/02 A3019 RMK A01=
KLAF 110254Z 16011G22KT 6SM BR OVC004 15/14 A2943 RMK AO2 PK WND
     17029/0230 RAE0157 SLP965 P0000 60000 T01500144 58070=
KLBO 110255Z AUTO 20014G18KT 10SM SCT004 SCT010 18/15 A2947 RMK
     AO2 P0006 LTG DSNT SE=
KLDM 110255Z AUTO 10017G20KT 4SM -RA OVC007 02/01 A2949 RMK AO2
     60021 T00180007 P0009=
KLKR 110255Z AUTO 18003KT 1 3/4SM BR 11/11 A3011 RMK AO2=
KLKU 110255Z AUTO 18003KT 10SM OVC018 07/07 A3010 RMK AO2
     T00750072=
KLNK 110254Z 34023G34KT 2SM -SN FEW010 BKN025 OVC033 M01/M03 A2962
     RMK AO2 PK WND 32039/0241 SLP040 P0002 60005 T10061033
     53004=
KLNL 110255Z AUTO 04004KT 1/4SM SN OVC003 M03/M03 A2967 RMK AO2
     T10261035=
KLNP 110255Z AUTO 16006KT 10SM BKN023 OVC031 13/11 A2998 RMK
     AO2=
KLOL 110253Z AUTO 33003KT 10SM CLR M03/M07 A3022 RMK AO2 SLP273
     T10281067 50003=
KLRY 110255Z AUTO 31017G24KT 10SM CLR 08/02 A2948 RMK AO2=
KLSE 110253Z 35008KT 5SM -SN BR OVC014 00/M02 A2948 RMK AO2
     UPB38E45SNE38B46 SLP992 P0003 60015 T00001017 58024=


111 
SAUS70 KWBC 110300 RRO
METAR
TIST 110253Z AUTO 06013KT 10SM FEW075 BKN090 26/21 A2998 RMK AO2
     RAB08E29 SLP152 P0001 60001 T02560206 51004=
TISX 110253Z AUTO 06008KT 10SM FEW031 26/23 A2998 RMK AO2 SLP151
     T02560228 51004=
KDXR 110253Z 00000KT 10SM OVC060 03/00 A3014 RMK AO2 SLP208
     T00280000 58001=
KHUF 110253Z 16014KT 8SM BKN006 BKN011 BKN027 17/16 A2950 RMK AO2
     PK WND 13026/0210 RAE04 CIG 005V010 SLP990 P0000 60000
     T01720161 58056=
KICR 110253Z AUTO 28010KT 7SM -SN BKN042 OVC080 M02/M04 A2984 RMK
     AO2 UPB06E09SNE06B09 SLP128 P0000 60000 T10221044 50009=
KLBF 110253Z AUTO 33009KT 10SM OVC090 M03/M06 A2984 RMK AO2 UPE09
     SLP130 P0000 60001 T10331061 51023=
KLEB 110253Z 00000KT 10SM CLR M03/M06 A3014 RMK AO2 SLP219
     T10331061 58001=
KLNS 110253Z 09005KT 10SM OVC041 07/02 A3008 RMK AO2 SLP187
     T00720017 58007=
KMIW 110253Z AUTO 01014KT 1 1/2SM BR OVC003 01/M01 A2933 RMK AO2
     RAB0155E04 PRESFR SLP941 P0000 60000 T00061006 58012=
KMLT 110253Z AUTO 00000KT 10SM OVC049 M07/M08 A3018 RMK AO2 SLP235
     T10671083 50001 TSNO=
KMMK 110253Z AUTO 30003KT 10SM BKN060 00/M02 A3014 RMK AO2 SLP209
     T00001017 58002=
KMSP 110253Z 02014G25KT 3/4SM R30L/P6000FT -SN BR VV007 M02/M03
     A2963 RMK AO2 SLP044 SNINCR 1/9 P0006 60027 T10171033
     58024=
KSMQ 110253Z AUTO 00000KT 10SM BKN060 OVC085 04/02 A3011 RMK AO2
     SLP198 T00390017 56007=
KSPW 110253Z AUTO 36022G32KT 1SM HZ BKN012 OVC018 M01/M04 A2955
     RMK AO2 PK WND 36032/0247 SLP020 60003 T10111039 57009 PWINO
     FZRANO $=
KLFK 110253Z AUTO 17009G17KT 10SM SCT015 24/22 A2978 RMK AO2
     SLP081 T02390217 51004=
KLMT 110253Z 00000KT 10SM CLR M04/M08 A3015 RMK AO2 SLP242
     T10391083 55003=
KONO 110253Z AUTO 00000KT 10SM FEW075 02/M03 A3018 RMK AO2 SLP240
     T00171028 58001=
KDFW 110253Z 25006KT 10SM BKN035 BKN250 24/04 A2970 RMK AO2 SLP049
     T02440039 51023=
KEEO 110253Z AUTO 00000KT 10SM SCT055 M18/M19 A3009 RMK AO2 SLP267
     I3/// T11781189 $=
KHHR 110253Z 00000KT 10SM CLR 14/09 A3016 RMK AO2 SLP213 T01390089
     51019 $=
KHQM 110253Z AUTO 20019G30KT 3SM -RA BKN015 OVC020 10/07 A2987 RMK
     AO2 PK WND 20034/0155 RAE15B33 SLP119 P0002 60004 T01000072
     56024=
KITR 110253Z AUTO 32012KT 10SM CLR M04/M10 A2989 RMK AO2 SLP147
     T10441100 51047 TSNO=
KMLP 110253Z AUTO 24007KT 210V300 2SM -SN OVC007 M06/M09 A2985 RMK
     AO2 SLP165 P0001 60002 T10611089 53002 $=
KMMV 110253Z AUTO 19017G22KT 10SM FEW030 OVC042 08/04 A3005 RMK
     AO2 RAE26 SLP176 P0001 60001 T00830044 58021=
KSGR 110253Z 20010G20KT 10SM BKN022 BKN028 OVC039 27/22 A2982 RMK
     AO2 SLP099 T02670217 51018=
KSIY 110253Z AUTO 00000KT 10SM CLR 01/M04 A3019 RMK AO2 SLP255
     T00061044 56004=
KTCC 110253Z AUTO 32019G27KT 10SM CLR 06/M13 A2994 RMK AO2 PK WND
     30043/0159 PRESRR SLP120 T00561128 53070=
KAMN 110255Z AUTO 09008G16KT 2 1/2SM -SN OVC006 02/02 A2959 RMK
     AO2 T00200020=
KAUW 110254Z AUTO 02009G17KT 1 1/4SM -SN BR OVC014 M01/M03 A2951
     RMK AO2 SLP010 P0002 60009 T10061028 58054=
KAXV 110255Z AUTO 16012G17KT 5SM BR OVC003 12/12 A2967 RMK AO2=
KBAX 110255Z AUTO 09009G15KT 4SM -RA SCT007 BKN011 OVC024 04/04
     A2971 RMK AO2 T00360036=
KBNW 110255Z AUTO 36018G26KT 1 3/4SM -UP OVC004 M00/M00 A2939 RMK
     AO2=
KCBG 110255Z AUTO 35005KT 1 3/4SM -SN VV007 M02/M06 A2971 RMK
     AO2=
KCDA 110255Z AUTO 00000KT 10SM OVC048 M02/M04 A3014 RMK AO2
     T10171036=
KLNK 110254Z 34023G34KT 2SM -SN FEW010 BKN025 OVC033 M01/M03 A2962
     RMK AO2 PK WND 32039/0241 SLP040 P0002 60005 T10061033
     53004=


112 
SAUS70 KWBC 110300 RRN
METAR
KPBG 110253Z AUTO 00000KT 10SM OVC055 01/M02 A3009 RMK AO2 SLP194
     T00061022 58002=
KPTK 110253Z VRB03KT 2 1/2SM +RA BR BKN007 OVC012 06/04 A2969 RMK
     AO2 CIG 004V010 SLP060 P0012 60013 T00560044 56045=
KRAC 110253Z AUTO 12004KT 3/4SM RA BR VV002 07/07 A2940 RMK AO2
     RAE0154B01 SLP959 P0007 60023 T00720067 58072=
KDHT 110253Z AUTO 35013KT 10SM FEW045 BKN055 02/M05 A2999 RMK AO2
     SNB07E16 PRESRR SLP145 P0000 60000 T00221050 51069=
KDLN 110253Z AUTO 18006KT 10SM BKN060 M06/M16 A2996 RMK AO2 SLP206
     T10561156 51005=
KDTO 110253Z 27010KT 9SM OVC035 24/05 A2970 RMK AO2 SLP048
     T02390050 51022=
KGTF 110253Z 22019G28KT 10SM CLR M02/M13 A2973 RMK AO2 PK WND
     22028/0242 SLP121 T10221128 58010 $=
KHOU 110253Z 20009KT 10SM BKN016 OVC020 26/22 A2982 RMK AO2
     RAB0156E06 SLP104 P0000 60000 T02610222 53016=
KIDA 110253Z 20014KT 10SM CLR M04/M09 A3008 RMK AO2 SLP229
     T10441094 53011=
KJER 110253Z AUTO 17006KT 10SM OVC060 M02/M07 A3017 RMK AO2 SLP251
     T10221072 53005=
KLAR 110253Z AUTO 28012KT 10SM CLR M12/M17 A2985 RMK AO2 SLP172
     T11221172 51016=
KLGB 110253Z 00000KT 10SM CLR 13/08 A3015 RMK AO2 SLP211 T01280083
     53016=
KMOD 110253Z 00000KT 10SM CLR 09/01 A3024 RMK AO2 SLP238 T00940011
     53016=
KMYF 110253Z 32003KT 10SM CLR 13/08 A3013 RMK AO2 SLP203 T01280078
     50006=
KOGD 110253Z 16008KT 10SM CLR M04/M09 A3020 RMK AO2 SLP251
     T10391094 51014=
KPIL 110253Z AUTO 18013G21KT 10SM BKN015 BKN024 26/23 A2981 RMK
     AO2 PK WND 17028/0223 SLP092 T02560228 53019=
KPUB 110253Z 29014KT 10SM CLR M02/M14 A2996 RMK AO2 PK WND
     30027/0154 SLP156 T10171139 51042=
KBAF 110253Z 36003KT 10SM CLR M02/M03 A3016 RMK AO2 SLP221
     T10171033 51001=
KBUR 110253Z 00000KT 10SM CLR 13/04 A3015 RMK AO2 SLP205 T01280044
     53020 $=
KTOI 110253Z AUTO 17005KT 10SM BKN012 OVC019 23/19 A3004 RMK AO2
     SLP169 T02280194 51008=
TIST 110253Z AUTO 06013KT 10SM FEW075 BKN090 26/21 A2998 RMK AO2
     RAB08E29 SLP152 P0001 60001 T02560206 51004=
TISX 110253Z AUTO 06008KT 10SM FEW031 26/23 A2998 RMK AO2 SLP151
     T02560228 51004=
KDGW 110253Z AUTO 32006KT 10SM CLR M14/M17 A2990 RMK AO2 SLP194
     I1000 I3000 T11441172 51013=
KDRO 110253Z AUTO 30003KT 10SM CLR M09/M13 A3010 RMK AO2 SLP242
     T10941133 51033 $=
KDWH 110253Z AUTO 20011G19KT 10SM BKN024 OVC055 26/22 A2982 RMK
     AO2 SLP095 T02560217 53019=
KEFD 110250Z 18011KT 7SM SCT012 BKN028 OVC047 24/22 A2983=
KELN 110253Z AUTO 08005KT 10SM BKN080 01/M03 A2991 RMK AO2 SLP146
     T00061033 58022 $=
KIAH 110253Z 21007KT 10SM FEW012 BKN022 OVC050 26/22 A2983 RMK AO2
     RAB23E35 SLP099 P0000 60000 T02610217 51022=
KLBX 110253Z AUTO 19010KT 8SM FEW017 FEW025 OVC039 24/22 A2982 RMK
     AO2 SLP098 T02440222 51012=
KODO 110253Z AUTO 28009KT 10SM CLR 16/ A2993 RMK AO2 SLP106 T0156
     51027 $=
KPMD 110253Z 07005KT 10SM CLR 04/M04 A3019 RMK AO2 SLP233
     T00391039 53016=
KPRC 110253Z 26004KT 10SM CLR M01/M06 A3016 RMK AO2 SLP214
     T10111061 51019=
KPSC 110253Z 16007KT 10SM OVC085 07/00 A3004 RMK AO2 SLP177
     T00720000 58015=
KPUC 110253Z AUTO 03005KT 10SM CLR M09/M13 A3015 RMK AO2 SLP279
     T10891133 51023=
KBRO 110253Z 17012KT 10SM OVC016 26/23 A2981 RMK AO2 SLP091
     T02610233 51017 $=
KFLL 110253Z 11005KT 10SM FEW023 25/22 A3012 RMK AO2 SLP198
     T02500222 50006=
KJFK 110251Z 06004KT 10SM BKN070 BKN250 06/03 A3012 RMK AO2 SLP199
     T00610028 58010=
KMCO 110253Z 10005KT 10SM CLR 22/19 A3014 RMK AO2 SLP205 T02170194
     50005=
KPBI 110253Z 08004KT 10SM SCT020 24/21 A3014 RMK AO2 SLP205
     T02390206 51004=


113 
SAUS80 KWBC 110300
METAR
K9MN 110255Z AUTO 01011G19KT 300V040 1SM OVC005 M02/M02 A2949 RMK
     AO1 60011 T10171018 P0003=
KAID 110255Z AUTO 16010KT 1 1/4SM -DZ OVC002 14/13 A2959 RMK AO2
     LTG DSNT SE AND S P0001 60001 T01380128=
KAKQ 110254Z AUTO 00000KT 1SM -RA BR VV003 11/11 A3010 RMK AO2
     RAB26 SLP195 P0000 60000 T01060106 57007=
KAPN 110254Z AUTO 09009G15KT 10SM OVC018 03/01 A2976 RMK AO2
     PRESFR SLP086 T00330006 58045=
KAVP 110254Z 00000KT 10SM BKN047 OVC060 06/M01 A3006 RMK AO2
     SLP183 T00561006 55011=
KBTV 110254Z 10004KT 10SM OVC055 02/M02 A3010 RMK AO2 SLP198
     T00171022 $=
KBUF 110254Z 12009KT 10SM FEW045 OVC150 07/02 A2988 RMK AO2 SLP125
     T00670022 58036=
KCAR 110254Z AUTO 17005KT 10SM BKN025 OVC032 M07/M09 A3012 RMK AO2
     SLP217 T10671094 58004=
KCKP 110255Z AUTO 35016G20KT 1 3/4SM -SN BKN009 OVC013 M02/M02
     A2957 RMK AO2 T10221025=
KCOS 110254Z 29014G18KT 10SM FEW200 M04/M22 A2992 RMK AO2 SLP167
     T10391217 51042=
KCOU 110254Z 19011KT 10SM CLR 16/13 A2937 RMK AO2 SLP944 60030
     T01560133 58004=
KCRW 110254Z 15004KT 10SM SCT027 BKN055 OVC080 16/13 A2986 RMK AO2
     SLP109 OVC V BKN T01610128 58021=
KDSM 110254Z 34012KT 3/4SM R31/P6000FT -DZ BR OVC002 01/01 A2936
     RMK AO2 TWR VIS 1 SLP951 PCPN VRY LGT P0000 60000 T00060006
     58009 $=
KELY 110253Z AUTO 17011KT 10SM CLR M15/M17 A3020 RMK AO2 SLP306
     T11501167 51010=
KFWA 110254Z 15015G21KT 3SM -RA BR OVC005 12/12 A2956 RMK AO2
     DZB27E46RAB46 PRESFR SLP012 P0001 60001 T01220122 58050 $=
KGSO 110254Z 20006KT 2 1/2SM BR OVC003 11/11 A3009 RMK AO2 SLP187
     60000 T01110106 58003=
KINL 110254Z AUTO 00000KT 10SM CLR M08/M09 A2972 RMK AO2 SLP089
     T10831094 56010 $=
KJAN 110254Z 18011G21KT 10SM FEW024 SCT029 BKN036 23/19 A2988 RMK
     AO2 SLP115 T02330194 50006=
KJNX 110255Z AUTO 00000KT 5SM BR BKN024 OVC030 11/10 A3012 RMK
     AO2=
KLEX 110254Z 18017G23KT 10SM OVC012 16/14 A2976 RMK AO2 SLP075
     T01560139 58024=
KLYH 110254Z 20004KT 10SM OVC013 12/08 A3007 RMK AO2 SLP181
     T01170083 55007=
KLYV 110255Z AUTO 35014G19KT OVC008 M02/M04 A2969 RMK AO2
     PWINO=
KMVL 110254Z AUTO 00000KT 10SM OVC050 M02/M03 A3014 RMK AO2 SLP218
     T10221033 53004=
KORH 110254Z 00000KT 10SM FEW050 02/M03 A3013 RMK AO2 SLP216
     T00171028 58003=
KPIA 110254Z 21018G29KT 10SM -RA SCT022 SCT048 BKN080 15/12 A2934
     RMK AO2 PK WND 20034/0236 LTG DSNT E AND SE TSB39E54 SLP937
     P0018 60020 T01500122 56041=
KPOV 110255Z AUTO 13007KT 10SM SCT014 SCT090 BKN120 10/07 A2976
     RMK AO2 T01000074 PWINO=
KRFD 110254Z 01008KT 2SM R01/6000VP6000FT +RA BR SCT005 BKN024
     OVC039 07/06 A2936 RMK AO2 LTG DSNT S TSE51 SLP946 P0039
     60059 T00670056 56041 $=
KRIC 110254Z 17007KT 10SM OVC025 11/10 A3007 RMK AO2 SLP188 60000
     T01110100 58009=
KROA 110254Z 00000KT 4SM BR BKN200 08/07 A3007 RMK AO2 SLP184
     T00780067 58009=
KROC 110254Z 00000KT 10SM FEW100 BKN200 03/01 A2994 RMK AO2 SLP147
     T00330006 58024=
KROS 110255Z AUTO 01009KT 2SM -SN M03/M04 A2971 RMK AO2 SKY
     OBSCURED 60003 T10301038 P0002=
KSBN 110254Z 15011KT 3SM -RA BR OVC002 12/11 A2945 RMK AO2 SLP976
     P0001 60004 T01170111 58067=
KSNC 110255Z AUTO 10SM BKN055 02/02 A3014 RMK AO2=
KSOW 110255Z AUTO 36005KT 10SM CLR M01/M09 A3016 RMK AO2=
KSUS 110254Z 22009G15KT 10SM CLR 16/14 A2942 RMK AO2 PK WND
     22048/0155 WSHFT 0145 LTG DSNT NE RAE39 SLP960 P0043 60055
     T01610144 58011=
KSYN 110255Z AUTO 02016KT 2SM -SN OVC005 M01/M02 A2956 RMK AO2
     T10151025=
KSYR 110254Z 07006KT 10SM BKN050 BKN180 03/01 A3004 RMK AO2 SLP170
     T00280006 58008=


114 
SAUS70 KWBC 110300 RRQ
METAR
KLWA 110255Z AUTO 13009KT 4SM BR OVC006 10/10 A2942 RMK AO2
     T01000100=
KMFI 110254Z AUTO 04013G20KT 3/4SM -SN BR SCT007 OVC014 M02/M03
     A2949 RMK AO2 SLP003 P0002 60009 T10171033 58053=
KMGN 110255Z AUTO 08013G18KT 10SM OVC020 01/M01 A2972 RMK AO2
     T00151012=
KMIC 110253Z 02010KT 1SM -SN BR OVC009 M02/M03 A2966 RMK AO2
     SLP053 P0000 60000 T10171033 58020=
KOWD 110253Z AUTO 00000KT 10SM OVC028 01/M02 A3017 RMK AO2 SLP218
     T00111017 58004=
KPTW 110254Z AUTO 06003KT 7SM OVC045 06/01 A3012 RMK AO2 SLP197
     T00560011 58007=
KGFA 110256Z AUTO 23021KT 10SM BKN190 M02/M12 A2975 RMK AO2 PK WND
     22027/37 SLP128 T10171119 58009 $=
KAUM 110255Z AUTO 03012G21KT 1 3/4SM -SN OVC009 M02/M02 A2945 RMK
     AO2 P0001=
KCDI 110255Z AUTO 12003KT 10SM BKN016 OVC022 12/11 A2982 RMK AO2
     T01160105=
KLNL 110255Z AUTO 04004KT 1/4SM SN OVC003 M03/M03 A2967 RMK AO2
     T10261035=
KLSE 110253Z 35008KT 5SM -SN BR OVC014 00/M02 A2948 RMK AO2
     UPB38E45SNE38B46 SLP992 P0003 60015 T00001017 58024=
KMOP 110255Z AUTO 08009G14KT 2 1/2SM -SN OVC004 02/02 A2960 RMK
     AO2 60007 T00200020 P0005=
KMVE 110255Z AUTO 01007KT 10SM SCT006 OVC055 M02/M03 A2975 RMK
     AO2=
KPVB 110255Z AUTO 06014G19KT 1 3/4SM OVC005 A2933 RMK AO1 P0007
     60021=
KSHL 110255Z AUTO 36024G29KT 1/2SM BR OVC002 M03/M03 A2960 RMK AO2
     PWINO=
KTWM 110255Z AUTO 34003KT 10SM BKN080 M04/M07 A2972 RMK AO2=
KUIN 110254Z AUTO 18010KT 10SM CLR 14/12 A2933 RMK AO2 SLP931
     60007 T01440122 56022 TSNO=
KAWG 110255Z AUTO 32004KT 5SM BR OVC007 10/10 A2926 RMK AO2=
KAXA 110255Z AUTO 01019G25KT 2 1/2SM BR SCT008 SCT014 BKN070
     M02/M02 A2946 RMK A01=
KBOS 110254Z 32005KT 10SM OVC028 03/M01 A3018 RMK AO2 SLP218
     T00281006 58003=
KC35 110255Z AUTO 05004G15KT 10SM OVC006 00/00 A2942 RMK AO2 P0006
     60024 T00000000 PWINO=
KEST 110252Z AUTO 36021G34KT 1/2SM FZFG VV009 M02/M03 A2954 RMK
     AO2 PK WND 36034/0243 SNEMM SLP018 P0000 60000 T10221033
     56018 PWINO FZRANO $=
KMGJ 110254Z AUTO 35004KT 10SM OVC060 01/M01 A3010 RMK AO2 SLP195
     T00061011 58008=
KMOX 110255Z AUTO 31003KT 10SM OVC006 M03/M03 A2977 RMK AO2=
KRDK 110255Z AUTO 33013G20KT 6SM -UP OVC009 00/M00 A2948 RMK
     AO2=
KRGK 110255Z AUTO 05007KT 1 3/4SM -SN OVC008 M02/M03 A2957 RMK AO2
     P0001=
KSJX 110255Z AUTO 09013G19KT 2SM -SN BKN007 OVC011 01/00 A2973 RMK
     AO2 T00110004=
KSLB 110255Z AUTO 1/2SM +RA VV005 M03/M03 A2949 RMK AO2=
KULM 110255Z AUTO 36010G16KT BKN007 OVC012 M02/M03 A2964 RMK AO2
     PWINO=
K3N8 110255Z AUTO 20006KT 10SM CLR M07/M09 A2975 RMK AO2
     T10701086=
KATS 110255Z AUTO 26016G22KT 10SM CLR 13/M00 A2995 RMK AO2=
KDNA 110255Z AUTO 28012G17KT 10SM CLR 09/00 A3006 RMK AO2=
KEUG 110254Z 17006KT 10SM FEW040 SCT080 BKN160 07/03 A3014 RMK AO2
     SLP208 T00670033 55016=
KGCN 110254Z AUTO 00000KT 10SM CLR M09/M11 A3016 RMK AO2 SLP244
     I1000 I3000 T10891106 51017=
KHAF 110255Z AUTO 00000KT 9SM CLR 05/04 A3025 RMK AO2=
KHWD 110254Z 07004KT 10SM CLR 09/02 A3024 RMK AO2 SLP250 T00940022
     53014=
KL08 110255Z AUTO 00000KT 10SM FEW043 BKN050 BKN055 11/M02 A3015
     RMK AO2=
KMRY 110254Z 10005KT 10SM CLR 08/04 A3023 RMK AO2 SLP251 T00780039
     53016=
KOLM 110254Z 19015G25KT 9SM -RA FEW009 OVC013 06/05 A2990 RMK AO2
     SLP124 P0005 60011 T00610050 58026=
KRBL 110254Z AUTO 29006KT 10SM CLR 05/M02 A3020 RMK AO2 SLP229
     T00501017 53004=
KSRR 110255Z AUTO 30013G24KT 10SM CLR 02/M10 A3006 RMK AO2=
KSVC 110255Z AUTO 34007KT 10SM CLR 05/M01 A3008 RMK AO2
     T00451011=


116 
SAUS70 KWBC 110300 RRG
METAR
KCTZ 110255Z AUTO 00000KT 2SM SCT001 SCT007 OVC020 12/12 A3014 RMK
     AO2 60003 T01150115=
KCVX 110255Z AUTO 09014G18KT 7SM -SN OVC019 02/M01 A2969 RMK AO2
     T00181008=
KDUH 110255Z AUTO 15007KT 4SM BR OVC010 10/09 A2965 RMK AO2
     T01020093=
KDXX 110255Z AUTO 33006KT 3SM -SN BKN006 M01/M02 A2978 RMK AO2=
KDYT 110255Z AUTO 24003KT 10SM BKN045 OVC050 M02/M05 A2975 RMK
     AO2=
KEBS 110255Z AUTO 01019KT 4SM -RA OVC008 M01/M01 A2939 RMK AO2=
KERY 110255Z AUTO 07005KT 10SM BKN030 OVC039 00/M02 A2976 RMK AO2
     T10031025=
KEZF 110255Z AUTO 00000KT 10SM SCT016 OVC021 09/09 A3006 RMK AO2
     T00880088=
KFBL 110255Z AUTO 36014G19KT 2SM -SN OVC010 M02/M02 A2955 RMK AO2
     P0001=
KFKS 110255Z AUTO 09011G18KT 4SM -RA SCT031 BKN048 OVC055 01/00
     A2954 RMK AO2 T00121005=
KFPK 110255Z AUTO 13006G15KT 7SM -RA OVC006 09/08 A2953 RMK AO2
     60020 T00870075 P0001=
KFQD 110255Z AUTO 00000KT 1/4SM -DZ OVC003 08/08 A3011 RMK AO2=
KFRR 110255Z AUTO 00000KT 10SM SCT085 SCT110 07/02 A3002 RMK
     AO1=
KFSW 110255Z AUTO 20009KT 10SM 16/15 A2929 RMK AO2 P0001=
KGZL 110255Z AUTO 23013G20KT 10SM SCT021 BKN029 22/10 A2955 RMK
     AO2=
KHLX 110255Z AUTO 17008KT 4SM BR OVC003 09/09 A3003 RMK AO2
     T00920086=
KI23 110255Z AUTO 17011G15KT 3SM OVC003 12/12 A2975 RMK AO1=
KI75 110255Z AUTO 32014G18KT 3/4SM BR OVC002 02/02 A2934 RMK AO2
     T00230023=
KIMS 110255Z AUTO 17006KT 7SM RA OVC005 16/16 A2970 RMK AO2
     P0001=
KISQ 110255Z AUTO 05008KT 1 1/4SM -SN OVC005 00/M01 A2973 RMK AO2
     60001 T00001007 P0001=
KJHN 110255Z AUTO 33012KT 10SM OVC100 00/M02 A2992 RMK AO2
     T00011025=
KJYM 110255Z AUTO 13011G16KT 1/4SM -RA OVC002 08/07 A2958 RMK AO2
     60027 T00820074 P0002=
KJZI 110255Z AUTO 00000KT 5SM BR FEW025 SCT033 BKN060 13/13 A3015
     RMK AO2=
KLHZ 110255Z AUTO 18004KT 10SM OVC020 11/10 A3013 RMK AO2=
KLVL 110255Z AUTO 17004KT 10SM OVC020 11/10 A3010 RMK AO1
     T01100098=
KMJQ 110255Z AUTO 35017G21KT 1SM OVC008 M02/M03 A2957 RMK AO2
     PWINO=
KN03 110255Z AUTO 06005KT 10SM SCT047 02/00 A3001 RMK AO2=
KOCQ 110255Z AUTO 05008G15KT 010V070 1 3/4SM OVC003 00/00 A2956
     RMK AO1 P0004 60010 T00000000=
KOEB 110255Z AUTO 15008G18KT 1SM BR OVC003 10/10 A2953 RMK AO2
     T00970095=
KOLE 110255Z AUTO 15004KT 10SM CLR 03/00 A2992 RMK AO2=
KOLG 110255Z AUTO 02006KT 1 1/2SM OVC012 M03/M04 A2971 RMK AO1=
KONM 110255Z AUTO 36018G24KT 10SM CLR 01/M10 A3012 RMK AO2
     T00101102=
KONZ 110255Z AUTO 19009KT 1 3/4SM -SN OVC011 10/07 A2968 RMK AO2
     60015 T00970072 P0013=
KOOA 110255Z AUTO 00000KT 1SM BR OVC002 07/07 A2928 RMK AO2 60008
     T00700066=
KOSC 110255Z AUTO 10013G18KT 4SM UP OVC013 04/02 A2971 RMK AO2
     T00390018=
KOZW 110255Z AUTO 12014KT 4SM -RA BKN006 BKN017 OVC045 07/07 A2961
     RMK AO2 60021 T00700065 P0011=
KPCD 110255Z AUTO 22018G23KT 190V260 10SM SCT027 SCT031 BKN110
     22/19 A2949 RMK AO2 LTG DSNT SE AND S T02200187=
KPGV 110255Z AUTO 00000KT 2 1/2SM BR OVC004 11/11 A3014 RMK
     AO2=
KPHN 110255Z AUTO 12009KT 5SM RA OVC026 07/05 A2970 RMK AO2=
KPJC 110255Z AUTO 00000KT 10SM -RA SCT070 OVC080 07/06 A2988 RMK
     AO2=
KPMH 110255Z AUTO 17007KT 10SM OVC014 16/13 A2981 RMK AO2
     T01620127=
KRMY 110255Z AUTO 14010G18KT 7SM OVC004 10/10 A2953 RMK AO2 60027
     T01010095 P0006=
KRNP 110255Z AUTO 11014KT 3SM BR BKN007 BKN011 OVC030 05/04 A2959
     RMK AO2 T00450040=
KRQB 110255Z AUTO 09010G15KT 2 1/2SM -SN OVC006 01/01 A2956 RMK
     AO2 60019 T00120010 P0012=
KRUQ 110255Z AUTO 18003KT 1SM BR OVC003 11/10 A3010 RMK AO2
     T01060103=


117 
SAUS70 KWBC 110300 RRX
METAR
PAPG 110256Z 35003KT 3/4SM -SN BR BKN006 OVC013 00/M01 A2899 RMK
     AO2 SLP819 P0002 60008 T00001006 56019=
PAPH 110256Z AUTO 33032G41KT 10SM BKN022 OVC028 M08/M12 A2945 RMK
     AO2 PK WND 32048/0200 SNE12 SLP973 P0000 60000 T10781117
     53043 FZRANO=
PAPM 110256Z AUTO 34032G36KT 3/4SM -SN BR FEW010 OVC024 M13/M15
     A2971 RMK AO2 PK WND 33039/0233 SLP062 P0000 60000 T11331150
     53037 FZRANO=
PARC 110256Z AUTO 02005KT 10SM BKN043 OVC055 M16/M18 A2894 RMK AO2
     SNE08 SLP883 P0000 60000 T11611183 53018 FZRANO=
PARS 110256Z AUTO 30013G29KT 10SM CLR M17/M21 A2961 RMK AO2 PK WND
     31029/0247 SLP029 T11671211 51037 FZRANO $=
PARY 110256Z AUTO 28009G17KT 230V300 9SM -SN OVC014 M19/M23 A2925
     RMK AO2 SLP925 P0000 60000 T11891228 53023 FZRANO=
PASA 110256Z AUTO 32021G27KT 8SM SCT017 M21/M23 A3006 RMK AO2 PK
     WND 32031/0159 SNB32E42 SLP180 P0000 60000 T12061233 52019
     FZRANO=
PASD 110256Z 32026G34KT 1/16SM +SN BLSN OVC004 M05/M07 A2962 RMK
     AO2 PK WND 32037/0234 SLP031 P0000 60000 T10501072 53038
     $=
PASH 110256Z AUTO 32025KT 7SM -SN OVC022 M21/M24 A2979 RMK AO2 PK
     WND 32032/0206 SLP088 6//// T12111244 53018 FZRANO PNO $=
PASK 110256Z AUTO 28016G21KT 10SM CLR M23/M26 A2946 RMK AO2 SLP974
     T12331256 53024 FZRANO=
PASL 110256Z AUTO 9SM CLR M16/M18 A2940 RMK AO2 SNE56 SLPNO P0000
     6//// T11561183 FZRANO=
PASM 110256Z AUTO 32024G28KT 4SM -SN BR OVC020 M18/M20 A2969 RMK
     AO2 PK WND 32030/0227 SNB19 SLP068 P0000 60000 T11781200
     53031 FZRANO=
PASX 110256Z AUTO 00000KT 6SM BR SCT050 OVC060 M05/M07 A2883 RMK
     AO2 SLP774 T10501067 53027 FZRANO=
PATG 110256Z AUTO 10SM CLR M14/M18 A2958 RMK AO2 SLP113 60000
     T11441183 51060 FZRANO $=
PAUN 110256Z AUTO 34011KT 10SM BKN030 M21/M25 A2960 RMK AO2 SLP028
     T12061250 51024 FZRANO=
PAVD 110256Z 03005KT 10SM FEW110 SCT150 M06/M06 A2874 RMK AO2
     SLP730 T10561061 53013=
PAWG 110256Z 00000KT 8SM -SN FEW023 BKN043 OVC050 01/M02 A2903 RMK
     AO2 RAB03E12UPB12E13SNB13 SLP830 P0000 60000 T00061017
     56012=
PAWN 110256Z AUTO 34012G16KT 10SM CLR M23/M27 A2960 RMK AO2 SLP038
     T12331267 53021 FZRANO=
PAWS 110256Z AUTO 00000KT 10SM OVC030 M07/M08 A2879 RMK AO2 SLP757
     T10671083 51023 FZRANO=
PAZK 110256Z AUTO 00000KT 6SM -SN BR OVC013 M12/M14 A2858 RMK AO2
     SLP750 P0000 60000 T11221139 53014 FZRANO=
PFCL 110256Z AUTO 31016KT 10SM CLR M10/M14 A2939 RMK AO2 SLP946
     T11001139 51047 FZRANO TSNO=
PFYU 110256Z 03009KT 1 3/4SM -SN BR SCT014 BKN019 OVC034 M14/M16
     A2901 RMK AO2 SLP843 P0000 60000 T11391156 50013=
PPIT 110256Z AUTO 33026G31KT 3SM -SN BKN018 A2969 RMK AO2 PK WND
     33035/0228 SLPNO P0000 60000 51027 FZRANO TSNO $=
PPIZ 110256Z AUTO 32021KT 4SM -SN BR OVC014 M19/M22 A2957 RMK AO2
     SLP016 6//// T11941217 53013 FZRANO PNO $=
KCKN 110255Z AUTO 16005KT 10SM CLR M10/M11 A2976 RMK AO2 PWINO=
KDUH 110255Z AUTO 15007KT 4SM BR OVC010 10/09 A2965 RMK AO2
     T01020093=
KEBS 110255Z AUTO 01019KT 4SM -RA OVC008 M01/M01 A2939 RMK AO2=
KIMS 110255Z AUTO 17006KT 7SM RA OVC005 16/16 A2970 RMK AO2
     P0001=
KN38 110255Z AUTO 19008KT 10SM FEW046 02/M01 A2998 RMK AO2=
KOEB 110255Z AUTO 15008G18KT 1SM BR OVC003 10/10 A2953 RMK AO2
     T00970095=
KOSC 110255Z AUTO 10013G18KT 4SM UP OVC013 04/02 A2971 RMK AO2
     T00390018=
KPHL 110254Z 08003KT 10SM -RA OVC043 08/03 A3011 RMK AO2 RAB21
     PRESFR SLP196 P0000 60000 T00830033 56010=
KPHN 110255Z AUTO 12009KT 5SM RA OVC026 07/05 A2970 RMK AO2=
KRMY 110255Z AUTO 14010G18KT 7SM OVC004 10/10 A2953 RMK AO2 60027
     T01010095 P0006=


119 
SAUS70 KWBC 110300 RRD
METAR
KLUM 110255Z AUTO 01010KT 1 1/4SM -SN M01/M01 A2960 RMK AO2 60004
     T10061010=
KLWA 110255Z AUTO 13009KT 4SM BR OVC006 10/10 A2942 RMK AO2
     T01000100=
KLWM 110254Z 04004KT 10SM OVC018 00/M04 A3020 RMK AO2 SLP228
     T00001039 56002=
KLWT 110254Z AUTO 23016KT 10SM CLR M06/M13 A2974 RMK AO2 SLP117
     T10611128 58003=
KM40 110255Z AUTO 18018G25KT 10SM BKN021 OVC027 23/22 A2985 RMK
     AO2=
KMAN 110255Z AUTO 13007KT 10SM 02/M00 A3018 RMK A01=
KMEM 110254Z 19021G32KT 10SM SCT032 25/19 A2967 RMK AO2 PK WND
     19034/0244 SLP041 60000 T02500189 58017 $=
KMFI 110254Z AUTO 04013G20KT 3/4SM -SN BR SCT007 OVC014 M02/M03
     A2949 RMK AO2 SLP003 P0002 60009 T10171033 58053=
KMGJ 110254Z AUTO 35004KT 10SM OVC060 01/M01 A3010 RMK AO2 SLP195
     T00061011 58008=
KMGN 110255Z AUTO 08013G18KT 10SM OVC020 01/M01 A2972 RMK AO2
     T00151012=
KMKC 110254Z 28012G27KT 10SM BKN020 06/01 A2948 RMK AO2 PK WND
     28029/0244 SLP983 T00560011 51050=
KMKJ 110255Z AUTO 11003KT 7SM BKN060 07/06 A3006 RMK AO2
     T00660060=
KMKS 110255Z AUTO 00000KT 3SM BR BKN029 OVC036 12/12 A3014 RMK
     AO2=
KMOP 110255Z AUTO 08009G14KT 2 1/2SM -SN OVC004 02/02 A2960 RMK
     AO2 60007 T00200020 P0005=
KMOT 110254Z 23012KT 10SM CLR M04/M11 A2971 RMK AO2 SLP089
     T10391106 55002=
KMOX 110255Z AUTO 31003KT 10SM OVC006 M03/M03 A2977 RMK AO2=
KMPZ 110255Z AUTO 18008KT 5SM BR CLR 13/13 A2927 RMK AO2=
KMQJ 110255Z AUTO 15011G17KT 2 1/2SM OVC003 14/14 A2959 RMK
     AO1=
KMRY 110254Z 10005KT 10SM CLR 08/04 A3023 RMK AO2 SLP251 T00780039
     53016=
KMVE 110255Z AUTO 01007KT 10SM SCT006 OVC055 M02/M03 A2975 RMK
     AO2=
KMWK 110255Z AUTO 00000KT 10SM 10/08 A3010 RMK AO2 T00950075=
KMWM 110255Z AUTO 34022G28KT 1 3/4SM -SN BKN004 BKN009 M03/M04
     A2962 RMK AO2=
KMXO 110255Z AUTO 05008G16KT 4SM -RA SCT005 BKN025 OVC075 03/03
     A2929 RMK AO2 P0022=
KMZH 110255Z AUTO 00000KT 10SM OVC033 M02/M05 A2971 RMK AO2=
KN38 110255Z AUTO 19008KT 10SM FEW046 02/M01 A2998 RMK AO2=
KO22 110255Z AUTO 00000KT 10SM CLR 02/02 A3020 RMK A01=
KOAK 110253Z 31005KT 10SM FEW180 10/02 A3025 RMK AO2 SLP243
     T01000022 53013=
KOEL 110255Z AUTO 35010G14KT 10SM CLR M03/M05 A2987 RMK AO1
     T10271055=
KOKV 110255Z AUTO 09003KT 10SM SCT060 OVC085 07/02 A3001 RMK
     AO2=
KOLM 110254Z 19015G25KT 9SM -RA FEW009 OVC013 06/05 A2990 RMK AO2
     SLP124 P0005 60011 T00610050 58026=
KOLS 110254Z AUTO 00000KT 10SM SCT038 07/03 A3011 RMK AO2 SLP174
     T00670033 53015=
KOLZ 110255Z AUTO 05018KT 3SM BR OVC004 00/00 A2932 RMK A01=
KONA 110255Z AUTO 02007KT 1 1/2SM -SN BKN006 OVC012 00/M01 A2952
     RMK AO2 P0005=
KOVL 110255Z AUTO 02012G16KT 330V040 2SM -SN OVC005 M02/M03 A2971
     RMK AO2=
KOXD 110255Z AUTO 15010KT 1/4SM HZ OVC002 14/10 A2967 RMK AO2 LTG
     DSNT SW AND W 60011 T01430095 P0004=
KOZS 110255Z AUTO 20008G15KT 10SM SCT060 15/11 A2943 RMK AO2
     P0001=
KPAN 110255Z AUTO 00000KT 10SM CLR 03/M03 A3016 RMK AO2=
KPCZ 110255Z AUTO 04008G17KT 4SM -RA BKN008 OVC013 01/00 A2950 RMK
     AO2 P0003 60013 T00130000=
KPEA 110255Z AUTO 32011KT 1SM BR OVC002 04/ A2932 RMK AO2
     T0040////=
KPEX 110255Z AUTO 36007KT 1 3/4SM -SN OVC010 M03/M03 A2973 RMK
     AO2=
KPHF 110254Z 18005KT 3SM BR OVC003 10/10 A3010 RMK AO2 SLP192
     60000 T01000100 58014=
KPHL 110254Z 08003KT 10SM -RA OVC043 08/03 A3011 RMK AO2 RAB21
     PRESFR SLP196 P0000 60000 T00830033 56010=
KPLN 110254Z AUTO 10011KT 10SM BKN023 OVC046 02/M02 A2975 RMK AO2
     PRESFR SLP080 T00171017 58042=
KPLR 110255Z AUTO 20005KT 10SM BKN021 BKN025 OVC055 20/19 A2998
     RMK A01=


120 
SAUS70 KWBC 110300 RRX
METAR
KRYM 110256Z AUTO 00000KT 5SM -SN BR OVC042 M04/M05 A2972 RMK AO2
     SLP087 P0002 60002 T10361046 58014 FZRANO $=
KRZN 110255Z AUTO 02006KT 1 3/4SM -SN OVC006 M03/M03 A2970 RMK AO2
     T10271035=
KTEW 110255Z AUTO 14015G18KT 5SM BR OVC005 08/07 A2957 RMK AO2
     T00780070=
KY31 110255Z AUTO 07008KT 3SM -RA OVC005 02/01 A2965 RMK AO2 60003
     T00170006 P0003=
KEFD 110250Z 18011KT 7SM SCT012 BKN028 OVC047 24/22 A2983=
PABA 110252Z AUTO 27024KT 1/2SM SN FZFG SCT015 OVC021 M18/M21
     A2938 RMK AO2 PK WND 27026/0252 SLP956 P0000 60000 T11831206
     51009 FZRANO=
KOSC 110255Z AUTO 10013G18KT 4SM UP OVC013 04/02 A2971 RMK AO2
     T00390018=
K4R5 110255Z AUTO 00000KT 10SM SCT028 BKN048 OVC060 00/M03 A2974
     RMK AO2 T00021031=
K6B0 110255Z AUTO 16003KT 10SM CLR 01/M01 A3012 RMK AO2
     T00101015=
KBBB 110256Z AUTO 36003KT 10SM SCT008 BKN065 M03/M03 A2976 RMK
     AO2=
KBCK 110255Z AUTO 03009KT 360V060 1/2SM -SN BKN003 M01/M01 A2949
     RMK AO2 P0005 60009 T10081015=
KBVI 110255Z AUTO 14005KT 7SM RA SCT060 OVC080 12/08 A2987 RMK AO2
     T01220078=
KCFS 110255Z AUTO 09012G19KT 3SM -RA 04/03 A2965 RMK AO2 SKY
     OBSCURED T00360028=
KCVX 110255Z AUTO 09014G18KT 7SM -SN OVC019 02/M01 A2969 RMK AO2
     T00181008=
KI75 110255Z AUTO 32014G18KT 3/4SM BR OVC002 02/02 A2934 RMK AO2
     T00230023=
KMJQ 110255Z AUTO 35017G21KT 1SM OVC008 M02/M03 A2957 RMK AO2
     PWINO=
KOCQ 110255Z AUTO 05008G15KT 010V070 1 3/4SM OVC003 00/00 A2956
     RMK AO1 P0004 60010 T00000000=
KOLG 110255Z AUTO 02006KT 1 1/2SM OVC012 M03/M04 A2971 RMK AO1=
KOOA 110255Z AUTO 00000KT 1SM BR OVC002 07/07 A2928 RMK AO2 60008
     T00700066=
KOZW 110255Z AUTO 12014KT 4SM -RA BKN006 BKN017 OVC045 07/07 A2961
     RMK AO2 60021 T00700065 P0011=
KPJC 110255Z AUTO 00000KT 10SM -RA SCT070 OVC080 07/06 A2988 RMK
     AO2=
KRQB 110255Z AUTO 09010G15KT 2 1/2SM -SN OVC006 01/01 A2956 RMK
     AO2 60019 T00120010 P0012=
KBDH 110255Z AUTO 35008KT 3SM UP CLR M01/M03 A2976 RMK AO2
     P0001=
KDXX 110255Z AUTO 33006KT 3SM -SN BKN006 M01/M02 A2978 RMK AO2=
KDYT 110255Z AUTO 24003KT 10SM BKN045 OVC050 M02/M05 A2975 RMK
     AO2=
KERY 110255Z AUTO 07005KT 10SM BKN030 OVC039 00/M02 A2976 RMK AO2
     T10031025=
KFBL 110255Z AUTO 36014G19KT 2SM -SN OVC010 M02/M02 A2955 RMK AO2
     P0001=
KFKS 110255Z AUTO 09011G18KT 4SM -RA SCT031 BKN048 OVC055 01/00
     A2954 RMK AO2 T00121005=
KI23 110255Z AUTO 17011G15KT 3SM OVC003 12/12 A2975 RMK AO1=
KISQ 110255Z AUTO 05008KT 1 1/4SM -SN OVC005 00/M01 A2973 RMK AO2
     60001 T00001007 P0001=
KJYM 110255Z AUTO 13011G16KT 1/4SM -RA OVC002 08/07 A2958 RMK AO2
     60027 T00820074 P0002=
KN03 110255Z AUTO 06005KT 10SM SCT047 02/00 A3001 RMK AO2=
KOLE 110255Z AUTO 15004KT 10SM CLR 03/00 A2992 RMK AO2=
KONZ 110255Z AUTO 19009KT 1 3/4SM -SN OVC011 10/07 A2968 RMK AO2
     60015 T00970072 P0013=
KPMH 110255Z AUTO 17007KT 10SM OVC014 16/13 A2981 RMK AO2
     T01620127=
KRNP 110255Z AUTO 11014KT 3SM BR BKN007 BKN011 OVC030 05/04 A2959
     RMK AO2 T00450040=
KTTF 110255Z AUTO 15006KT 4SM -RA OVC009 08/07 A2967 RMK AO2 60013
     T00780070 P0004=
KY49 110255Z AUTO 23004KT 10SM SCT120 M05/M08 A2973 RMK AO2
     T10541082=
KY70 110255Z AUTO 08007KT 2SM RA OVC005 03/03 A2955 RMK AO2 60013
     T00320032 P0001=
K0E0 110255Z AUTO 31022G29KT 10SM CLR M01/M15 A3010 RMK AO2
     T10151154 TSNO=
K0S9 110255Z AUTO 15011G20KT 110V170 10SM BKN015 BKN065 OVC075
     06/05 A2975 RMK AO2=
K6S2 110255Z AUTO 14006KT 10SM OVC029 08/05 A3012 RMK AO2
     T00800045=


122 
SAUS80 KWBC 110300 RRA
METAR
KTKC 110255Z AUTO 35015KT 1 3/4SM -SN OVC005 M02/M04 A2971 RMK AO2
     T10201038=
KTKV 110255Z AUTO 02005KT 1/2SM OVC006 M02/M03 A2960 RMK AO2
     T10221030 PWINO=
PHMK 110254Z 04013G22KT 10SM CLR 24/19 A3004 RMK AO2 SLP175
     T02440189 53006 $=
PHOG 110254Z 06017G25KT 10SM CLR 26/17 A3000 RMK AO2 PK WND
     07028/0156 SLP162 T02610172 53007=
PASN 110253Z AUTO 34022G30KT 3SM -SN SCT035 SCT055 M04/M09 A3010
     RMK AO2 PK WND 31035/0154 UPB11E41B50E53SNE11B41E50B53 SLP194
     P0000 60000 T10441089 53019 TSNO $=
K12N 110254Z AUTO 00000KT 04/01 A3010 RMK AO1 SLP201 T00390011
     58007=
KACY 110254Z 00000KT 4SM -RA BR SCT019 OVC029 08/06 A3012 RMK AO2
     RAB07 SLP198 P0003 60003 T00780061 55009=
KEKX 110255Z AUTO 18012G19KT 10SM VCTS OVC009 18/17 A2971 RMK AO2
     LTG DSNT W THRU NE T01760170=
KGNT 110255Z AUTO 35011KT 10SM SCT041 M04/M14 A3016 RMK AO2
     T10421137=
KIKW 110255Z AUTO 08011KT 3SM -RA OVC006 02/01 A2960 RMK AO2
     T00210010=
KM21 110255Z AUTO 19011G17KT 10SM -RA OVC016 20/18 A2965 RMK AO2
     T01990182=
KNYC 110251Z AUTO 06004KT 10SM FEW060 BKN080 08/01 A3013 RMK AO2
     SLP195 T00780011 58012=
KPZQ 110255Z AUTO 09008KT 10SM OVC022 02/00 A2978 RMK AO2
     T00201002=
KSMS 110255Z AUTO 00000KT 2SM BR OVC004 12/12 A3014 RMK AO2
     PWINO=
K6R6 110251Z AUTO 34013KT 21/02 A2988 RMK AO1 SLP090 T02110022
     51027=
K77S 110255Z AUTO 00000KT 10SM SCT055 BKN065 OVC080 06/05 A3013
     RMK A01=
KABQ 110252Z 34015G31KT 10SM FEW060 SCT200 00/M16 A3014 RMK AO2 PK
     WND 34031/0244 SLP205 T00001161 53038=
KALS 110252Z AUTO 30007KT 10SM CLR M11/M19 A3001 RMK AO2 SLP196
     T11111194 51043 $=
KCNY 110253Z AUTO 30013KT 10SM CLR M04/M13 A3017 RMK AO2 SLP247
     T10391133 53028=
KFAR 110253Z 20005KT 10SM CLR M06/M07 A2977 RMK AO2 SLP098
     T10561072 51005=
KCLL 110253Z AUTO 18010KT 9SM CLR 24/22 A2977 RMK AO2 SLP076
     T02440217 53015=
KFAT 110253Z 31003KT 10SM FEW030 10/06 A3025 RMK AO2 SLP242
     T01000061 53020=
KTUS 110253Z 35005KT 10SM CLR 12/06 A3012 RMK AO2 SLP184 T01220056
     53017=
KCUT 110253Z AUTO 32006KT 10SM CLR M09/M14 A2977 RMK AO2 SLP138
     T10891139 51009=
KDBQ 110253Z 36010KT 4SM -SN BR OVC003 03/02 A2932 RMK AO2 LTG
     DSNT E AND SE RAB31E32 SLP939 P0005 60032 T00280022 56046=
KFNB 110253Z AUTO 30021G30KT 10SM OVC009 01/M01 A2954 RMK AO2 PK
     WND 31030/0251 SLP008 T00111011 51036=
KFNT 110253Z 11013KT 2 1/2SM RA BR SCT007 BKN024 OVC044 05/04
     A2963 RMK AO2 PRESFR SLP040 P0013 60014 T00500039 58064=
KCDR 110253Z AUTO 24007KT 10SM FEW017 M11/M12 A2990 RMK AO2 SNE06
     SLP180 P0000 60000 T11061122 51007=
KLXV 110253Z AUTO 31012G17KT 2SM -SN OVC025 M16/M19 A2987 RMK AO2
     PK WND 31028/0221 SNB0155 SLP146 P0000 60001 T11611189
     51015=
KRIW 110253Z AUTO 29019G28KT 10SM CLR M06/M18 A2989 RMK AO2 PK WND
     29028/0249 SLP167 T10611183 50007=
KRQE 110253Z AUTO 00000KT 10SM CLR M06/M10 A3016 RMK AO2 SLP212
     T10561100 51034=
KBIL 110253Z 26015KT 10SM CLR M02/M15 A2983 RMK AO2 SLP139
     T10221150 57000=
KRNM 110253Z 00000KT 10SM CLR 06/05 A3013 RMK AO2 SLP204 T00610050
     50005=
KBFF 110253Z AUTO 28009KT 10SM CLR M06/M09 A2991 RMK AO2 SLP166
     60001 T10611094 51023=
KCRQ 110253Z 00000KT 10SM CLR 11/08 A3012 RMK AO2 SLP200 T01110078
     50005=
KDAL 110253Z 22005KT 10SM FEW046 FEW230 23/13 A2971 RMK AO2 SLP056
     T02330128 52024=
KBNO 110253Z AUTO 09004KT 10SM OVC050 M01/M04 A3010 RMK AO2 SLP228
     T10061039 56008=
KFMN 110253Z 33005KT 10SM CLR M03/M11 A3016 RMK AO2 SLP237
     T10331111 51033=


197 
SAPR01 SPIM 110300
METAR SPJC 110300Z 15010KT CAVOK 19/16 Q1014 NOSIG RMK PP000=


350 
SAUS14 KAWN 110300 RRW
METAR KAAT 110255Z AUTO 14003KT 8SM CLR M03/M08 A3016 RMK AO2 SLP247
      T10331083 53002=
METAR KCAO 110255Z AUTO 35010KT 10SM FEW090 M03/M05 A2994 RMK AO2 SNB09E21
      SLP137 P0000 60000 T10281050 53056=
METAR KCVO 110256Z AUTO 17015KT 10SM OVC033 07/04 A3011 RMK AO2 SLP198
      T00720044 56010=
METAR KDIJ 110256Z AUTO 16008KT 10SM CLR M11/M13 A3004 RMK AO2 SLP250
      T11061133 51008=
METAR KHDN 110256Z AUTO 28009KT 10SM FEW033 M11/M13 A3006 RMK AO2 SLP247
      60000 T11061133 51025 FZRANO=
METAR KHYI 110256Z AUTO 26004KT 9SM CLR 21/20 A2980 RMK AO2 SLP084
      6//// T02060200 53022 PNO $=
METAR KKLS 110256Z AUTO 15015G20KT 10SM OVC015 07/05 A3000 RMK AO2
      RAE30 SLP161 P0000 60003 T00720050 58027=
METAR KLLJ 110255Z AUTO 22007KT 10SM OVC060 M04/M13 A3004 RMK AO2 SLP220
      T10391133 53010=
METAR KLRD 110256Z 14007KT 10SM CLR 24/19 A2976 RMK AO2 SLP075 T02440189
      51020=
METAR KPWT 110256Z AUTO 19012G29KT 9SM -RA OVC005 06/05 A2984 RMK AO2
      PK WND 22029/0248 SLP111 P0005 60020 T00560050 58026=
METAR KSDY 110256Z AUTO 19004KT 10SM CLR M09/M12 A2977 RMK AO2 SLP126
      T10941117 50000 FZRANO=
METAR KSGU 110256Z AUTO 06018KT 10SM CLR 03/M11 A3025 RMK AO2 SLP253
      6//// T00281106 51017 PNO $=
METAR KSKX 110256Z AUTO 10SM CLR M09/M15 A3008 RMK AO2 SLP223 T10891150
      53043 FZRANO $=
METAR KSMN 110256Z AUTO 00000KT 10SM OVC065 M02/M12 A3005 RMK AO2 SLP229
      T10171117 53011 FZRANO $=
METAR KVIS 110256Z AUTO 00000KT 10SM CLR 07/07 A3025 RMK AO2 SLP252
      T00720072 53016=


408 
SAUS14 KAWN 110300 RRV
METAR KBKF 110258Z 29008KT 10SM FEW100 M06/M16 A2992 RMK AO2A SLP161
      T10561162 51028=
METAR KCLS 110255Z AUTO 18012KT 160V220 10SM BKN015 BKN021 OVC028 07/06
      A2994 RMK AO2=
METAR KEDW 110256Z 07005KT 30SM CLR 05/M03 A3018 RMK AO2A SLP233 T00491034
      52016=
METAR KGRF 110256Z 15018G22KT 10SM -RA BKN031 OVC040 07/03 A2988 RMK
      AO2A SLP124 P0000 60000 T00690031 57032 $=
METAR KLIC 110255Z AUTO 33011KT 10SM CLR M07/M17 A2990 RMK AO2 SLP155
      T10671172 51044=
METAR KMRF 110256Z AUTO 29013KT 10SM CLR 11/01 A3004 RMK AO2 SLP136
      T01110006 51024=
METAR KMYV 110253Z AUTO 17003KT 10SM CLR 06/01 A3022 RMK AO2 SLP238
      T00610011 51007=
METAR KOCH 110256Z AUTO 18010KT 10SM OVC014 23/22 A2979 RMK AO2 SLP087
      T02330222 51007=
METAR KONM 110255Z AUTO 36018G24KT 10SM CLR 01/M10 A3012 RMK AO2 T00101102=
METAR KOTH 110256Z 14008KT 10SM SCT036 08/05 A3016 RMK AO2 SLP213 T00780050
      56019=
METAR KPRX 110256Z AUTO 21012KT 10SM CLR 22/18 A2968 RMK AO2 SLP060
      T02170183 53013=
METAR KPTV 110256Z AUTO 00000KT 9SM CLR 07/06 A3025 RMK AO2 SLP246
      T00670056 53014=
METAR KPVU 110256Z 11006KT 10SM CLR M07/M11 A3027 RMK AO2 SLP291 T10671106
      51019=
METAR KPWG 110256Z AUTO 23005KT 10SM CLR 21/17 A2977 RMK AO2 SLP074
      T02110172 51027=
METAR KYKM 110253Z 19018G26KT 10SM CLR 06/00 A2994 RMK AO2 PK WND 19026/0251
      SLP148 T00610000 58024=


409 
SAUS14 KAWN 110300 RRX
METAR KAWO 110256Z AUTO 15016G24KT 10SM FEW034 BKN120 07/03 A2985 RMK
      AO2 PK WND 15026/0226 SLP113 6//// T00670033 56039 PNO $=
METAR KCGZ 110256Z AUTO 30003KT 10SM CLR 13/07 A3012 RMK AO2 SLP201
      T01330072 51018=
METAR KCOD 110256Z AUTO 26019G29KT 10SM CLR M04/M14 A2984 RMK AO2 PK
      WND 26032/0228 SLP159 T10391144 58003 FZRANO=
METAR KCVN 110256Z AUTO 30028G38KT 10SM CLR 07/M08 A2994 RMK AO2 PK
      WND 30040/0232 PRESRR SLP133 T00721083 52049=
METAR KEAT 110255Z AUTO 13009KT 10SM OVC060 03/M03 A2988 RMK AO2 SLP129
      T00331028 58026=
METAR KENV 110256Z AUTO 10SM M03/M10 RMK AO2 SLPNO 6//// T10281100
      FZRANO $=
METAR KGPI 110255Z 17007KT 10SM BKN038 OVC045 M01/M06 A2993 RMK AO2
      SLP172 60000 T10111056 51002=
METAR KGTU 110256Z 18006KT 9SM CLR 21/17 A2980 RMK AO2 SLP086 T02060172
      51021=
METAR KGUC 110256Z AUTO 24008KT 9SM -SN OVC055 M11/M13 A3004 RMK AO2
      SNB18 SLP233 P0000 60000 T11111133 51026 FZRANO=
METAR KGXY 110256Z AUTO 34011KT 10SM CLR M05/M13 A2995 RMK AO2 SLP186
      T10501133 51033 FZRANO=
METAR KHND 110256Z 05005KT 10SM CLR 06/M12 A3026 RMK AO2 SLP275 T00611122
      51021=
METAR KILE 110256Z AUTO 21007KT 10SM CLR 22/18 A2977 RMK AO2 SLP070
      T02220183 51020=
METAR KRNO 110255Z 23003KT 10SM CLR M01/M07 A3020 RMK AO2 SLP248 T10061067
      53004=
METAR KSCK 110255Z 19003KT 10SM CLR 05/00 A3023 RMK AO2 SLP237 T00500000
      53014=


999 
SAFJ31 NFFN 110300
METAR NFFN 110300Z 06008KT 9999 -TSRA FEW018CB SCT026TCU 31/24 Q1009 TEMPO 5000 TSRA=


948 
SACV20 GVAC 110300
METAR GVAC 110300Z 04013KT 9999 FEW014 SCT100 21/17 Q1012 NOSIG=

950 
SPFJ31 NFFN 110300
SPECI NFFN 110300Z 06008KT 9999 -TSRA FEW018CB SCT026TCU 31/24 Q1009 TEMPO 5000 TSRA=


952 
SAIN90 VOMY 110300
METAR VOMY 110300Z 08008KT 6000 SCT015 BKN080 23/20 Q1018=

715 
SACS31 MROC 110300
METAR MROC 110300Z 11006KT CAVOK 20/15 A3000 NOSIG=


813 
SAUS14 KAWN 110300 RRX
METAR KAJO 110256Z AUTO 00000KT 10SM CLR 07/06 A3016 RMK AO2 SLP215
      6//// T00720056 51014=
METAR KAST 110255Z AUTO 18019G27KT 8SM -RA FEW022 BKN031 OVC038 10/07
      A2991 RMK AO2 PK WND 18031/0242 RAB20 SLP129 P0000 60001
      T01000067 58026=
METAR KBOK 110256Z AUTO 00000KT 10SM CLR 06/04 A3021 RMK AO2 SLP233
      6//// T00560039 58015=
METAR KCMA 110255Z 00000KT 10SM CLR 11/06 A3016 RMK AO2 SLP224 T01060061
      51017=
METAR KCOE 110256Z AUTO 16003KT 7SM -SN FEW008 SCT013 OVC022 00/M01
      A2998 RMK AO2 SLP196 P0000 60000 T00001011 58006 FZRANO=
METAR KEGE 110256Z AUTO 11009KT 10SM CLR M14/M16 A3010 RMK AO2 SLP275
      T11391161 51026 FZRANO=
METAR KEUL 110256Z AUTO 11006KT 10SM OVC065 02/M03 A3018 RMK AO2 SLP242
      T00221028 58000 FZRANO=
METAR KFNL 110256Z 33008KT 10SM CLR M05/M17 A2994 RMK AO2 SLP168 T10501167
      51025 FZRANO=
METAR KGDV 110256Z AUTO 27009KT 10SM CLR M07/M11 A2978 RMK AO2 SLP127
      T10671106 50003 FZRANO=
METAR KGUL 110300Z AUTO 19012KT 8SM CLR 25/23 A2988 RMK A01=
METAR KHJO 110253Z AUTO 00000KT 5SM BR FEW028 06/05 A3025 RMK AO2 SLP247
      T00610050 53018=
METAR KJAC 110256Z 20012KT 10SM FEW030 OVC038 M07/M14 A2999 RMK AO2
      SLP232 60000 T10721139 51010=
METAR KLGD 110256Z AUTO 17009KT 10SM BKN055 02/M03 A3010 RMK AO2 SLP215
      T00171033 58002 FZRANO=
METAR KLPC 110256Z AUTO 27005KT 10SM CLR 10/07 A3018 RMK AO2 SLP220
      T01000067 53015=
METAR KRFI 110255Z AUTO 17007KT 10SM CLR 23/20 A2976 RMK AO2 T02300197=


888 
SAUS14 KAWN 110300 RRX
METAR K05U 110255Z AUTO 18005KT 10SM CLR M12/M15 A3022 RMK A01=
METAR K0A0 110255Z AUTO 22005KT 10SM CLR 09/M04 A3003 RMK AO2=
METAR K3T5 110255Z AUTO 18006KT 7SM OVC013 25/24 A2978 RMK AO2 T02450236=
METAR K82V 110255Z AUTO 32007KT 10SM CLR M08/M10 A2991 RMK AO2=
METAR K9S9 110250Z AUTO 15012KT 10SM CLR 06/M02 A3006 RMK AO2=
METAR KANK 110255Z AUTO 26011G16KT 10SM CLR M08/M21 A3004 RMK AO1 T10781209=
METAR KAVQ 110255Z AUTO 00000KT 10SM CLR 13/06 A3010 RMK AO2 T01250060=
METAR KMEV 110255Z AUTO 08003KT 10SM CLR M05/M06 A3021 RMK AO2=
METAR KMNZ 110255Z AUTO 27004KT 10SM CLR 20/04 A2981 RMK AO2 T01950040=
METAR KNSI 110253Z AUTO 32007KT 10SM CLR 08/07 A3015 RMK AO2 SLP208
      T00780067 51016 $=
METAR KRLD 110255Z AUTO 18013G17KT 10SM OVC100 08/00 A3003 RMK AO2
      T00780002=
METAR KRTS 110255Z AUTO 00000KT 10SM CLR M03/M08 A3019 RMK AO2=
METAR KRYW 110255Z AUTO 22005KT 10SM CLR 22/18 A2980 RMK AO2 T02220180=
METAR KSAA 110255Z AUTO 24016KT 10SM CLR M12/M14 A2994 RMK AO2=
METAR KSEP 110255Z AUTO 28007KT 10SM CLR 22/04 A2981 RMK AO2 T02230036=
METAR KSPK 110250Z AUTO 15003KT 10SM SCT049 SCT060 M08/M11 A3026 RMK
      AO2=
METAR KSTK 110255Z AUTO 29015KT 10SM SCT120 M03/M07 A2991 RMK AO2=
METAR KSZT 110255Z AUTO 21004KT 5SM -SN OVC025 00/M01 A2997 RMK AO2=
METAR KT69 110255Z AUTO 18006KT 7SM CLR 24/23 A2979 RMK A01=
METAR KT89 110255Z AUTO 31006KT 10SM CLR 22/02 A2989 RMK A01=
METAR KTSP 110255Z AUTO 10009KT 10SM CLR 03/M02 A3020 RMK AO2=
METAR KU42 110255Z AUTO 18007KT 10SM SCT070 M07/M09 A3024 RMK AO1 T10661090=
METAR KU69 110255Z AUTO 26015G21KT 10SM CLR M06/M14 A3012 RMK A01=
METAR KVCV 110255Z AUTO 07006KT 10SM CLR 06/M08 A3022 RMK AO2=
METAR KVTP 110255Z AUTO 30005KT 10SM CLR M16/M24 A2987 RMK AO2=
METAR KWJF 110256Z 04005KT 10SM CLR 03/M02 A3020 RMK AO2 SLP242 T00281017
      53015=


889 
SAUS14 KAWN 110300 RRX
METAR K00U 110255Z AUTO 25010KT 10SM SCT039 SCT046 SCT055 M08/M12 A2984
      RMK A01=
METAR K0CO 110255Z AUTO 1/4SM +SN OVC003 M22/M25 A2961 RMK AO2=
METAR K0F2 110255Z AUTO 28014G22KT 7SM CLR 24/04 A2972 RMK AO2 T02350035=
METAR K4S1 110255Z AUTO 17008KT 7SM CLR 08/01 A3019 RMK AO2=
METAR K5T9 110255Z AUTO 10006KT 10SM CLR 17/09 A2977 RMK A01=
METAR K66R 110255Z AUTO 19010G15KT 10SM OVC014 25/22 A2982 RMK AO2
      T02450221=
METAR KARM 110255Z AUTO 18015KT 10SM BKN014 BKN031 OVC037 24/22 A2982
      RMK AO2 T02380215=
METAR KAXH 110255Z AUTO 21003KT 10SM BKN015 OVC020 25/24 A2983 RMK
      AO2 T02500241=
METAR KAZC 110255Z AUTO 05003KT 10SM CLR 00/M10 A3024 RMK AO2=
METAR KBIH 110256Z AUTO 00000KT 10SM CLR 00/M13 A3020 RMK AO2 SLP243
      T00001133 53024=
METAR KIFP 110255Z AUTO 05008KT 10SM CLR 11/M12 A3023 RMK AO2=
METAR KIKT 110255Z AUTO 16011KT 6SM BR CLR 23/23 A3003 RMK A01=
METAR KLAS 110256Z 04008KT 10SM CLR 08/M12 A3025 RMK AO2 SLP247 T00781117
      53023=
METAR KMHR 110255Z AUTO 10003KT 10SM CLR 03/00 A3022 RMK A01=
METAR KNUQ 110255Z AUTO 00000KT 10SM CLR 09/02 A3024 RMK AO2=
METAR KS21 110255Z AUTO 19008KT 10SM SCT046 OVC055 M00/M04 A3012 RMK
      AO2=
METAR KSFO 110256Z 27010KT 10SM FEW200 11/05 A3024 RMK AO2 SLP240 T01060050
      51014=
METAR KSLE 110256Z 18015G20KT 10SM OVC029 09/03 A3007 RMK AO2 RAB18E35
      SLP184 P0000 60000 T00890033 56022=
METAR KTPH 110256Z AUTO 02009KT 10SM CLR M03/M08 A3024 RMK AO2 SLP274
      T10331083 53016=
METAR KU52 110255Z AUTO 17004KT 10SM CLR M13/M15 A3025 RMK AO2=


890 
SAUS14 KAWN 110300 RRX
METAR K46U 110255Z AUTO 00000KT 10SM SCT028 OVC034 M07/M11 A3010 RMK
      A01=
METAR KBKD 110255Z AUTO 28010KT 7SM SCT031 SCT110 23/03 A2978 RMK AO2
      T02270033=
METAR KBPC 110255Z AUTO 36008KT 10SM OVC110 05/M05 A2994 RMK AO2=
METAR KBYY 110255Z AUTO 20011KT 7SM SCT020 SCT028 OVC038 23/22 A2982
      RMK AO2 T02400228=
METAR KBZN 110256Z 25008KT 10SM FEW070 M03/M16 A2993 RMK AO2 SLP186
      T10281156 50006=
METAR KC83 110255Z AUTO 24006KT 10SM CLR 04/01 A3025 RMK AO2=
METAR KCCB 110255Z AUTO 01004KT 10SM CLR 10/06 A3015 RMK AO2=
METAR KCPU 110255Z AUTO 13003KT 10SM 04/03 A3022 RMK AO2 T00410025=
METAR KCTB 110256Z AUTO 26032G41KT 10SM CLR M02/M11 A2961 RMK AO2 PK
      WND 26041/0246 SLP071 T10221111 58017=
METAR KCWC 110255Z AUTO 28008KT 10SM CLR 22/02 A2975 RMK AO2 T02210023=
METAR KDRA 110253Z AUTO 03011KT 10SM CLR 04/M08 A3022 RMK AO2 SLP234
      T00391083 51018=
METAR KDTA 110255Z AUTO 10SM CLR M08/M10 A3026 RMK AO1=
METAR KDZB 110255Z AUTO 20006KT 10SM CLR 22/17 A2980 RMK AO2 T02240173=
METAR KEBG 110255Z AUTO 16009KT 10SM BKN015 25/23 A2979 RMK AO2 T02480230
      TSNO=
METAR KELA 110255Z AUTO 20011G19KT 10SM OVC013 A2981 RMK AO2=
METAR KFOT 110255Z AUTO 00000KT 10SM CLR 04/04 A3023 RMK AO1=
METAR KGLE 110255Z AUTO 27010KT 5SM HZ OVC041 24/04 A2972 RMK AO2 T02350035=
METAR KMZJ 110255Z AUTO 35004KT 10SM FEW120 12/07 A3013 RMK AO2=
METAR KNKX 110255Z 00000KT 10SM CLR 09/07 A3013 RMK AO2 SLP199 T00890072
      50003 $=
METAR KSBP 110256Z 35005KT 10SM CLR 11/02 A3020 RMK AO2 SLP226 T01110017
      53017=


892 
SAUS14 KAWN 110300 RRX
METAR K1U7 110255Z AUTO 07003KT 10SM FEW020 BKN027 OVC033 M10/M11 A3010
      RMK A01=
METAR K2V5 110255Z AUTO 10SM SCT019 SCT032 BKN046 M02/M04 A2989 RMK
      AO2=
METAR K4V0 110255Z AUTO 00000KT 10SM CLR M15/M17 A3015 RMK AO2 T11521170=
METAR K63S 110255Z AUTO 00000KT 10SM BKN020 OVC028 M03/M04 A2995 RMK
      A01=
METAR K65S 110250Z AUTO 20005KT 4SM -SN FEW003 BKN023 OVC033 M01/M03
      A2993 RMK AO2=
METAR KALM 110255Z AUTO 00000KT 10SM CLR 10/M04 A3003 RMK AO2=
METAR KAPY 110255Z AUTO 00000KT 10SM CLR 25/20 A2978 RMK AO2 T02520200
      TSNO=
METAR KAVX 110251Z AUTO 07005KT 10SM CLR 09/07 A3015 RMK AO2 SLP214
      T00940072 53014=
METAR KBDN 110255Z AUTO 21008KT 10SM FEW070 03/M04 A3008 RMK AO2=
METAR KBJC 110254Z 28018G28KT 10SM FEW080 M03/M19 A2993=
METAR KKNB 110255Z AUTO 01015KT 10SM CLR M02/M15 A3027 RMK A01=
METAR KM75 110255Z AUTO 00000KT 10SM CLR M15/M16 A2972 RMK A01=
METAR KMVH 110255Z AUTO 28009G15KT 10SM CLR M06/M16 A2975 RMK AO2 PWINO=
METAR KRVF 110255Z AUTO 21011KT 10SM FEW043 FEW055 OVC065 M04/M15 A2998
      RMK AO2=
METAR KS39 110255Z AUTO 20006KT 10SM BKN044 BKN055 OVC075 03/M04 A3007
      RMK AO2=
METAR KSEZ 110255Z AUTO 03009KT 10SM CLR 02/M06 A3014 RMK AO2=
METAR KSVE 110255Z AUTO 29005KT 10SM CLR M03/M07 A3020 RMK AO2=
METAR KTCY 110255Z AUTO 21007KT 10SM CLR 07/00 A3024 RMK A01=
METAR KUKI 110256Z AUTO 25003KT 10SM CLR 06/01 A3023 RMK AO2 SLP236
      T00560006 53009=
METAR KVAF 110255Z AUTO 9SM CLR 25/22 A2986 RMK A01=
METAR KWBF 110255Z AUTO 16016G26KT 9SM FEW020 26/22 A2998 RMK A01=


893 
SAZZ40 KAWN 110300 RRF
METAR KBKF 110258Z 29008KT 10SM FEW100 M06/M16 A2992 RMK AO2A SLP161
      T10561162 51028=
METAR KCBM 110256Z AUTO 18014G21KT 10SM CLR 23/20 A2984 RMK AO2 PK
      WND 17026/27 SLP106 T02280199 58006 TSNO $=
METAR KEDW 110256Z 07005KT 30SM CLR 05/M03 A3018 RMK AO2A SLP233 T00491034
      52016=
METAR KGRF 110256Z 15018G22KT 10SM -RA BKN031 OVC040 07/03 A2988 RMK
      AO2A SLP124 P0000 60000 T00690031 57032 $=
METAR KHIF 110256Z 15010KT 10SM SCT070 M06/M11 A3019 RMK AO2A SLP256
      T10591107 52014 $=
METAR KIAB 110256Z AUTO 31019G26KT 10SM BKN140 03/M04 A2971 RMK AO2
      PK WND 31033/23 SLP066 T00251045 52049 $=
METAR KMCC 110255Z AUTO 00000KT 9SM CLR 07/02 A3023 RMK AO2=
METAR KNBG 110255Z 17009KT 9SM FEW015 SCT030 SCT045 23/22 A2996 RMK
      AO2 SLP145 T02330222 50008 $=
METAR KNSI 110253Z AUTO 32007KT 10SM CLR 08/07 A3015 RMK AO2 SLP208
      T00780067 51016 $=
METAR KNUQ 110255Z AUTO 00000KT 10SM CLR 09/02 A3024 RMK AO2=
METAR KSGH 110256Z AUTO 16011KT 2SM BR OVC002 13/ A2973 RMK AO2 RAB08E54
      SLP069 6//// T0128 58032 PNO $=
METAR OLBA 110300Z 09006KT 8000 NSC 15/06 Q1020 NOSIG=
METAR PAEI 110256Z 24003KT 5SM -SN BR OVC004 M13/M16 A2900 RMK AO2A
      SNB0150 SLP836 P0000 60000 T11341156 52024 $=
METAR PAGA 110256Z AUTO 27004KT 10SM CLR M22/M24 A2940 RMK AO2 SLP962
      T12221244 53027 FZRANO=
METAR PASC 110253Z 26010KT 3SM BR OVC041 M23/M26 A2942 RMK AO2 SNE30
      SLP965 T12281261 53011 PNO=
METAR RKSG 110256Z 00000KT 1 3/4SM BR FEW004 07/07 A3032 RMK AO2A TWR
      VIS 2 SLP271 T00700069 58009 $=


894 
SAZZ40 KAWN 110300 RRH
METAR KDLF 110256Z AUTO 03003KT 10SM BKN140 19/13 A2979 RMK AO2 SLP080
      T01930130 52024 $=
METAR KDOV 110256Z AUTO 00000KT 10SM OVC024 08/07 A3009 RMK AO2 SLP193
      60000 T00770071 55006 $=
METAR KEGI 110256Z AUTO 16013KT 10SM OVC004 22/21 A3005 RMK AO2 SLP175
      T02230211 51007 $=
METAR KFHU 110258Z AUTO 28007KT 10SM CLR 06/03 A3014 RMK AO2 SLP188
      T00550028 52015=
METAR KFSI 110256Z AUTO 36019G27KT 10SM CLR 12/M01 A2975 RMK AO2 PK
      WND 34028/17 PRESRR SLP071 T01171011 52055=
METAR KGUS 110256Z 16019G26KT 3SM BR OVC002 14/13 A2946 RMK AO2A PK
      WND 17026/33 DZB15E18RAB18E26DZB26E27RAB27E28 SLP980 P0000
      60000 T01370131 58067 $=
METAR KLFI 110256Z AUTO 20003KT 4SM -DZ OVC006 10/10 A3010 RMK AO2
      RAB46E47DZB47 CIG 005 RWY08 SLP199 P0000 60000 T01040102
      57011 $=
METAR KMCF 110256Z AUTO 06003KT 10SM FEW044 21/21 A3009 RMK AO2 SLP192
      T02080206 52006 FZRANO $=
METAR KMGE 110256Z 10006KT 1/2SM R11/2400V2600FT FG VV002 12/12 A3005
      RMK AO2A SLP178 T01200120 58001 $=
METAR KMXF 110256Z AUTO 18007KT 10SM BKN016 BKN023 21/19 A2999 RMK
      AO2 CIG 016V023 BKN016 V SCT SLP158 T02120193 52009=
METAR KNJK 110256Z AUTO 03005KT 10SM CLR 13/03 A3017 RMK AO2 SLP232
      T01330028 51019 $=
METAR KNYG 110256Z AUTO 00000KT 7SM OVC024 09/07 A3009 RMK AO2 SLP188
      60000 T00940067 58002 $=
METAR KRDR 110256Z AUTO 00000KT 10SM CLR M07/M11 A2972 RMK AO2 SLP088
      T10701107 56009 $=
METAR KTTS 110256Z AUTO 00000KT 10SM CLR 17/16 A3013 RMK AO2 VIS 1
      3/8 RWY15 VIS 1/2 RWY15/33 SLP207 T01660158 50005 $=


895 
SAUS14 KAWN 110300 RRX
METAR KGNG 110255Z AUTO 20006KT 10SM SCT050 OVC060 M02/M06 A3022 RMK
      AO2=
METAR KGOO 110250Z AUTO 00000KT 10SM CLR 02/M01 A3017 RMK A01=
METAR KGPM 110255Z AUTO 22005KT 10SM BKN001 24/06 A2974 RMK AO2 T02400058=
METAR KGYB 110255Z AUTO 17006KT 7SM OVC012 24/22 A2980 RMK AO2 T02360218=
METAR KGYI 110255Z AUTO 25009KT 7SM SCT026 23/05 A2970 RMK AO2 T02280054=
METAR KHCR 110255Z AUTO 08004KT 10SM BKN046 BKN050 M12/M16 A3018 RMK
      AO2=
METAR KHHF 110255Z AUTO 34019G24KT 10SM BKN110 05/M04 A2991 RMK AO2
      T00451040=
METAR KHHV 110255Z AUTO 18024G30KT 4SM HZ FEW011 25/23 A2983 RMK A01=
METAR KHMT 110255Z AUTO 05004KT 10SM CLR 07/03 A3015 RMK AO2 T00700032=
METAR KHRX 110255Z AUTO 02014G19KT 10SM CLR 05/M04 A2994 RMK AO2 T00481039=
METAR KHTH 110255Z AUTO 15004KT 8SM CLR M03/M07 A3024 RMK A01=
METAR KHVE 110255Z AUTO 31003KT 10SM CLR M03/M15 A3025 RMK AO2=
METAR KO05 110255Z AUTO 00000KT 10SM FEW060 M03/M06 A3017 RMK A01=
METAR KO69 110255Z AUTO 00000KT 10SM CLR 03/01 A3025 RMK A01=
METAR KO86 110250Z AUTO 00000KT 9SM CLR 00/M02 A3020 RMK AO1=
METAR KOMK 110253Z AUTO 00000KT 10SM FEW035 SCT055 OVC070 M01/M03 A2989
      RMK AO2 SLP136 T10111033 58024=
METAR KORS 110255Z AUTO 17015G26KT 10SM OVC019 07/05 A2974 RMK AO2=
METAR KP08 110255Z AUTO 33003KT 10SM FEW120 13/08 A3012 RMK AO2=
METAR KPKV 110255Z AUTO 18014G19KT 7SM BKN025 25/23 A2980 RMK AO2 T02500225=
METAR KPRS 110255Z AUTO 30011KT 10SM CLR 20/06 A2996 RMK AO2 T01990055=
METAR KPVF 110255Z AUTO 10003KT 10SM BKN020 03/02 A3021 RMK AO1=
METAR KPWD 110255Z AUTO 00000KT 10SM CLR M12/M15 A2971 RMK A01=
METAR KPYX 110255Z AUTO 33016G24KT 10SM SCT026 BKN034 OVC047 03/M03
      A2989 RMK AO2 T00301033=
METAR KRDM 110256Z 19008KT 10SM SCT075 OVC090 04/M04 A3005 RMK AO2
      SLP196 T00441044 58009=


896 
SANA35 KAWN 110300 RRB
METAR KBAD 110256Z AUTO 18014KT 10SM SCT021 BKN027 BKN033 24/20 A2973
      RMK AO2 CIG 021V027 BKN027 V OVC SLP069 T02350200 50008=
METAR KBOS 110254Z 32005KT 10SM OVC028 03/M01 A3018 RMK AO2 SLP218
      T00281006 58003=
METAR KCHS 110256Z 14006KT 10SM FEW040 FEW050 SCT100 14/12 A3014 RMK
      AO2 SLP204 T01390122 58002=
METAR KCOF 110256Z AUTO 00000KT 10SM CLR 22/22 A3012 RMK AO2 SLP204
      T02220220 50003 $=
METAR KHST 110256Z AUTO 07004KT 10SM CLR 23/21 A3010 RMK AO2 SLP196
      T02340209 50007=
METAR KNBG 110255Z 17009KT 9SM FEW015 SCT030 SCT045 23/22 A2996 RMK
      AO2 SLP145 T02330222 50008 $=
METAR KNIP 110253Z 16007KT 10SM CLR 20/19 A3014 RMK AO2 SLP202 T02000194
      51003=
METAR KNRB 110252Z AUTO 16008KT 10SM CLR 21/19 A3014 RMK AO2 SLP204
      T02060194 51003=
METAR KPAM 110256Z AUTO 15011KT 9SM OVC003 22/21 A3006 RMK AO2 SLP182
      T02150206 50002 $=
METAR KPHL 110254Z 08003KT 10SM -RA OVC043 08/03 A3011 RMK AO2 RAB21
      PRESFR SLP196 P0000 60000 T00830033 56010=
METAR KPOB 110256Z AUTO 24005KT 10SM OVC015 12/12 A3012 RMK AO2 CIG
      014 RWY05 SLP203 60000 T01210116 58005 $=
METAR KSYR 110254Z 07006KT 10SM BKN050 BKN180 03/01 A3004 RMK AO2 SLP170
      T00280006 58008=
METAR KVAD 110256Z AUTO 18003KT 8SM CLR 18/17 A3010 RMK AO2 SLP194
      T01790169 50005 $=
METAR SPJC 110300Z 15010KT CAVOK 19/16 Q1014 NOSIG RMK PP000=
METAR TJNR 110253Z AUTO 05010KT 10SM FEW024 26/23 A3001 RMK AO2 SLP161
      60001 T02610233 51004=


897 
SANA14 KAWN 110300 RRB
METAR KEGI 110256Z AUTO 16013KT 10SM OVC004 22/21 A3005 RMK AO2 SLP175
      T02230211 51007 $=
METAR KNIP 110253Z 16007KT 10SM CLR 20/19 A3014 RMK AO2 SLP202 T02000194
      51003=
METAR KNKX 110255Z 00000KT 10SM CLR 09/07 A3013 RMK AO2 SLP199 T00890072
      50003 $=
METAR KNMM 110256Z AUTO 18007KT 10SM SCT017 BKN022 OVC043 22/21 A2993
      RMK AO2 SLP141 T02220206 50000=
METAR KNSI 110253Z AUTO 32007KT 10SM CLR 08/07 A3015 RMK AO2 SLP208
      T00780067 51016 $=
METAR KNTD 110252Z 06003KT 10SM CLR 10/07 A3017 RMK AO2 SLP219 T01000067
      51019 CHINO N VISNO N $=
METAR KNYG 110256Z AUTO 00000KT 7SM OVC024 09/07 A3009 RMK AO2 SLP188
      60000 T00940067 58002 $=
METAR KPSM 110256Z 01003KT 10SM BKN012 OVC024 M01/M05 A3021 RMK AO2A
      SLP234 T10081049 53002=
METAR KRDR 110256Z AUTO 00000KT 10SM CLR M07/M11 A2972 RMK AO2 SLP088
      T10701107 56009 $=
METAR KRIV 110256Z AUTO 00000KT 10SM CLR 06/04 A3014 RMK AO2 SLP210
      T00630035 50009=
METAR KRND 110256Z AUTO 14003KT 10SM CLR 20/19 A2977 RMK AO2 SLP075
      T02020187 52020=
METAR KSGH 110256Z AUTO 16011KT 2SM BR OVC002 13/ A2973 RMK AO2 RAB08E54
      SLP069 6//// T0128 58032 PNO $=
METAR KSSC 110256Z AUTO 11003KT 2 1/2SM BR OVC003 11/11 A3012 RMK AO2
      OVC V BKN SLP202 T01140106 58005=
METAR KTTS 110256Z AUTO 00000KT 10SM CLR 17/16 A3013 RMK AO2 VIS 1
      3/8 RWY15 VIS 1/2 RWY15/33 SLP207 T01660158 50005 $=
METAR SPJC 110300Z 15010KT CAVOK 19/16 Q1014 NOSIG RMK PP000=


898 
SAZZ40 KAWN 110300 RRG
METAR K9L2 110258Z AUTO 01005KT 10SM CLR 04/M04 A3020 RMK AO2 SLP240
      T00441036 53018=
METAR KBAD 110256Z AUTO 18014KT 10SM SCT021 BKN027 BKN033 24/20 A2973
      RMK AO2 CIG 021V027 BKN027 V OVC SLP069 T02350200 50008=
METAR KFBG 110256Z AUTO 22003KT 4SM BR OVC017 11/11 A3012 RMK AO2 SLP203
      60001 T01140112 58004 $=
METAR KHRT 110256Z AUTO 15009KT 10SM OVC006 22/21 A3004 RMK AO2 SLP174
      T02190209 52008 $=
METAR KHST 110256Z AUTO 07004KT 10SM CLR 23/21 A3010 RMK AO2 SLP196
      T02340209 50007=
METAR KLRF 110256Z 21009KT 10SM CLR 20/19 A2959 RMK AO2A PK WND 24056/21
      LTG DSNT NE-E RAE37 TSE41 SLP021 P0107 60112 T01990189 55015=
METAR KNBG 110255Z 17009KT 9SM FEW015 SCT030 SCT045 23/22 A2996 RMK
      AO2 SLP145 T02330222 50008 $=
METAR KNIP 110253Z 16007KT 10SM CLR 20/19 A3014 RMK AO2 SLP202 T02000194
      51003=
METAR KNKX 110255Z 00000KT 10SM CLR 09/07 A3013 RMK AO2 SLP199 T00890072
      50003 $=
METAR KNMM 110256Z AUTO 18007KT 10SM SCT017 BKN022 OVC043 22/21 A2993
      RMK AO2 SLP141 T02220206 50000=
METAR KNTD 110252Z 06003KT 10SM CLR 10/07 A3017 RMK AO2 SLP219 T01000067
      51019 CHINO N VISNO N $=
METAR KRND 110256Z AUTO 14003KT 10SM CLR 20/19 A2977 RMK AO2 SLP075
      T02020187 52020=
METAR KWJF 110256Z 04005KT 10SM CLR 03/M02 A3020 RMK AO2 SLP242 T00281017
      53015=
METAR PMDY 110256Z AUTO 08014KT 10SM FEW017 SCT028 25/21 A3003 RMK
      AO2 SLP167 6//// T02500211 55003=
METAR TJSJ 110256Z 08010KT 10SM FEW025 SCT033 SCT055 27/22 A3000 RMK
      AO2 SLP156 T02670217 51004=


127 
SAUS17 KAWN 110300 RRD
METAR KADW 110256Z AUTO 00000KT 10SM OVC021 08/07 A3006 RMK AO2 CIG
      020 RWY19R SLP188 60001 T00810066 58002 $=
METAR KBIX 110256Z 17007KT 1/2SM FG VV001 21/09 A2997 RMK SLP152 T02050194
      52009=
METAR KBYS 110258Z AUTO 32006KT 10SM CLR 04/M11 A3021 RMK AO2 SLP238
      T00421115 52012 $=
METAR KFAF 110256Z AUTO 14003KT 1 3/8SM -RA OVC002 10/07 A3009 RMK
      AO2 RAB52 SLP193 P0000 60000 T00980072 57012 $=
METAR KGRK 110256Z AUTO 22007KT 10SM CLR 22/18 A2975 RMK AO2 SLP066
      T02200176 52021=
METAR KGSB 110256Z 14005KT 4SM -RA SCT005 OVC030 12/11 A3010 RMK AO2A
      RAB16E35RAB51 SLP197 P0000 60000 T01150109 58002 $=
METAR KLSF 110256Z AUTO 16005KT 7/8SM R15/4500V6000FT BR FEW014 18/18
      A3002 RMK AO2 VIS 7/8V1 3/8 SLP170 T01820179 50004=
METAR KLTS 110256Z 35022G29KT 10SM CLR 11/M02 A2980 RMK AO2A PK WND
      34033/50 PRESRR SLP087 T01061024 52061 $=
METAR KMCF 110256Z AUTO 06003KT 10SM FEW044 21/21 A3009 RMK AO2 SLP192
      T02080206 52006 FZRANO $=
METAR KMIB 110256Z AUTO 28012KT 10SM CLR M09/M13 A2969 RMK AO2 SLP090
      T10861133 55003 $=
METAR KMMT 110256Z AUTO 14003KT 5SM BR OVC002 12/12 A3012 RMK AO2 SLP203
      T01150115 58004 $=
METAR KMUI 110256Z 05004KT 10SM OVC037 06/00 A3008 RMK AO2A SLP192
      T00640001 58007=
METAR KNBC 110256Z 15005KT 10SM CLR 15/13 A3013 RMK AO2 SLP204 T01500133
      58004=
METAR KNCA 110256Z AUTO 25003KT 5SM BR BKN050 OVC065 16/16 A3013 RMK
      AO2 SLP205 60000 T01610156 50003=
METAR KSSC 110256Z AUTO 11003KT 2 1/2SM BR OVC003 11/11 A3012 RMK AO2
      OVC V BKN SLP202 T01140106 58005=


130 
SAZZ40 KAWN 110300 RRI
METAR KADW 110256Z AUTO 00000KT 10SM OVC021 08/07 A3006 RMK AO2 CIG
      020 RWY19R SLP188 60001 T00810066 58002 $=
METAR KBIX 110256Z 17007KT 1/2SM FG VV001 21/09 A2997 RMK SLP152 T02050194
      52009=
METAR KBYS 110258Z AUTO 32006KT 10SM CLR 04/M11 A3021 RMK AO2 SLP238
      T00421115 52012 $=
METAR KFAF 110256Z AUTO 14003KT 1 3/8SM -RA OVC002 10/07 A3009 RMK
      AO2 RAB52 SLP193 P0000 60000 T00980072 57012 $=
METAR KGRK 110256Z AUTO 22007KT 10SM CLR 22/18 A2975 RMK AO2 SLP066
      T02200176 52021=
METAR KGTB 110256Z AUTO 14010KT 10SM OVC040 02/M02 A3003 RMK AO2 SLP176
      T00191017 55000=
METAR KLSF 110256Z AUTO 16005KT 7/8SM R15/4500V6000FT BR FEW014 18/18
      A3002 RMK AO2 VIS 7/8V1 3/8 SLP170 T01820179 50004=
METAR KLTS 110256Z 35022G29KT 10SM CLR 11/M02 A2980 RMK AO2A PK WND
      34033/50 PRESRR SLP087 T01061024 52061 $=
METAR KMIB 110256Z AUTO 28012KT 10SM CLR M09/M13 A2969 RMK AO2 SLP090
      T10861133 55003 $=
METAR KMUI 110256Z 05004KT 10SM OVC037 06/00 A3008 RMK AO2A SLP192
      T00640001 58007=
METAR KPSM 110256Z 01003KT 10SM BKN012 OVC024 M01/M05 A3021 RMK AO2A
      SLP234 T10081049 53002=
METAR KSSC 110256Z AUTO 11003KT 2 1/2SM BR OVC003 11/11 A3012 RMK AO2
      OVC V BKN SLP202 T01140106 58005=
METAR KVPS 110256Z 15010KT 5SM BR OVC007 22/21 A3004 RMK AO2A CIG 005
      RWY01 CIG 005 RWY12 CIG 005 RWY30 SLP179 T02180214 50007 $=
METAR KWRI 110256Z AUTO 00000KT 10SM OVC050 06/03 A3013 RMK AO2 SLP203
      T00610029 55005 $=
METAR OTBH 110256Z AUTO 31006KT 8000 BR CLR 17/16 A3017 RMK AO2 SLP218
      T01730160 53015 $=


132 
SAUS14 KAWN 110300 RRX
METAR K3S8 110255Z AUTO 00000KT 7SM SCT110 03/02 A3022 RMK AO2=
METAR K6R3 110255Z AUTO 18006KT 7SM SCT018 BKN032 OVC060 25/24 A2983
      RMK AO2 T02450236=
METAR K6S0 110255Z AUTO 27032G43KT 10SM CLR M02/M18 A2980 RMK A01=
METAR KAEJ 110255Z AUTO 24007G20KT 10SM CLR M09/M22 A2993 RMK AO2 T10931219=
METAR KBAM 110255Z AUTO 18004KT 10SM CLR M04/M08 A3023 RMK AO1=
METAR KBDU 110255Z AUTO 30007G11KT 10SM CLR M02/M18 A2994 RMK AO2=
METAR KHQZ 110255Z AUTO 22005KT 10SM SCT046 BKN050 23/17 A2973 RMK
      AO1 T02300171=
METAR KHRF 110255Z AUTO 18011KT 10SM FEW037 OVC044 00/M08 A2998 RMK
      AO2=
METAR KIKG 110255Z AUTO 14004KT 10SM CLR 24/22 A2979 RMK AO2 T02360219=
METAR KINJ 110255Z AUTO 24006KT 10SM CLR 23/19 A2976 RMK AO2 T02310188=
METAR KJTC 110255Z AUTO 33007KT 10SM CLR M02/M10 A3016 RMK AO2=
METAR KJWY 110255Z AUTO 27004KT 10SM BKN045 OVC060 23/16 A2975 RMK
      AO2 T02270163=
METAR KLHB 110255Z AUTO 15006KT A2978 RMK AO2 PWINO=
METAR KLHM 110255Z AUTO 00000KT 10SM CLR 04/01 A3022 RMK AO1=
METAR KLNC 110255Z AUTO 24004KT 10SM CLR 24/16 A2974 RMK AO2 T02400155=
METAR KLUD 110255Z AUTO 25007KT 5SM HZ OVC008 23/04 A2973 RMK AO2 T02310037=
METAR KLUV 110255Z AUTO 24015KT 10SM CLR 15/00 A2990 RMK AO2=
METAR KLWS 110256Z 14003KT 10SM OVC070 02/M01 A3006 RMK AO2 SLP191
      T00221011 58006=
METAR KLXY 110255Z AUTO 19011G19KT 10SM CLR 23/20 A2975 RMK AO2 T02340202=
METAR KMCC 110255Z AUTO 00000KT 9SM CLR 07/02 A3023 RMK AO2=
METAR KMDD 110255Z AUTO 26010KT 10SM CLR 16/00 A2992 RMK AO2 T01571001=
METAR KMKN 110255Z AUTO 27006KT 10SM CLR 21/05 A2981 RMK AO2 T02080051=
METAR KPEZ 110255Z AUTO 07006KT 10SM CLR 23/18 A2978 RMK AO2 T02280184=
METAR KU55 110255Z AUTO 10004KT 10SM CLR M14/M17 A3022 RMK A01=


133 
SAUS17 KAWN 110300 RRC
METAR KDLF 110256Z AUTO 03003KT 10SM BKN140 19/13 A2979 RMK AO2 SLP080
      T01930130 52024 $=
METAR KDOV 110256Z AUTO 00000KT 10SM OVC024 08/07 A3009 RMK AO2 SLP193
      60000 T00770071 55006 $=
METAR KEGI 110256Z AUTO 16013KT 10SM OVC004 22/21 A3005 RMK AO2 SLP175
      T02230211 51007 $=
METAR KFHU 110258Z AUTO 28007KT 10SM CLR 06/03 A3014 RMK AO2 SLP188
      T00550028 52015=
METAR KFSI 110256Z AUTO 36019G27KT 10SM CLR 12/M01 A2975 RMK AO2 PK
      WND 34028/17 PRESRR SLP071 T01171011 52055=
METAR KGUS 110256Z 16019G26KT 3SM BR OVC002 14/13 A2946 RMK AO2A PK
      WND 17026/33 DZB15E18RAB18E26DZB26E27RAB27E28 SLP980 P0000
      60000 T01370131 58067 $=
METAR KHFF 110256Z AUTO 24004KT 10SM OVC008 12/12 A3010 RMK AO2 SLP196
      T01220116 55003 $=
METAR KHRT 110256Z AUTO 15009KT 10SM OVC006 22/21 A3004 RMK AO2 SLP174
      T02190209 52008 $=
METAR KLFI 110256Z AUTO 20003KT 4SM -DZ OVC006 10/10 A3010 RMK AO2
      RAB46E47DZB47 CIG 005 RWY08 SLP199 P0000 60000 T01040102
      57011 $=
METAR KLRF 110256Z 21009KT 10SM CLR 20/19 A2959 RMK AO2A PK WND 24056/21
      LTG DSNT NE-E RAE37 TSE41 SLP021 P0107 60112 T01990189 55015=
METAR KMGE 110256Z 10006KT 1/2SM R11/2400V2600FT FG VV002 12/12 A3005
      RMK AO2A SLP178 T01200120 58001 $=
METAR KMXF 110256Z AUTO 18007KT 10SM BKN016 BKN023 21/19 A2999 RMK
      AO2 CIG 016V023 BKN016 V SCT SLP158 T02120193 52009=
METAR KNBG 110255Z 17009KT 9SM FEW015 SCT030 SCT045 23/22 A2996 RMK
      AO2 SLP145 T02330222 50008 $=
METAR KNJK 110256Z AUTO 03005KT 10SM CLR 13/03 A3017 RMK AO2 SLP232
      T01330028 51019 $=


134 
SAUS14 KAWN 110300 RRX
METAR K9L2 110258Z AUTO 01005KT 10SM CLR 04/M04 A3020 RMK AO2 SLP240
      T00441036 53018=
METAR KBQX 110255Z AUTO 18019KT 5SM BR BKN030 24/23 A2982 RMK A01=
METAR KCEC 110256Z AUTO 00000KT 9SM CLR 06/04 A3022 RMK AO2 SLP234
      T00610044 58010=
METAR KCXP 110255Z AUTO 00000KT 10SM CLR M01/M08 A3021 RMK AO2=
METAR KDSF 110255Z AUTO 13011KT 5SM BR CLR 24/23 A3003 RMK A01=
METAR KDWA 110250Z AUTO 00000KT 10SM CLR 06/M00 A3024 RMK AO2=
METAR KEDC 110255Z AUTO 20006KT 7SM FEW018 22/22 A2978 RMK AO2=
METAR KEDU 110255Z AUTO 00000KT 10SM CLR 04/00 A3024 RMK AO1=
METAR KEED 110256Z AUTO 33010KT 10SM CLR 11/M11 A3021 RMK AO2 SLP222
      T01111111 51021=
METAR KEKO 110256Z AUTO 25006KT 10SM CLR M06/M11 A3020 RMK AO2 SLP270
      T10611111 52005=
METAR KEKS 110255Z AUTO 16013KT 10SM FEW049 OVC060 M04/M17 A3000 RMK
      AO2=
METAR KF05 110255Z AUTO 35020G28KT 10SM CLR 17/M02 A2979 RMK AO2 T01691018=
METAR KF44 110255Z AUTO 19006KT 10SM CLR 23/19 A2972 RMK AO2=
METAR KF46 110255Z AUTO 20006KT 10SM BKN043 BKN050 22/19 A2972 RMK
      AO2 T02150186=
METAR KF70 110255Z AUTO 34003KT 10SM CLR 07/02 A3015 RMK AO2=
METAR KFTN 110255Z AUTO 00000KT 10SM 24/13 A2978 RMK A01=
METAR KFWS 110255Z AUTO 26005KT 10SM CLR 22/04 A2975 RMK AO2 T02220046=
METAR KGDJ 110255Z AUTO 27009KT 10SM CLR 22/05 A2976 RMK AO2 T02160050=
METAR KNTD 110252Z 06003KT 10SM CLR 10/07 A3017 RMK AO2 SLP219 T01000067
      51019 CHINO N VISNO N $=
METAR KRND 110256Z AUTO 14003KT 10SM CLR 20/19 A2977 RMK AO2 SLP075
      T02020187 52020=
METAR KWMC 110256Z AUTO 17010KT 10SM CLR M03/M07 A3020 RMK AO2 SLP262
      T10281072 51003=


135 
SAUS17 KAWN 110300 RRB
METAR KBAD 110256Z AUTO 18014KT 10SM SCT021 BKN027 BKN033 24/20 A2973
      RMK AO2 CIG 021V027 BKN027 V OVC SLP069 T02350200 50008=
METAR KBKF 110258Z 29008KT 10SM FEW100 M06/M16 A2992 RMK AO2A SLP161
      T10561162 51028=
METAR KCBM 110256Z AUTO 18014G21KT 10SM CLR 23/20 A2984 RMK AO2 PK
      WND 17026/27 SLP106 T02280199 58006 TSNO $=
METAR KDYS 110256Z AUTO 25009KT 10SM CLR 20/M00 A2981 RMK AO2 SLP065
      T02031004 52027=
METAR KEDW 110256Z 07005KT 30SM CLR 05/M03 A3018 RMK AO2A SLP233 T00491034
      52016=
METAR KFBG 110256Z AUTO 22003KT 4SM BR OVC017 11/11 A3012 RMK AO2 SLP203
      60001 T01140112 58004 $=
METAR KFCS 110255Z 33012KT 10SM FEW200 M03/M27 A2995 RMK AO2A SLP234
      WND DATA ESTMD=
METAR KGRF 110256Z 15018G22KT 10SM -RA BKN031 OVC040 07/03 A2988 RMK
      AO2A SLP124 P0000 60000 T00690031 57032 $=
METAR KHIF 110256Z 15010KT 10SM SCT070 M06/M11 A3019 RMK AO2A SLP256
      T10591107 52014 $=
METAR KHST 110256Z AUTO 07004KT 10SM CLR 23/21 A3010 RMK AO2 SLP196
      T02340209 50007=
METAR KIAB 110256Z AUTO 31019G26KT 10SM BKN140 03/M04 A2971 RMK AO2
      PK WND 31033/23 SLP066 T00251045 52049 $=
METAR KLHW 110256Z AUTO 12003KT 8SM CLR 15/14 A3011 RMK AO2 SLP199
      T01500144 50001 $=
METAR KMCC 110255Z AUTO 00000KT 9SM CLR 07/02 A3023 RMK AO2=
METAR KNBG 110255Z 17009KT 9SM FEW015 SCT030 SCT045 23/22 A2996 RMK
      AO2 SLP145 T02330222 50008 $=
METAR KNUQ 110255Z AUTO 00000KT 10SM CLR 09/02 A3024 RMK AO2=
METAR PPIZ 110256Z AUTO 32021KT 4SM -SN BR OVC014 M19/M22 A2957 RMK
      AO2 SLP016 6//// T11941217 53013 FZRANO PNO $=


555 
SAXX70 KAWN 110300 RRC
METAR KQEX 110250Z AUTO 34001KT 4800 HZ FEW180 10/03 A3023 RMK A02
      TSNO=
METAR KQD3 110256Z AUTO 21003KT 9999 CLR 22/16 A3002 RMK AO2 SLP150
      WND DATA ESTMD T02180157=
METAR KQDG 110256Z AUTO 00000KT 9999 SCT043 OVC055 09/M01 A3066 RMK
      AO2 SLP384 T00861012 55024 PNO $=
METAR KQHY 110256Z AUTO 00000KT 9SM FEW009 BKN013 OVC024 22/22 A3005
      RMK AO2 SLPNO T02210219 52007=
METAR KQRH 110256Z AUTO VRB03KT 2800 HZ CLR 22/17 A2998 RMK AO2 SLPNO
      WND DATA ESTMD T02220169=
METAR KQVF 110256Z AUTO VRB03KT 9999 FEW100 SCT120 26/23 A2988 RMK
      AO2 SLP121 WND DATA ESTMD T02640229 53016=


046 
SACV20 GVAC 110300
METAR GVAC 110300Z 04013KT 9999 FEW014 SCT100 21/17 Q1012 NOSIG=
METAR GVNP 110300Z 03016KT 9999 FEW020 22/18 Q1011 NOSIG=
METAR GVSV 110300Z 06017KT 9000 SCT022 21/16 Q1012 NOSIG=

048 
SAMZ40 FQMA 110300
METAR FQMA 110300Z 10006KT 9999 SCT025 25/24 Q1011 NOSIG=

185 
SASM20 SMJP 110300
METAR SMJP 110300Z 10003KT 9999 FEW005 SCT008 24/24 Q1009 NOSIG=
METAR SMZO 110300Z NIL=


557 
SAZZ40 KAWN 110300 RRJ
METAR ETAR 110256Z 26004KT 9999 OVC017 02/02 A2973 RMK AO2A CIG 015
      RWY08 SLP082 T00200020 52040 $=
METAR KBIF 110258Z AUTO 17010KT 10SM CLR 13/00 A3003 RMK AO2 SLP135
      T01260004 51025 $=
METAR KGSB 110256Z 14005KT 4SM -RA SCT005 OVC030 12/11 A3010 RMK AO2A
      RAB16E35RAB51 SLP197 P0000 60000 T01150109 58002 $=
METAR KMMT 110256Z AUTO 14003KT 5SM BR OVC002 12/12 A3012 RMK AO2 SLP203
      T01150115 58004 $=
METAR KNBC 110256Z 15005KT 10SM CLR 15/13 A3013 RMK AO2 SLP204 T01500133
      58004=
METAR KNCA 110256Z AUTO 25003KT 5SM BR BKN050 OVC065 16/16 A3013 RMK
      AO2 SLP205 60000 T01610156 50003=
METAR KNFE 110256Z AUTO 00000KT 10SM FEW029 OVC046 11/08 A3011 RMK
      AO2 SLP197 T01060083 58013=
METAR KNTU 110256Z 13003KT 9SM SCT025 BKN050 OVC190 12/09 A3010 RMK
      AO2 SLP196 T01170089 58013=
METAR KSKF 110256Z AUTO 34005KT 10SM CLR 20/18 A2976 RMK AO2 SLP072
      T02020176 52015 $=
METAR NFFN 110300Z 06008KT 9999 -TSRA FEW018CB SCT026TCU 31/24 Q1009
      TEMPO 5000 TSRA=
METAR OKAS 110258Z AUTO 30010KT 9999 CLR 09/04 A3020 RMK AO2 SLP226
      T00930039 53004 $=
METAR PAFR 110258Z AUTO 17006KT 10SM BKN019 OVC026 M06/M10 A2877 RMK
      AO2 SLP753 T10611098 52028 PNO $=
METAR PGUA 110256Z 10012KT 10SM FEW009 SCT016 BKN23 28/24 A2982 RMK
      AO2A RAE0159 SLP088 P0000 60001 T02760242 57021 $=
METAR PHSF 110258Z AUTO 24004KT 10SM CLR 19/05 A3031 RMK AO2 PK WND
      12028/02 SLP146 T01930053 53008 $=
METAR RKJK 110256Z 13005KT 1 3/8SM BR OVC002 08/07 A3031 RMK AO2A SLP269
      T00780069 58012 $=


511 
SAUY41 SULS 110300
METAR SULS 110300Z 07006KT 040V110 CAVOK 17/14 Q1011=


109 
SAMX45 MMMY 110300
METAR MMAN 110240Z 00000KT 7SM  FEW070 20/11 A2984 
      RMK SLP/// 5//// 9// 8/030=
METAR MMCS 110243Z 30006KT 10SM  SKC 11/02 A3007 
      RMK SLP135 52026 940 ISOL SC=
METAR MMCU 110247Z 29007KT 10SM  FEW040 BKN200 17/02 A3007 
      RMK SLP114 52034 912 8/502=
METAR MMCV 110259Z  NIL=
METAR MMIO 110259Z  NIL=
METAR MMMV 110259Z  NIL=
METAR MMMY 110240Z 00000KT 8SM  BKN200 22/13 A2973 
      RMK SLP/// 5//// 9// 8/008 ISOL AC=
METAR MMRX 110259Z  NIL=
METAR MMTC 110244Z 24013KT 10SM  BKN120 27/00 A2997 
      RMK SLP063 50014 963 8/070=


110 
SAMX42 MMGL 110300
METAR MMAS 110259Z  NIL=
METAR MMEP 110259Z  NIL=
METAR MMGL 110243Z 21005KT 10SM  SKC 15/M02 A3019 
      RMK SLP152 52010 964 CI=
METAR MMIA 110240Z 36010KT 6SM  SKC 23/16 A3000=
METAR MMLO 110245Z 00000KT 8SM  SKC 12/M02 A3028 RMK SLP158 52013 967=
METAR MMMM 110242Z 11004KT 6SM  SKC 11/03 A3024 
      RMK SLP162 52014 960 HZY=
METAR MMPN 110259Z  NIL=
METAR MMPR 110241Z 00000KT 10SM  SCT200 23/21 A2993 
      RMK SLP133 52014 961 8/001=
METAR COR MMSP 110252Z 07006KT 8SM  SKC 13/M01 A3019 
      RMK SLP122 52009 965 CI=
METAR MMZC 110243Z 18005KT 10SM  FEW150 12/M02 A3025 RMK 8/010=


112 
SAMX44 MMMD 110300
METAR MMCE 110256Z 12008KT 7SM  SKC 27/22 A2992 RMK SLP129 55017 967=
METAR MMCM 110259Z  NIL=
METAR MMCP 110259Z  NIL=
METAR MMCZ 110240Z 10007KT 7SM  FEW015 24/24 A3000 
      RMK SLP152 52008 964 8/500=
METAR MMMD 110246Z 14008KT 7SM  SKC 25/20 A2998 RMK SLP153 52016 977=
METAR MMMT 110259Z  NIL=
METAR MMTG 110240Z 26004KT 7SM  FEW300 24/18 A2994 
      RMK SLP106 52025 962 8/002 HZY=
METAR MMTP 110240Z 00000KT 8SM  SKC 23/23 A2987 
      RMK SLP137 52016 958 HZY=
METAR MMUN 110247Z 10012KT 7SM  SCT015 27/24 A3001 
      RMK SLP166 52011 967 8/100 MDT CU=
METAR MMVA 110243Z 07008KT 7SM  SKC 25/22 A2990 RMK SLP124 52014 966=


113 
SAPK31 OPST 110300
METAR OPST 110255Z 00000KT 1500 BR NSC 07/05 Q1019 BECMG 2500 RH85=


116 
SAMX43 MMMZ 110300
METAR MMCL 110246Z 34004KT 10SM  FEW230 22/18 A2996 
      RMK SLP144 52010 904 8/002 HZY=
METAR MMDO 110245Z 24005KT 10SM  SCT070 BKN200 14/1 A3024       RMK 8/078=
METAR MMGM 110259Z  NIL=
METAR MMHO 110248Z 29004KT 10SM  FEW200 16/11 A3006 
      RMK SLP183 52016 927 8/008=
METAR MMLM 110241Z 31008KT 10SM  SCT220 19/14 A3000 RMK SLP1510 8/001=
METAR MMLP 110242Z 00000KT 10SM SCT200 19/12 A3003
      NOSIG RMK 8/008=
METAR MMML 110240Z 33007KT 10SM  SCT120 BKN200 15/M08 A3016 
      RMK SLP213 52020 947 8/038=
METAR MMMZ 110242Z 00000KT 12SM  SKC 20/17 A2994 RMK SLP138 52007 913=
METAR MMSD 110245Z 29005KT 8SM  SCT120 22/16 A3003 
      RMK SLP153 52017 909 8/030 SC=
METAR MMSL 110243Z 28011KT 8SM  SKC 21/16 A3005=
METAR MMTJ 110246Z 36003KT 6SM  SKC 12/07 A3015 
      RMK SLP212 52010 940 HZY ST W=


120 
SAMX41 MMMX 110300
METAR MMAA 110250Z 26004KT 5SM  FEW015 SCT100 27/24 A2983 
      RMK SLP093 52020 973 8/130 HZY=
METAR MMBT 110259Z  NIL=
METAR MMCB 110259Z  NIL=
METAR MMMX 110248Z 05005KT 10SM SKC 18/06 A3031
      NOSIG RMK SLP126 52032 953=
METAR MMPA 110259Z  NIL=
METAR MMPS 110246Z 23004KT 7SM  SCT030 BKN070 28/21 A2990 
      RMK 8/71/ HZY=
METAR MMQT 110243Z 30003KT 7SM  FEW270 14/01 A3028 RMK 8/002=
METAR MMTM 110241Z 14011KT 5SM  FEW012 BKN200 25/23 A2982 
      RMK SLP091 57033 983 8/108 BR=
METAR MMTO 110246Z 35005KT 5SM  SKC 10/04 A3038 
      RMK SLP168 52028 961 HZY=
METAR MMVR 110248Z 00000KT 4SM  OVC012 24/24 A2989 
      RMK SLP093 52022 987 8/6// HZ=
METAR MMZH 110240Z 34005KT 6SM  SKC 27/22 A2989 
      RMK SLP113 52014 970 HZY CI=


470 
SAXX60 KAWN 110300 RRA
METAR PGSN 110254Z 05013G18KT 10SM FEW020 SCT025 SCT035 29/24 A2982
      RMK AO2 SLP119 T02940244 58016 $=
METAR PGUA 110256Z 10012KT 10SM FEW009 SCT016 BKN23 28/24 A2982 RMK
      AO2A RAE0159 SLP088 P0000 60001 T02760242 57021 $=
METAR PGUM 110254Z 08012KT 10SM FEW021 BKN028 OVC044 29/24 A2981 RMK
      AO2 SLP088 T02940244 56017 $=
METAR PGUM 110254Z 08012KT 10SM FEW021 BKN028 OVC044 29/24 A2981 RMK
      AO2 SLP088 T02940244 56017 $=
METAR PHHI 110256Z AUTO 10011KT 10SM FEW026 BKN035 24/17 A3007 RMK
      AO2 SLP174 T02360173 53004 $=
METAR PHJR 110253Z 07008KT 10SM CLR 27/18 A3004 RMK AO2 SLP180 T02720178
      53004=
METAR PHKO 110253Z 21007KT 10SM FEW009 SCT025 BKN065 27/21 A2998 RMK
      AO2 SLP152 T02670206 53005=
METAR PHMK 110254Z 04013G22KT 10SM CLR 24/19 A3004 RMK AO2 SLP175 T02440189
      53006 $=
METAR PHNL 110253Z 06013G20KT 10SM FEW022 SCT040 26/18 A3004 RMK AO2
      SLP171 T02610183 53004=
METAR PHNY 110256Z AUTO 02008KT 10SM SCT026 BKN035 22/21 A3008 RMK
      AO2 SLP166 60000 T02220206 53001=
METAR PHOG 110254Z 06017G25KT 10SM CLR 26/17 A3000 RMK AO2 PK WND 07028/0156
      SLP162 T02610172 53007=
METAR PHSF 110258Z AUTO 24004KT 10SM CLR 19/05 A3031 RMK AO2 PK WND
      12028/02 SLP146 T01930053 53008 $=
METAR PHTO 110253Z 11006KT 10SM FEW027 24/18 A3005 RMK AO2 SLP174 T02440183
      53002=
METAR RJTY 110256Z AUTO 00000KT 10SM CLR 14/02 A3019 RMK AO2 SLP229
      T01440016 57024 $=
METAR RODN 110256Z AUTO 11007KT 10SM FEW033 SCT050 BKN060 24/15 A3020
      RMK AO2 SLP234 T02390148 58008 $=


094 
SAUS70 KWBC 110300 RRL
METAR
KRTS 110255Z AUTO 00000KT 10SM CLR M03/M08 A3019 RMK AO2=
KRYW 110255Z AUTO 22005KT 10SM CLR 22/18 A2980 RMK AO2
     T02220180=
KSAA 110255Z AUTO 24016KT 10SM CLR M12/M14 A2994 RMK AO2=
KSTK 110255Z AUTO 29015KT 10SM SCT120 M03/M07 A2991 RMK AO2=
KSZT 110255Z AUTO 21004KT 5SM -SN OVC025 00/M01 A2997 RMK AO2=
KT69 110255Z AUTO 18006KT 7SM CLR 24/23 A2979 RMK A01=
KT89 110255Z AUTO 31006KT 10SM CLR 22/02 A2989 RMK A01=
KTSP 110255Z AUTO 10009KT 10SM CLR 03/M02 A3020 RMK AO2=
KU42 110255Z AUTO 18007KT 10SM SCT070 M07/M09 A3024 RMK AO1
     T10661090=
KVCV 110255Z AUTO 07006KT 10SM CLR 06/M08 A3022 RMK AO2=
KVTP 110255Z AUTO 30005KT 10SM CLR M16/M24 A2987 RMK AO2=
KWJF 110256Z 04005KT 10SM CLR 03/M02 A3020 RMK AO2 SLP242
     T00281017 53015=
KWJF 110256Z 04005KT 10SM CLR 03/M02 A3020 RMK AO2 SLP242
     T00281017 53015=
KBJJ 110256Z AUTO 18014G19KT 10SM FEW026 11/10 A2977 RMK AO2 RAE20
     SLP083 P0001 60002 T01110100 58035=
KBTA 110255Z AUTO 33018G24KT 1 1/2SM -SN OVC006 M01/M02 A2955 RMK
     AO2 P0001 60001 T10121021=
KBTN 110255Z AUTO 20005KT 10SM FEW110 M03/M05 A2977 RMK AO2=
KC09 110255Z AUTO 17014KT 2SM /VCTSRA OVC002 13/13 A2934 RMK AO2
     LTG DSNT W P0010 60020 T01300130=
KCKC 110257Z AUTO 35003KT 10SM BKN090 M07/M08 A2971 RMK AO2=
KCXY 110256Z AUTO 10006KT 10SM OVC038 08/01 A3007 RMK AO2 SLP187
     T00780011 58010=
KDIK 110256Z AUTO 26009KT 10SM CLR M07/M11 A2974 RMK AO2 SLP107
     T10721111 50003=
KDNV 110255Z AUTO 17017G24KT 3SM BR OVC004 16/16 A2945 RMK AO2
     T01590156=
KDSF 110255Z AUTO 13011KT 5SM BR CLR 24/23 A3003 RMK A01=
KEAU 110256Z AUTO 03008KT 1/4SM SN FZFG VV006 M02/M03 A2958 RMK
     AO2 SLP028 P0000 60000 T10171028 57037=
KFSE 110255Z AUTO 19006KT 10SM CLR M08/M11 A2975 RMK AO2=
KRSV 110255Z AUTO 17013G21KT 10SM VCTS OVC009 17/16 A2952 RMK AO2
     LTG DSNT E AND SE T01700163=
KSAR 110255Z AUTO 20013G22KT 10SM SCT032 SCT039 SCT047 21/18 A2951
     RMK AO2 LTG DSNT N T02060180=
KSTE 110255Z AUTO 05013G20KT 4SM UP OVC010 00/M02 A2949 RMK AO2
     P0001 60003 T00001017=
KTYQ 110255Z AUTO 16016G23KT 1/2SM FG OVC002 14/14 A2954 RMK AO2
     LTG DSNT SE AND S T01350135=
KUNI 110255Z AUTO 16004KT 10SM BKN014 OVC020 14/12 A2981 RMK AO2
     T01400121=
K3S8 110255Z AUTO 00000KT 7SM SCT110 03/02 A3022 RMK AO2=
K6R3 110255Z AUTO 18006KT 7SM SCT018 BKN032 OVC060 25/24 A2983 RMK
     AO2 T02450236=
KAEJ 110255Z AUTO 24007G20KT 10SM CLR M09/M22 A2993 RMK AO2
     T10931219=
KBAM 110255Z AUTO 18004KT 10SM CLR M04/M08 A3023 RMK AO1=
KBDU 110255Z AUTO 30007G11KT 10SM CLR M02/M18 A2994 RMK AO2=
KHQZ 110255Z AUTO 22005KT 10SM SCT046 BKN050 23/17 A2973 RMK AO1
     T02300171=
KIKG 110255Z AUTO 14004KT 10SM CLR 24/22 A2979 RMK AO2
     T02360219=
KINJ 110255Z AUTO 24006KT 10SM CLR 23/19 A2976 RMK AO2
     T02310188=
KJTC 110255Z AUTO 33007KT 10SM CLR M02/M10 A3016 RMK AO2=
KJWY 110255Z AUTO 27004KT 10SM BKN045 OVC060 23/16 A2975 RMK AO2
     T02270163=
KLHB 110255Z AUTO 15006KT A2978 RMK AO2 PWINO=
KLHM 110255Z AUTO 00000KT 10SM CLR 04/01 A3022 RMK AO1=
KLNC 110255Z AUTO 24004KT 10SM CLR 24/16 A2974 RMK AO2
     T02400155=
KLUD 110255Z AUTO 25007KT 5SM HZ OVC008 23/04 A2973 RMK AO2
     T02310037=
KLUV 110255Z AUTO 24015KT 10SM CLR 15/00 A2990 RMK AO2=
KLXY 110255Z AUTO 19011G19KT 10SM CLR 23/20 A2975 RMK AO2
     T02340202=
KMDD 110255Z AUTO 26010KT 10SM CLR 16/00 A2992 RMK AO2
     T01571001=
KPEZ 110255Z AUTO 07006KT 10SM CLR 23/18 A2978 RMK AO2
     T02280184=
PPIZ 110256Z AUTO 32021KT 4SM -SN BR OVC014 M19/M22 A2957 RMK AO2
     SLP016 6//// T11941217 53013 FZRANO PNO $=


095 
SPXX60 KWBC 110300
SPECI
KEUF 110250Z AUTO 18004KT 10SM FEW011 BKN020 21/19 A3005 RMK AO2
     T02110194 $=


096 
SAXX60 KWBC 110300 CCA
METAR
KNRS 110256Z AUTO 00000KT 10SM CLR 09/08 A3014 RMK AO2 SLP205
     T00940078 50007 $=
KNBG 110255Z 17009KT 9SM FEW015 SCT030 SCT045 23/22 A2996 RMK AO2
     SLP145 T02330222 50008 $=
KNUC 110256Z AUTO 07007KT 10SM CLR 11/06 A3015 RMK AO2 SLP209
     T01110061 51011 $=
KNSI 110253Z AUTO 32007KT 10SM CLR 08/07 A3015 RMK AO2 SLP208
     T00780067 51016 $=
KNUW 110256Z 15024G35KT 10SM SCT020 BKN025 OVC040 08/04 A2980 RMK
     AO2 PK WND 15040/0205 SLP092 T00830044 56048 PNO=
PHBK 110251Z AUTO 00000KT 5SM -RA OVC037 25/22 A3003 RMK AO2 RAB43
     SLP172 P0000 60000 T02500217 53001=
KNMM 110256Z AUTO 18007KT 10SM SCT017 BKN022 OVC043 22/21 A2993
     RMK AO2 SLP141 T02220206 50000=
KNRS 110256Z AUTO 00000KT 10SM CLR 09/08 A3014 RMK AO2 SLP205
     T00940078 50007 $=
KNUC 110256Z AUTO 07007KT 10SM CLR 11/06 A3015 RMK AO2 SLP209
     T01110061 51011 $=


100 
SPUS70 KWBC 110300
SPECI
KMTO 110256Z AUTO 17017G29KT 7SM SCT005 BKN012 OVC018 17/16 A2944
     RMK AO2 PK WND 19029/0255 LTG DSNT NW PRESFR T01720161=
KPWK 110256Z 10007KT 2 1/2SM -RA BR BKN002 OVC006 09/08 A2933 RMK
     AO2 CIG 002V005 P0001 T00890078=
KSUX 110256Z 34022G30KT 1 1/2SM SN FZFG BKN010 OVC017 M01/ A2963
     RMK AO2 PK WND 34026/0253 P0000 T1011 $=
KVRB 110256Z AUTO 00000KT 1 3/4SM BR CLR 19/18 A3014 RMK AO2 VIS
     3/4V4 T01940178=
PASD 110258Z 32026G34KT 1/16SM +SN BLSN OVC004 M04/M07 A2962 RMK
     AO2 PK WND 33032/0258 PRESRR P0000 $=


102 
SPUS80 KWBC 110300
SPECI
PAOR 110257Z 00000KT 2SM -SN OVC029 M18/M21 A2879 RMK AO2
     T11831211=
KAAF 110257Z AUTO 14008KT 1 3/4SM BR OVC003 21/21 A3009 RMK AO2
     T02060206=


105 
SAXX60 KWBC 110300 RRC
METAR
KFSI 110256Z AUTO 36019G27KT 10SM CLR 12/M01 A2975 RMK AO2 PK WND
     34028/17 PRESRR SLP071 T01171011 52055=
KGUS 110256Z 16019G26KT 3SM BR OVC002 14/13 A2946 RMK AO2A PK WND
     17026/33 DZB15E18RAB18E26DZB26E27RAB27E28 SLP980 P0000 60000
     T01370131 58067 $=
KHRT 110256Z AUTO 15009KT 10SM OVC006 22/21 A3004 RMK AO2 SLP174
     T02190209 52008 $=
KLFI 110256Z AUTO 20003KT 4SM -DZ OVC006 10/10 A3010 RMK AO2
     RAB46E47DZB47 CIG 005 RWY08 SLP199 P0000 60000 T01040102
     57011 $=
KLRF 110256Z 21009KT 10SM CLR 20/19 A2959 RMK AO2A PK WND 24056/21
     LTG DSNT NE-E RAE37 TSE41 SLP021 P0107 60112 T01990189
     55015=
KMGE 110256Z 10006KT 1/2SM R11/2400V2600FT FG VV002 12/12 A3005
     RMK AO2A SLP178 T01200120 58001 $=
KMXF 110256Z AUTO 18007KT 10SM BKN016 BKN023 21/19 A2999 RMK AO2
     CIG 016V023 BKN016 V SCT SLP158 T02120193 52009=
KNBG 110255Z 17009KT 9SM FEW015 SCT030 SCT045 23/22 A2996 RMK AO2
     SLP145 T02330222 50008 $=
KNJK 110256Z AUTO 03005KT 10SM CLR 13/03 A3017 RMK AO2 SLP232
     T01330028 51019 $=
KADW 110256Z AUTO 00000KT 10SM OVC021 08/07 A3006 RMK AO2 CIG 020
     RWY19R SLP188 60001 T00810066 58002 $=
KBIX 110256Z 17007KT 1/2SM FG VV001 21/09 A2997 RMK SLP152
     T02050194 52009=
KFAF 110256Z AUTO 14003KT 1 3/8SM -RA OVC002 10/07 A3009 RMK AO2
     RAB52 SLP193 P0000 60000 T00980072 57012 $=
KGRK 110256Z AUTO 22007KT 10SM CLR 22/18 A2975 RMK AO2 SLP066
     T02200176 52021=
KGTB 110256Z AUTO 14010KT 10SM OVC040 02/M02 A3003 RMK AO2 SLP176
     T00191017 55000=
KLSF 110256Z AUTO 16005KT 7/8SM R15/4500V6000FT BR FEW014 18/18
     A3002 RMK AO2 VIS 7/8V1 3/8 SLP170 T01820179 50004=
KLTS 110256Z 35022G29KT 10SM CLR 11/M02 A2980 RMK AO2A PK WND
     34033/50 PRESRR SLP087 T01061024 52061 $=
KMIB 110256Z AUTO 28012KT 10SM CLR M09/M13 A2969 RMK AO2 SLP090
     T10861133 55003 $=
KMUI 110256Z 05004KT 10SM OVC037 06/00 A3008 RMK AO2A SLP192
     T00640001 58007=
KPSM 110256Z 01003KT 10SM BKN012 OVC024 M01/M05 A3021 RMK AO2A
     SLP234 T10081049 53002=
KSSC 110256Z AUTO 11003KT 2 1/2SM BR OVC003 11/11 A3012 RMK AO2
     OVC V BKN SLP202 T01140106 58005=
KVPS 110256Z 15010KT 5SM BR OVC007 22/21 A3004 RMK AO2A CIG 005
     RWY01 CIG 005 RWY12 CIG 005 RWY30 SLP179 T02180214 50007
     $=
KWRI 110256Z AUTO 00000KT 10SM OVC050 06/03 A3013 RMK AO2 SLP203
     T00610029 55005 $=
KADW 110256Z AUTO 00000KT 10SM OVC021 08/07 A3006 RMK AO2 CIG 020
     RWY19R SLP188 60001 T00810066 58002 $=
KBIX 110256Z 17007KT 1/2SM FG VV001 21/09 A2997 RMK SLP152
     T02050194 52009=
KFAF 110256Z AUTO 14003KT 1 3/8SM -RA OVC002 10/07 A3009 RMK AO2
     RAB52 SLP193 P0000 60000 T00980072 57012 $=
KGRK 110256Z AUTO 22007KT 10SM CLR 22/18 A2975 RMK AO2 SLP066
     T02200176 52021=
KGSB 110256Z 14005KT 4SM -RA SCT005 OVC030 12/11 A3010 RMK AO2A
     RAB16E35RAB51 SLP197 P0000 60000 T01150109 58002 $=
KLSF 110256Z AUTO 16005KT 7/8SM R15/4500V6000FT BR FEW014 18/18
     A3002 RMK AO2 VIS 7/8V1 3/8 SLP170 T01820179 50004=
KLTS 110256Z 35022G29KT 10SM CLR 11/M02 A2980 RMK AO2A PK WND
     34033/50 PRESRR SLP087 T01061024 52061 $=
KMCF 110256Z AUTO 06003KT 10SM FEW044 21/21 A3009 RMK AO2 SLP192
     T02080206 52006 FZRANO $=
KMIB 110256Z AUTO 28012KT 10SM CLR M09/M13 A2969 RMK AO2 SLP090
     T10861133 55003 $=
KMMT 110256Z AUTO 14003KT 5SM BR OVC002 12/12 A3012 RMK AO2 SLP203
     T01150115 58004 $=
KMUI 110256Z 05004KT 10SM OVC037 06/00 A3008 RMK AO2A SLP192
     T00640001 58007=
KNBC 110256Z 15005KT 10SM CLR 15/13 A3013 RMK AO2 SLP204 T01500133
     58004=


106 
SAMX34 MMMD 110300
METAR MMMD 110246Z 14008KT 7SM  SKC 25/20 A2998 RMK SLP153 52016 977=


107 
SAXX60 KWBC 110300 RRE
METAR
PHHI 110256Z AUTO 10011KT 10SM FEW026 BKN035 24/17 A3007 RMK AO2
     SLP174 T02360173 53004 $=
PHSF 110258Z AUTO 24004KT 10SM CLR 19/05 A3031 RMK AO2 PK WND
     12028/02 SLP146 T01930053 53008 $=
KADW 110256Z AUTO 00000KT 10SM OVC021 08/07 A3006 RMK AO2 CIG 020
     RWY19R SLP188 60001 T00810066 58002 $=
KBIX 110256Z 17007KT 1/2SM FG VV001 21/09 A2997 RMK SLP152
     T02050194 52009=
KDOV 110256Z AUTO 00000KT 10SM OVC024 08/07 A3009 RMK AO2 SLP193
     60000 T00770071 55006 $=
KGSB 110256Z 14005KT 4SM -RA SCT005 OVC030 12/11 A3010 RMK AO2A
     RAB16E35RAB51 SLP197 P0000 60000 T01150109 58002 $=
KLFI 110256Z AUTO 20003KT 4SM -DZ OVC006 10/10 A3010 RMK AO2
     RAB46E47DZB47 CIG 005 RWY08 SLP199 P0000 60000 T01040102
     57011 $=
KMCF 110256Z AUTO 06003KT 10SM FEW044 21/21 A3009 RMK AO2 SLP192
     T02080206 52006 FZRANO $=
KNBC 110256Z 15005KT 10SM CLR 15/13 A3013 RMK AO2 SLP204 T01500133
     58004=
KNBG 110255Z 17009KT 9SM FEW015 SCT030 SCT045 23/22 A2996 RMK AO2
     SLP145 T02330222 50008 $=
KNCA 110256Z AUTO 25003KT 5SM BR BKN050 OVC065 16/16 A3013 RMK AO2
     SLP205 60000 T01610156 50003=
KNTU 110256Z 13003KT 9SM SCT025 BKN050 OVC190 12/09 A3010 RMK AO2
     SLP196 T01170089 58013=
KOFF 110256Z 33012KT 3SM -SN BKN010 00/M02 A2957 RMK AO2A SNE0156
     SLP026 60002 T00001022 53017 PWINO PNO FZRANO TSNO VISNO
     RWY12 CHINO RWY12 $=
KSSC 110256Z AUTO 11003KT 2 1/2SM BR OVC003 11/11 A3012 RMK AO2
     OVC V BKN SLP202 T01140106 58005=
KVPS 110256Z 15010KT 5SM BR OVC007 22/21 A3004 RMK AO2A CIG 005
     RWY01 CIG 005 RWY12 CIG 005 RWY30 SLP179 T02180214 50007
     $=
KWRI 110256Z AUTO 00000KT 10SM OVC050 06/03 A3013 RMK AO2 SLP203
     T00610029 55005 $=


110 
SAUS70 KWBC 110300 RRM
METAR
KBQX 110255Z AUTO 18019KT 5SM BR BKN030 24/23 A2982 RMK A01=
KCEC 110256Z AUTO 00000KT 9SM CLR 06/04 A3022 RMK AO2 SLP234
     T00610044 58010=
KCXP 110255Z AUTO 00000KT 10SM CLR M01/M08 A3021 RMK AO2=
KDSF 110255Z AUTO 13011KT 5SM BR CLR 24/23 A3003 RMK A01=
KEDC 110255Z AUTO 20006KT 7SM FEW018 22/22 A2978 RMK AO2=
KEED 110256Z AUTO 33010KT 10SM CLR 11/M11 A3021 RMK AO2 SLP222
     T01111111 51021=
KEKO 110256Z AUTO 25006KT 10SM CLR M06/M11 A3020 RMK AO2 SLP270
     T10611111 52005=
KEKS 110255Z AUTO 16013KT 10SM FEW049 OVC060 M04/M17 A3000 RMK
     AO2=
KF05 110255Z AUTO 35020G28KT 10SM CLR 17/M02 A2979 RMK AO2
     T01691018=
KF44 110255Z AUTO 19006KT 10SM CLR 23/19 A2972 RMK AO2=
KF46 110255Z AUTO 20006KT 10SM BKN043 BKN050 22/19 A2972 RMK AO2
     T02150186=
KF70 110255Z AUTO 34003KT 10SM CLR 07/02 A3015 RMK AO2=
KFTN 110255Z AUTO 00000KT 10SM 24/13 A2978 RMK A01=
KFWS 110255Z AUTO 26005KT 10SM CLR 22/04 A2975 RMK AO2
     T02220046=
KGDJ 110255Z AUTO 27009KT 10SM CLR 22/05 A2976 RMK AO2
     T02160050=
KHFF 110256Z AUTO 24004KT 10SM OVC008 12/12 A3010 RMK AO2 SLP196
     T01220116 55003 $=
KBYS 110258Z AUTO 32006KT 10SM CLR 04/M11 A3021 RMK AO2 SLP238
     T00421115 52012 $=
KBYS 110258Z AUTO 32006KT 10SM CLR 04/M11 A3021 RMK AO2 SLP238
     T00421115 52012 $=
KNFE 110256Z AUTO 00000KT 10SM FEW029 OVC046 11/08 A3011 RMK AO2
     SLP197 T01060083 58013=
KALN 110250Z 26013G24KT 6SM +TSRA SCT016 BKN037 17/17 A2946 RMK
     OCNL LTGICCG VC TSB19 TS VC MOV NE=
KATW 110245Z 06019G25KT 3SM RA OVC004 01/M01 A2945=
KHFF 110256Z AUTO 24004KT 10SM OVC008 12/12 A3010 RMK AO2 SLP196
     T01220116 55003 $=
KISP 110256Z 00000KT 10SM SCT065 SCT250 03/03 A3013 RMK AO2 SLP202
     T00330033 58004=
KIWA 110255Z VRB04KT 10SM CLR 13/07 A3012=
KMCE 110253Z AUTO 03003KT 10SM CLR 08/03 A3023 RMK AO2 SLP239
     T00780028 51016=
KROG 110258Z AUTO 22013G19KT 10SM FEW050 18/14 A2955 RMK AO2 TSE00
     SLP994 60000 T01830139 55002 $=
KTTS 110256Z AUTO 00000KT 10SM CLR 17/16 A3013 RMK AO2 VIS 1 3/8
     RWY15 VIS 1/2 RWY15/33 SLP207 T01660158 50005 $=


111 
SAUS80 KWBC 110300 CCA
METAR
KMHS 110256Z AUTO 00000KT 8SM CLR M01/M06 A3016 RMK AO2 SLP254
     T10111061 56002=


112 
SAPQ50 KWBC 110300
METAR
PGUM 110254Z 08012KT 10SM FEW021 BKN028 OVC044 29/24 A2981 RMK AO2
     SLP088 T02940244 56017 $=
PGSN 110254Z 05013G18KT 10SM FEW020 SCT025 SCT035 29/24 A2982 RMK
     AO2 SLP119 T02940244 58016 $=
PGUM 110254Z 08012KT 10SM FEW021 BKN028 OVC044 29/24 A2981 RMK AO2
     SLP088 T02940244 56017 $=
PGUM 110254Z 08012KT 10SM FEW021 BKN028 OVC044 29/24 A2981 RMK AO2
     SLP088 T02940244 56017 $=


114 
SAMX34 MMMD 110300
METAR MMTP 110240Z 00000KT 8SM  SKC 23/23 A2987 
      RMK SLP137 52016 958 HZY=


227 
SAXX60 KWBC 110300 RRA
METAR
KMIB 110256Z AUTO 28012KT 10SM CLR M09/M13 A2969 RMK AO2 SLP090
     T10861133 55003 $=
KMUI 110256Z 05004KT 10SM OVC037 06/00 A3008 RMK AO2A SLP192
     T00640001 58007=
KPSM 110256Z 01003KT 10SM BKN012 OVC024 M01/M05 A3021 RMK AO2A
     SLP234 T10081049 53002=
KRDR 110256Z AUTO 00000KT 10SM CLR M07/M11 A2972 RMK AO2 SLP088
     T10701107 56009 $=
KAPY 110255Z AUTO 00000KT 10SM CLR 25/20 A2978 RMK AO2 T02520200
     TSNO=
KBKF 110258Z 29008KT 10SM FEW100 M06/M16 A2992 RMK AO2A SLP161
     T10561162 51028=
KCBM 110256Z AUTO 18014G21KT 10SM CLR 23/20 A2984 RMK AO2 PK WND
     17026/27 SLP106 T02280199 58006 TSNO $=
KEDW 110256Z 07005KT 30SM CLR 05/M03 A3018 RMK AO2A SLP233
     T00491034 52016=
KGRF 110256Z 15018G22KT 10SM -RA BKN031 OVC040 07/03 A2988 RMK
     AO2A SLP124 P0000 60000 T00690031 57032 $=
KHIF 110256Z 15010KT 10SM SCT070 M06/M11 A3019 RMK AO2A SLP256
     T10591107 52014 $=
KIAB 110256Z AUTO 31019G26KT 10SM BKN140 03/M04 A2971 RMK AO2 PK
     WND 31033/23 SLP066 T00251045 52049 $=
KMCC 110255Z AUTO 00000KT 9SM CLR 07/02 A3023 RMK AO2=
KNBG 110255Z 17009KT 9SM FEW015 SCT030 SCT045 23/22 A2996 RMK AO2
     SLP145 T02330222 50008 $=
KNSI 110253Z AUTO 32007KT 10SM CLR 08/07 A3015 RMK AO2 SLP208
     T00780067 51016 $=
KNUQ 110255Z AUTO 00000KT 10SM CLR 09/02 A3024 RMK AO2=
PAEI 110256Z 24003KT 5SM -SN BR OVC004 M13/M16 A2900 RMK AO2A
     SNB0150 SLP836 P0000 60000 T11341156 52024 $=
KDLF 110256Z AUTO 03003KT 10SM BKN140 19/13 A2979 RMK AO2 SLP080
     T01930130 52024 $=
KDOV 110256Z AUTO 00000KT 10SM OVC024 08/07 A3009 RMK AO2 SLP193
     60000 T00770071 55006 $=
KFHU 110258Z AUTO 28007KT 10SM CLR 06/03 A3014 RMK AO2 SLP188
     T00550028 52015=
KFSI 110256Z AUTO 36019G27KT 10SM CLR 12/M01 A2975 RMK AO2 PK WND
     34028/17 PRESRR SLP071 T01171011 52055=
KGUS 110256Z 16019G26KT 3SM BR OVC002 14/13 A2946 RMK AO2A PK WND
     17026/33 DZB15E18RAB18E26DZB26E27RAB27E28 SLP980 P0000 60000
     T01370131 58067 $=
KLFI 110256Z AUTO 20003KT 4SM -DZ OVC006 10/10 A3010 RMK AO2
     RAB46E47DZB47 CIG 005 RWY08 SLP199 P0000 60000 T01040102
     57011 $=
KMCF 110256Z AUTO 06003KT 10SM FEW044 21/21 A3009 RMK AO2 SLP192
     T02080206 52006 FZRANO $=
KMGE 110256Z 10006KT 1/2SM R11/2400V2600FT FG VV002 12/12 A3005
     RMK AO2A SLP178 T01200120 58001 $=
KMXF 110256Z AUTO 18007KT 10SM BKN016 BKN023 21/19 A2999 RMK AO2
     CIG 016V023 BKN016 V SCT SLP158 T02120193 52009=
KNJK 110256Z AUTO 03005KT 10SM CLR 13/03 A3017 RMK AO2 SLP232
     T01330028 51019 $=
KNYG 110256Z AUTO 00000KT 7SM OVC024 09/07 A3009 RMK AO2 SLP188
     60000 T00940067 58002 $=
KRDR 110256Z AUTO 00000KT 10SM CLR M07/M11 A2972 RMK AO2 SLP088
     T10701107 56009 $=
KMHR 110255Z AUTO 10003KT 10SM CLR 03/00 A3022 RMK A01=
KNUQ 110255Z AUTO 00000KT 10SM CLR 09/02 A3024 RMK AO2=
KNIP 110253Z 16007KT 10SM CLR 20/19 A3014 RMK AO2 SLP202 T02000194
     51003=
KNKX 110255Z 00000KT 10SM CLR 09/07 A3013 RMK AO2 SLP199 T00890072
     50003 $=
KNMM 110256Z AUTO 18007KT 10SM SCT017 BKN022 OVC043 22/21 A2993
     RMK AO2 SLP141 T02220206 50000=
KNSI 110253Z AUTO 32007KT 10SM CLR 08/07 A3015 RMK AO2 SLP208
     T00780067 51016 $=
KNTD 110252Z 06003KT 10SM CLR 10/07 A3017 RMK AO2 SLP219 T01000067
     51019 CHINO N VISNO N $=
KNYG 110256Z AUTO 00000KT 7SM OVC024 09/07 A3009 RMK AO2 SLP188
     60000 T00940067 58002 $=
KPSM 110256Z 01003KT 10SM BKN012 OVC024 M01/M05 A3021 RMK AO2A
     SLP234 T10081049 53002=
KRDR 110256Z AUTO 00000KT 10SM CLR M07/M11 A2972 RMK AO2 SLP088
     T10701107 56009 $=


229 
SAXX60 KWBC 110300 RRD
METAR
KNCA 110256Z AUTO 25003KT 5SM BR BKN050 OVC065 16/16 A3013 RMK AO2
     SLP205 60000 T01610156 50003=
KSSC 110256Z AUTO 11003KT 2 1/2SM BR OVC003 11/11 A3012 RMK AO2
     OVC V BKN SLP202 T01140106 58005=
KNJM 110257Z AUTO 20003KT 8SM BKN013 BKN065 OVC080 18/15 A3015 RMK
     AO2 SLP211 60000 T01780150 50001 $=
KNYL 110257Z 35008KT 7SM FEW150 BKN200 16/M03 A3014 RMK AO2 SLP206
     T01611028 52018=
KNQI 110256Z AUTO 16006KT 10SM CLR 24/22 A2978 RMK AO2 SLP081
     T02440217 51021 $=
KGSB 110256Z 14005KT 4SM -RA SCT005 OVC030 12/11 A3010 RMK AO2A
     RAB16E35RAB51 SLP197 P0000 60000 T01150109 58002 $=
KMMT 110256Z AUTO 14003KT 5SM BR OVC002 12/12 A3012 RMK AO2 SLP203
     T01150115 58004 $=
KNBC 110256Z 15005KT 10SM CLR 15/13 A3013 RMK AO2 SLP204 T01500133
     58004=
KNCA 110256Z AUTO 25003KT 5SM BR BKN050 OVC065 16/16 A3013 RMK AO2
     SLP205 60000 T01610156 50003=
KNTU 110256Z 13003KT 9SM SCT025 BKN050 OVC190 12/09 A3010 RMK AO2
     SLP196 T01170089 58013=
KSKF 110256Z AUTO 34005KT 10SM CLR 20/18 A2976 RMK AO2 SLP072
     T02020176 52015 $=
PAFR 110258Z AUTO 17006KT 10SM BKN019 OVC026 M06/M10 A2877 RMK AO2
     SLP753 T10611098 52028 PNO $=
PGUA 110256Z 10012KT 10SM FEW009 SCT016 BKN23 28/24 A2982 RMK AO2A
     RAE0159 SLP088 P0000 60001 T02760242 57021 $=
PHSF 110258Z AUTO 24004KT 10SM CLR 19/05 A3031 RMK AO2 PK WND
     12028/02 SLP146 T01930053 53008 $=
KNID 110256Z AUTO 15005KT CLR 05/M09 A3021 RMK AO2 SLP245
     T00501089 53017 $=
KADW 110256Z AUTO 00000KT 10SM OVC021 08/07 A3006 RMK AO2 CIG 020
     RWY19R SLP188 60001 T00810066 58002 $=
KBIX 110256Z 17007KT 1/2SM FG VV001 21/09 A2997 RMK SLP152
     T02050194 52009=
KFAF 110256Z AUTO 14003KT 1 3/8SM -RA OVC002 10/07 A3009 RMK AO2
     RAB52 SLP193 P0000 60000 T00980072 57012 $=
KFBG 110256Z AUTO 22003KT 4SM BR OVC017 11/11 A3012 RMK AO2 SLP203
     60001 T01140112 58004 $=
KGUS 110256Z 16019G26KT 3SM BR OVC002 14/13 A2946 RMK AO2A PK WND
     17026/33 DZB15E18RAB18E26DZB26E27RAB27E28 SLP980 P0000 60000
     T01370131 58067 $=
KHRT 110256Z AUTO 15009KT 10SM OVC006 22/21 A3004 RMK AO2 SLP174
     T02190209 52008 $=
KLFI 110256Z AUTO 20003KT 4SM -DZ OVC006 10/10 A3010 RMK AO2
     RAB46E47DZB47 CIG 005 RWY08 SLP199 P0000 60000 T01040102
     57011 $=
KLRF 110256Z 21009KT 10SM CLR 20/19 A2959 RMK AO2A PK WND 24056/21
     LTG DSNT NE-E RAE37 TSE41 SLP021 P0107 60112 T01990189
     55015=
KMCF 110256Z AUTO 06003KT 10SM FEW044 21/21 A3009 RMK AO2 SLP192
     T02080206 52006 FZRANO $=
KMMT 110256Z AUTO 14003KT 5SM BR OVC002 12/12 A3012 RMK AO2 SLP203
     T01150115 58004 $=
KMXF 110256Z AUTO 18007KT 10SM BKN016 BKN023 21/19 A2999 RMK AO2
     CIG 016V023 BKN016 V SCT SLP158 T02120193 52009=
KNBG 110255Z 17009KT 9SM FEW015 SCT030 SCT045 23/22 A2996 RMK AO2
     SLP145 T02330222 50008 $=
KNCA 110256Z AUTO 25003KT 5SM BR BKN050 OVC065 16/16 A3013 RMK AO2
     SLP205 60000 T01610156 50003=
KNMM 110256Z AUTO 18007KT 10SM SCT017 BKN022 OVC043 22/21 A2993
     RMK AO2 SLP141 T02220206 50000=
KPSM 110256Z 01003KT 10SM BKN012 OVC024 M01/M05 A3021 RMK AO2A
     SLP234 T10081049 53002=
KRDR 110256Z AUTO 00000KT 10SM CLR M07/M11 A2972 RMK AO2 SLP088
     T10701107 56009 $=
KSSC 110256Z AUTO 11003KT 2 1/2SM BR OVC003 11/11 A3012 RMK AO2
     OVC V BKN SLP202 T01140106 58005=
KEUF 110258Z AUTO 19004KT 10SM FEW012 BKN020 21/19 A3005 RMK AO2
     SLP174 T02110194 50005 $ NN=
PGUA 110256Z 10012KT 10SM FEW009 SCT016 BKN23 28/24 A2982 RMK AO2A
     RAE0159 SLP088 P0000 60001 T02760242 57021 $=


233 
SAUS80 KWBC 110300
METAR
KD07 110256Z AUTO 28008KT M06/M07 A2981 RMK AO1 SLP134 T10561072
     50006=
KGNA 110256Z AUTO 01003KT M03/M05 A2977 RMK AO1 SLP096 T10281050
     56009=
KP60 110256Z AUTO 00000KT M16/M17 A2992 RMK AO1 SLP245 T11561172
     51013=
KALK 110256Z AUTO 25008KT 10SM CLR 05/03 A3014 RMK AO2 SLP166
     T00500028 53015=
KANJ 110255Z AUTO 09006KT 10SM BKN065 OVC080 01/M03 A2979 RMK AO2
     SLP091 T00111028 58040=
KEAR 110256Z AUTO 34019KT 10SM UP OVC014 M03/M04 A2976 RMK AO2 PK
     WND 35026/0239 UPB11SNE11 SLP096 P0000 60001 T10281044 51024
     FZRANO=
KGPZ 110256Z AUTO 00000KT 10SM OVC090 M06/M07 A2975 RMK AO2 SLP100
     T10561072 58001 FZRANO=
KDLH 110255Z 02003KT 10SM OVC065 M04/M07 A2971 RMK AO2 SLP086
     T10391072 58001=
KPHP 110255Z AUTO 27007KT 10SM CLR M07/M07 A2986 RMK AO2 SLP137
     T10671072 51007 TSNO=
KAAT 110255Z AUTO 14003KT 8SM CLR M03/M08 A3016 RMK AO2 SLP247
     T10331083 53002=
KCAO 110255Z AUTO 35010KT 10SM FEW090 M03/M05 A2994 RMK AO2
     SNB09E21 SLP137 P0000 60000 T10281050 53056=
KMEH 110256Z AUTO 00000KT 3SM -SN BR OVC038 M01/M02 A3003 RMK AO2
     SLP197 P0000 60006 T10111022 56005=
KGNR 110256Z AUTO 00000KT M04/M07 A3009 RMK AO1 SLP218 T10441072
     50005=
KHON 110255Z AUTO 10SM OVC100 M03/M04 A2980 RMK AO2 SLP109 60000
     T10281044 50007=
KLIC 110255Z AUTO 33011KT 10SM CLR M07/M17 A2990 RMK AO2 SLP155
     T10671172 51044=
KYKM 110253Z 19018G26KT 10SM CLR 06/00 A2994 RMK AO2 PK WND
     19026/0251 SLP148 T00610000 58024=
KGPI 110255Z 17007KT 10SM BKN038 OVC045 M01/M06 A2993 RMK AO2
     SLP172 60000 T10111056 51002=
KRNO 110255Z 23003KT 10SM CLR M01/M07 A3020 RMK AO2 SLP248
     T10061067 53004=
KSCK 110255Z 19003KT 10SM CLR 05/00 A3023 RMK AO2 SLP237 T00500000
     53014=
KBIH 110256Z AUTO 00000KT 10SM CLR 00/M13 A3020 RMK AO2 SLP243
     T00001133 53024=
KEDU 110255Z AUTO 00000KT 10SM CLR 04/00 A3024 RMK AO1=
KFSD 110256Z 35015KT 1SM -SN BR VV013 M02/M04 A2972 RMK AO2 TWR
     VIS 1 1/4 SLP082 P0002 60006 T10171044 50010 RVRNO $=
KBZN 110256Z 25008KT 10SM FEW070 M03/M16 A2993 RMK AO2 SLP186
     T10281156 50006=
KCAE 110256Z 13003KT 1/4SM FG VV002 11/11 A3012 RMK AO2 SLP201
     60001 T01110106 58003 RVRNO=
KCHS 110256Z 14006KT 10SM FEW040 FEW050 SCT100 14/12 A3014 RMK AO2
     SLP204 T01390122 58002=
KJAX 110256Z 15004KT 9SM CLR 18/18 A3013 RMK AO2 SLP202 T01830178
     51004=
KGNG 110255Z AUTO 20006KT 10SM SCT050 OVC060 M02/M06 A3022 RMK
     AO2=
KHTH 110255Z AUTO 15004KT 8SM CLR M03/M07 A3024 RMK A01=
KLWS 110256Z 14003KT 10SM OVC070 02/M01 A3006 RMK AO2 SLP191
     T00221011 58006=
KMKN 110255Z AUTO 27006KT 10SM CLR 21/05 A2981 RMK AO2
     T02080051=
KMOB 110256Z 17008KT 8SM OVC006 23/22 A3002 RMK AO2 SLP161
     T02280217 51011=
KO86 110250Z AUTO 00000KT 9SM CLR 00/M02 A3020 RMK AO1=
KOFK 110256Z AUTO 34022G32KT 1 1/4SM -SN FEW008 SCT012 OVC017
     M02/M04 A2970 RMK AO2 PK WND 33033/0237 SLP074 P0002 60014
     T10171044 51025 $=
KRFI 110255Z AUTO 17007KT 10SM CLR 23/20 A2976 RMK AO2
     T02300197=
KRLD 110255Z AUTO 18013G17KT 10SM OVC100 08/00 A3003 RMK AO2
     T00780002=
KS39 110255Z AUTO 20006KT 10SM BKN044 BKN055 OVC075 03/M04 A3007
     RMK AO2=
KSEP 110255Z AUTO 28007KT 10SM CLR 22/04 A2981 RMK AO2
     T02230036=
KSFO 110256Z 27010KT 10SM FEW200 11/05 A3024 RMK AO2 SLP240
     T01060050 51014=
KSFY 110255Z AUTO 05007KT 5SM -DZ BKN004 OVC011 06/06 A2930 RMK
     AO2 LTG DSNT NW P0002=
KSHV 110256Z 19014G20KT 10SM FEW026 SCT034 BKN044 25/19 A2973 RMK
     AO2 SLP065 T02500194 50007=
KSVE 110255Z AUTO 29005KT 10SM CLR M03/M07 A3020 RMK AO2=


234 
SAUS70 KWBC 110300 RRC
METAR
KBGF 110255Z AUTO 19014G21KT 10SM OVC011 19/18 A2987 RMK A01=
KBJC 110254Z 28018G28KT 10SM FEW080 M03/M19 A2993=
KDTA 110255Z AUTO 10SM CLR M08/M10 A3026 RMK AO1=
KDYB 110255Z AUTO 00000KT 1 1/4SM BR SCT024 BKN031 OVC037 13/13
     A3014 RMK AO2 P0001=
KDZB 110255Z AUTO 20006KT 10SM CLR 22/17 A2980 RMK AO2
     T02240173=
KEAU 110256Z AUTO 03008KT 1/4SM SN FZFG VV006 M02/M03 A2958 RMK
     AO2 SLP028 P0000 60000 T10171028 57037=
KEBG 110255Z AUTO 16009KT 10SM BKN015 25/23 A2979 RMK AO2
     T02480230 TSNO=
KEDC 110255Z AUTO 20006KT 7SM FEW018 22/22 A2978 RMK AO2=
KEDN 110255Z AUTO 17008KT 10SM OVC007 21/21 A3005 RMK AO2
     T02100210=
KEED 110256Z AUTO 33010KT 10SM CLR 11/M11 A3021 RMK AO2 SLP222
     T01111111 51021=
KEKE 110255Z AUTO 15025KT 4SM HZ FEW020 25/23 A2998 RMK A01=
KEKO 110256Z AUTO 25006KT 10SM CLR M06/M11 A3020 RMK AO2 SLP270
     T10611111 52005=
KEKS 110255Z AUTO 16013KT 10SM FEW049 OVC060 M04/M17 A3000 RMK
     AO2=
KELA 110255Z AUTO 20011G19KT 10SM OVC013 A2981 RMK AO2=
KELK 110255Z AUTO 33021G28KT 10SM CLR 06/M03 A2988 RMK AO2
     T00631035=
KF05 110255Z AUTO 35020G28KT 10SM CLR 17/M02 A2979 RMK AO2
     T01691018=
KF44 110255Z AUTO 19006KT 10SM CLR 23/19 A2972 RMK AO2=
KF45 110245Z AUTO 00000KT A3015 RMK AO2=
KF46 110255Z AUTO 20006KT 10SM BKN043 BKN050 22/19 A2972 RMK AO2
     T02150186=
KF70 110255Z AUTO 34003KT 10SM CLR 07/02 A3015 RMK AO2=
KFBR 110255Z AUTO 25014KT 10SM CLR M11/M14 A3009 RMK AO2
     T11101138=
KFDW 110315Z AUTO 15004KT 1/4SM FG OVC002 10/10 A3012 RMK AO1=
KFET 110255Z AUTO 33020G27KT 2 1/2SM -SN BKN010 OVC016 M01/M02
     A2963 RMK AO2 T10101025=
KFOT 110255Z AUTO 00000KT 10SM CLR 04/04 A3023 RMK AO1=
KFSE 110255Z AUTO 19006KT 10SM CLR M08/M11 A2975 RMK AO2=
KFTN 110255Z AUTO 00000KT 10SM 24/13 A2978 RMK A01=
KFWB 110255Z AUTO RMK AO2 PNO PWINO TSNO=
KFWS 110255Z AUTO 26005KT 10SM CLR 22/04 A2975 RMK AO2
     T02220046=
KFYE 110255Z AUTO 19015KT 150V210 10SM FEW030 BKN037 OVC085 24/20
     A2969 RMK A01=
KFYM 110300Z AUTO 17010KT 7SM BKN007 OVC010 19/19 A2987 RMK
     A01=
KGCY 110255Z AUTO 00000KT 10SM BKN075 10/08 A2995 RMK A01=
KGDJ 110255Z AUTO 27009KT 10SM CLR 22/05 A2976 RMK AO2
     T02160050=
KGHB 110300Z AUTO 17015G24KT 6SM BR FEW018 BKN023 BKN028 25/25 RMK
     A01=
KGKT 110255Z AUTO 00000KT 10SM FEW055 SCT065 OVC080 10/09 A2995
     RMK A01=
KGLE 110255Z AUTO 27010KT 5SM HZ OVC041 24/04 A2972 RMK AO2
     T02350035=
K05U 110255Z AUTO 18005KT 10SM CLR M12/M15 A3022 RMK A01=
K0A0 110255Z AUTO 22005KT 10SM CLR 09/M04 A3003 RMK AO2=
K0A9 110255Z AUTO 00000KT 10SM BKN075 12/11 A2997 RMK A01=
K0CO 110255Z AUTO 1/4SM +SN OVC003 M22/M25 A2961 RMK AO2=
K0F2 110255Z AUTO 28014G22KT 7SM CLR 24/04 A2972 RMK AO2
     T02350035=
K0R0 110255Z AUTO 18009G15KT 10SM BKN012 BKN018 23/21 A2996 RMK
     AO2=
K0R4 110255Z AUTO 17012KT 10SM SCT018 SCT026 BKN065 23/21 A2987
     RMK AO2 T02270205=
K13K 110255Z AUTO 29017G28KT 10SM CLR 03/M03 A2966 RMK AO2
     T00281026=
K1A9 110255Z AUTO 16003KT 10SM BKN019 OVC026 20/20 A3001 RMK AO2
     T01980198=
K1K1 110255Z AUTO 31016G21KT 10SM CLR 01/M04 A2971 RMK AO2
     T00111045=
K1M5 110255Z AUTO 18014G20KT 10SM OVC007 19/18 A2975 RMK A01=
K28J 110255Z AUTO 15005KT 8SM FEW031 FEW045 18/17 A3014 RMK
     AO2=
K2A0 110255Z AUTO 00000KT 1/2SM FG OVC002 12/11 A2994 RMK A01=
K2M2 110255Z AUTO 18007G17KT 140V200 10SM BKN010 OVC014 21/19
     A2980 RMK A01=
K2V5 110255Z AUTO 10SM SCT019 SCT032 BKN046 M02/M04 A2989 RMK
     AO2=
K33N 110255Z AUTO 00000KT 10SM OVC025 08/06 A3011 RMK A01=


235 
SAUS80 KWBC 110300 RRA
METAR
KWMC 110256Z AUTO 17010KT 10SM CLR M03/M07 A3020 RMK AO2 SLP262
     T10281072 51003=
TJSJ 110256Z 08010KT 10SM FEW025 SCT033 SCT055 27/22 A3000 RMK AO2
     SLP156 T02670217 51004=
K2WX 110256Z AUTO 28008KT M07/M12 A2978 RMK AO1 SLP123 T10671122
     50005=
K8D3 110256Z AUTO 28004KT M01/M04 A2976 RMK AO1 SLP099 T10111039
     58002=
KAST 110255Z AUTO 18019G27KT 8SM -RA FEW022 BKN031 OVC038 10/07
     A2991 RMK AO2 PK WND 18031/0242 RAB20 SLP129 P0000 60001
     T01000067 58026=
KRFI 110255Z AUTO 17007KT 10SM CLR 23/20 A2976 RMK AO2
     T02300197=
KCBE 110255Z AUTO 00000KT 5SM -RA SCT028 SCT075 OVC090 06/03 A3007
     RMK AO2 T00560025=
KDVL 110256Z AUTO 23003KT 10SM CLR M12/M12 A2973 RMK AO2 SLP657
     T11171122 56006 FZRANO=
KMKG 110255Z 15010G25KT 5SM -RA BR BKN006 OVC016 04/03 A2949 RMK
     AO2 SLP992 P0012 60042 T00440028 58063=
KBZN 110256Z 25008KT 10SM FEW070 M03/M16 A2993 RMK AO2 SLP186
     T10281156 50006=
KDRA 110253Z AUTO 03011KT 10SM CLR 04/M08 A3022 RMK AO2 SLP234
     T00391083 51018=
KGNG 110255Z AUTO 20006KT 10SM SCT050 OVC060 M02/M06 A3022 RMK
     AO2=
KHTH 110255Z AUTO 15004KT 8SM CLR M03/M07 A3024 RMK A01=
KO86 110250Z AUTO 00000KT 9SM CLR 00/M02 A3020 RMK AO1=
KCHS 110256Z 14006KT 10SM FEW040 FEW050 SCT100 14/12 A3014 RMK AO2
     SLP204 T01390122 58002=
KSYR 110254Z 07006KT 10SM BKN050 BKN180 03/01 A3004 RMK AO2 SLP170
     T00280006 58008=
KFSD 110256Z 35015KT 1SM -SN BR VV013 M02/M04 A2972 RMK AO2 TWR
     VIS 1 1/4 SLP082 P0002 60006 T10171044 50010 RVRNO $=
KOFK 110256Z AUTO 34022G32KT 1 1/4SM -SN FEW008 SCT012 OVC017
     M02/M04 A2970 RMK AO2 PK WND 33033/0237 SLP074 P0002 60014
     T10171044 51025 $=
KS39 110255Z AUTO 20006KT 10SM BKN044 BKN055 OVC075 03/M04 A3007
     RMK AO2=
KSVE 110255Z AUTO 29005KT 10SM CLR M03/M07 A3020 RMK AO2=
KBIH 110256Z AUTO 00000KT 10SM CLR 00/M13 A3020 RMK AO2 SLP243
     T00001133 53024=
KSFO 110256Z 27010KT 10SM FEW200 11/05 A3024 RMK AO2 SLP240
     T01060050 51014=
KRLD 110255Z AUTO 18013G17KT 10SM OVC100 08/00 A3003 RMK AO2
     T00780002=
KSEP 110255Z AUTO 28007KT 10SM CLR 22/04 A2981 RMK AO2
     T02230036=
TJSJ 110256Z 08010KT 10SM FEW025 SCT033 SCT055 27/22 A3000 RMK AO2
     SLP156 T02670217 51004=
KSFY 110255Z AUTO 05007KT 5SM -DZ BKN004 OVC011 06/06 A2930 RMK
     AO2 LTG DSNT NW P0002=
KLWS 110256Z 14003KT 10SM OVC070 02/M01 A3006 RMK AO2 SLP191
     T00221011 58006=
KMKN 110255Z AUTO 27006KT 10SM CLR 21/05 A2981 RMK AO2
     T02080051=
KEDU 110255Z AUTO 00000KT 10SM CLR 04/00 A3024 RMK AO1=
KWMC 110256Z AUTO 17010KT 10SM CLR M03/M07 A3020 RMK AO2 SLP262
     T10281072 51003=
KMWN 110254Z 28025KT 0SM FZFG VV000 M05/M05 RMK VRY LGT ICG=
PABT 110253Z COR 00000KT 10SM OVC065 M14/M18 A2910 RMK AO2 SLP877
     T11391178 53017=
KFLG 110257Z AUTO 02003KT 10SM CLR M08/M09 A3013 RMK AO2 SLP223
     T10781089 51013=
PHJR 110253Z 07008KT 10SM CLR 27/18 A3004 RMK AO2 SLP180 T02720178
     53004=
PHKO 110253Z 21007KT 10SM FEW009 SCT025 BKN065 27/21 A2998 RMK AO2
     SLP152 T02670206 53005=
PHMK 110254Z 04013G22KT 10SM CLR 24/19 A3004 RMK AO2 SLP175
     T02440189 53006 $=
PHNL 110253Z 06013G20KT 10SM FEW022 SCT040 26/18 A3004 RMK AO2
     SLP171 T02610183 53004=
PHNY 110256Z AUTO 02008KT 10SM SCT026 BKN035 22/21 A3008 RMK AO2
     SLP166 60000 T02220206 53001=
PHOG 110254Z 06017G25KT 10SM CLR 26/17 A3000 RMK AO2 PK WND
     07028/0156 SLP162 T02610172 53007=
PHTO 110253Z 11006KT 10SM FEW027 24/18 A3005 RMK AO2 SLP174
     T02440183 53002=
KSPD 110256Z AUTO 30011KT M02/M04 A2992 RMK AO1 SLP122 60002
     T10171039 51039=


236 
SAUS70 KWBC 110300 RRD
METAR
K3I2 110255Z AUTO 00000KT 10SM OVC019 16/13 A2985 RMK AO2
     T01620127=
K3J7 110255Z AUTO 00000KT 3/4SM BR OVC002 11/11 A3008 RMK AO2=
K3K8 110255Z AUTO 32020G29KT 10SM 01/M06 A2986 RMK AO2=
K3LF 110255Z AUTO 16012KT 4SM TSRA BKN008 OVC012 17/17 A2942 RMK
     AO2 LTG DSNT ALQDS P0001 60002 T01730171=
K3S8 110255Z AUTO 00000KT 7SM SCT110 03/02 A3022 RMK AO2=
K3T5 110255Z AUTO 18006KT 7SM OVC013 25/24 A2978 RMK AO2
     T02450236=
K46U 110255Z AUTO 00000KT 10SM SCT028 OVC034 M07/M11 A3010 RMK
     A01=
K4V0 110255Z AUTO 00000KT 10SM CLR M15/M17 A3015 RMK AO2
     T11521170=
K57C 110255Z AUTO 07008KT 2SM +RA OVC004 04/04 A2937 RMK AO2 P0020
     60026 T00370037=
K5A6 110255Z AUTO 19013G18KT 10SM SCT070 23/20 A2981 RMK AO2
     T02270196=
K5R8 110255Z AUTO 17009G16KT 10SM OVC010 24/22 A2987 RMK AO2
     T02350222=
K5T9 110255Z AUTO 10006KT 10SM CLR 17/09 A2977 RMK A01=
K65S 110250Z AUTO 20005KT 4SM -SN FEW003 BKN023 OVC033 M01/M03
     A2993 RMK AO2=
K66R 110255Z AUTO 19010G15KT 10SM OVC014 25/22 A2982 RMK AO2
     T02450221=
KBJJ 110256Z AUTO 18014G19KT 10SM FEW026 11/10 A2977 RMK AO2 RAE20
     SLP083 P0001 60002 T01110100 58035=
KBKD 110255Z AUTO 28010KT 7SM SCT031 SCT110 23/03 A2978 RMK AO2
     T02270033=
KBPC 110255Z AUTO 36008KT 10SM OVC110 05/M05 A2994 RMK AO2=
KBQX 110255Z AUTO 18019KT 5SM BR BKN030 24/23 A2982 RMK A01=
KBTA 110255Z AUTO 33018G24KT 1 1/2SM -SN OVC006 M01/M02 A2955 RMK
     AO2 P0001 60001 T10121021=
KBTN 110255Z AUTO 20005KT 10SM FEW110 M03/M05 A2977 RMK AO2=
KBXA 110255Z AUTO 19008KT 10SM SCT014 SCT020 BKN034 24/21 A2996
     RMK AO2 T02350213=
KBYY 110255Z AUTO 20011KT 7SM SCT020 SCT028 OVC038 23/22 A2982 RMK
     AO2 T02400228=
KC09 110255Z AUTO 17014KT 2SM +VCTSRA OVC002 13/13 A2934 RMK AO2
     LTG DSNT W P0010 60020 T01300130=
KC83 110255Z AUTO 24006KT 10SM CLR 04/01 A3025 RMK AO2=
KCBK 110255Z AUTO 31011KT 10SM BKN021 OVC044 M03/M06 A2989 RMK AO2
     T10311058=
KCEC 110256Z AUTO 00000KT 9SM CLR 06/04 A3022 RMK AO2 SLP234
     T00610044 58010=
KCKC 110257Z AUTO 35003KT 10SM BKN090 M07/M08 A2971 RMK AO2=
KCQF 110255Z AUTO RMK AO2 PWINO PNO=
KCQM 110256Z AUTO 00000KT 10SM SCT085 M07/M08 A2973 RMK AO2=
KCRX 110255Z AUTO 19016G27KT 10SM BKN021 OVC028 23/20 A2974 RMK
     AO2=
KCTB 110256Z AUTO 26032G41KT 10SM CLR M02/M11 A2961 RMK AO2 PK WND
     26041/0246 SLP071 T10221111 58017=
KCWC 110255Z AUTO 28008KT 10SM CLR 22/02 A2975 RMK AO2
     T02210023=
KCXP 110255Z AUTO 00000KT 10SM CLR M01/M08 A3021 RMK AO2=
KCXW 110255Z AUTO 20022G28KT 10SM FEW031 SCT043 BKN049 22/19 A2956
     RMK A01=
KCXY 110256Z AUTO 10006KT 10SM OVC038 08/01 A3007 RMK AO2 SLP187
     T00780011 58010=
KCZL 110255Z AUTO 19003KT 5SM BR OVC004 13/13 A3002 RMK AO2=
KDAY 110256Z 17012KT 1/4SM R06L/5500VP6000FT -RA BR OVC002 14/12
     A2971 RMK AO2 SFC VIS 3/4 SLP060 P0000 60002 T01440122
     58031=
KDCM 110255Z AUTO 00000KT 1 1/4SM BR OVC003 11/11 A3012 RMK AO2
     P0001=
KDIK 110256Z AUTO 26009KT 10SM CLR M07/M11 A2974 RMK AO2 SLP107
     T10721111 50003=
KDKX 110255Z AUTO 00000KT 10SM SCT033 BKN048 OVC075 11/09 A2996
     RMK A01=
KDMW 110255Z AUTO 14007KT 10SM SCT022 BKN030 08/02 A3005 RMK
     AO2=
KDNV 110255Z AUTO 17017G24KT 3SM BR OVC004 16/16 A2945 RMK AO2
     T01590156=
KDSF 110255Z AUTO 13011KT 5SM BR CLR 24/23 A3003 RMK A01=
KI74 110255Z AUTO 16011G16KT 2 1/2SM BR OVC003 11/11 A2973 RMK
     AO2=
KIER 110255Z AUTO 19008KT 10SM BKN023 OVC028 24/21 A2981 RMK AO2
     T02430212=
KIFP 110255Z AUTO 05008KT 10SM CLR 11/M12 A3023 RMK AO2=


239 
SAUS70 KWBC 110300 RRE
METAR
KIGQ 110255Z AUTO 17014G20KT 4SM -RA OVC005 13/13 A2937 RMK AO2
     60009 T01310131=
KIKG 110255Z AUTO 14004KT 10SM CLR 24/22 A2979 RMK AO2
     T02360219=
KIKT 110255Z AUTO 16011KT 6SM BR CLR 23/23 A3003 RMK A01=
KIMM 110255Z AUTO 00000KT 10SM FEW048 SCT065 BKN110 23/21 A3012
     RMK AO2 PWINO=
KINJ 110255Z AUTO 24006KT 10SM CLR 23/19 A2976 RMK AO2
     T02310188=
KIOB 110255Z AUTO 19010KT 10SM OVC015 15/15 A2981 RMK AO2
     P0001=
KIYA 110255Z AUTO 15010KT 7SM OVC007 23/21 A2991 RMK AO2
     T02280208=
KJAU 110255Z AUTO 00000KT 2SM BR OVC004 10/10 A2999 RMK A01
     P0002=
KJMS 110256Z AUTO 00000KT 10SM CLR M09/M12 A2974 RMK AO2 SLP098
     I1000 I3000 T10891117 56004=
KJSV 110255Z AUTO 22009KT 10SM CLR 21/16 A2957 RMK AO2=
KJTC 110255Z AUTO 33007KT 10SM CLR M02/M10 A3016 RMK AO2=
KJVW 110255Z AUTO 18010KT 10SM BKN027 OVC035 24/24 A2987 RMK
     AO2=
KJWG 110255Z AUTO 31017G26KT 10SM CLR 06/M03 A2984 RMK AO2
     T00601033=
KJWY 110255Z AUTO 27004KT 10SM BKN045 OVC060 23/16 A2975 RMK AO2
     T02270163=
KJXN 110256Z AUTO 11010KT 6SM BR OVC005 08/07 A2957 RMK AO2
     RAE06B09E42 PRESFR SLP019 P0002 60036 T00830072 58040 $=
KJYG 110256Z AUTO 35020G27KT M02/M03 A2960 RMK AO2 PWINO=
KJYL 110255Z AUTO 00000KT 5SM BR SCT032 16/15 A3014 RMK AO2
     T01550148=
KK82 110255Z AUTO 31015G19KT 10SM OVC017 M01/M04 A2979 RMK AO2=
KLAS 110256Z 04008KT 10SM CLR 08/M12 A3025 RMK AO2 SLP247
     T00781117 53023=
KLCG 110255Z AUTO 33021G28KT 1 3/4SM -SN BKN008 OVC013 M02/M03
     A2968 RMK AO2 T10181031=
KLHB 110255Z AUTO 15006KT A2978 RMK AO2 PWINO=
KLHM 110255Z AUTO 00000KT 10SM CLR 04/01 A3022 RMK AO1=
KLJF 110255Z 36011KT 3SM UP M02/M04 A2971 RMK AO2=
KLNA 110255Z AUTO 09003KT 10SM SCT021 24/21 A3014 RMK AO2 6////
     T02350210 PNO=
KLNC 110255Z AUTO 24004KT 10SM CLR 24/16 A2974 RMK AO2
     T02400155=
KLNR 110256Z AUTO 07007KT 6SM -RA BR OVC009 02/00 A2940 RMK AO2
     SLP957 P0004 60014 T00170000 55036=
KLUD 110255Z AUTO 25007KT 5SM HZ OVC008 23/04 A2973 RMK AO2
     T02310037=
KLUG 110255Z AUTO 19018KT 10SM BKN014 BKN018 OVC027 21/20 A2979
     RMK A01=
KLUV 110255Z AUTO 24015KT 10SM CLR 15/00 A2990 RMK AO2=
KGLW 110255Z AUTO 19006KT 10SM OVC012 18/17 A2976 RMK AO2 LTG DSNT
     W AND NW T01800167=
KGMJ 110255Z AUTO 22012G16KT 10SM CLR 21/08 A2953 RMK AO2=
KGON 110256Z 35004KT 9SM CLR M01/M01 A3015 RMK AO2 SLP209
     T10061006 56004=
KGOO 110250Z AUTO 00000KT 10SM CLR 02/M01 A3017 RMK A01=
KGPM 110255Z AUTO 22005KT 10SM BKN001 24/06 A2974 RMK AO2
     T02400058=
KGRD 110256Z AUTO 00000KT 1/2SM FG VV003 11/11 A3012 RMK AO2
     SLP197 T01060106 58008=
KGRN 110255Z AUTO 26005KT 10SM SCT060 BKN070 OVC085 M08/M09 A2985
     RMK AO2 T10801090=
KGRY 110250Z AUTO 22021G26KT 10SM FEW022 FEW029 26/21 A2998 RMK
     A01=
KGUL 110300Z AUTO 19012KT 8SM CLR 25/23 A2988 RMK A01=
KGYB 110255Z AUTO 17006KT 7SM OVC012 24/22 A2980 RMK AO2
     T02360218=
KGYI 110255Z AUTO 25009KT 7SM SCT026 23/05 A2970 RMK AO2
     T02280054=
KGZN 110240Z AUTO 28008G14KT 10SM BKN019 OVC055 21/02 A2978 RMK
     AO2=
KGZS 110255Z AUTO 19014KT 10SM OVC013 21/20 A2980 RMK A01=
KH71 110255Z AUTO 30018G24KT 10SM BKN024 BKN030 OVC100 17/03 A2958
     RMK AO2=
KHCR 110255Z AUTO 08004KT 10SM BKN046 BKN050 M12/M16 A3018 RMK
     AO2=
KHFJ 110255Z AUTO 20016G21KT 10SM CLR 16/15 A2949 RMK AO2=
KHHF 110255Z AUTO 34019G24KT 10SM BKN110 05/M04 A2991 RMK AO2
     T00451040=
KHHV 110255Z AUTO 18024G30KT 4SM HZ FEW011 25/23 A2983 RMK A01=
KHLB 110255Z AUTO 17008KT 2SM BR OVC002 15/15 A2967 RMK A01
     P0009=


240 
SAUS70 KWBC 110300
METAR
KAFJ 110256Z AUTO 17004KT 10SM -RA OVC022 11/09 A2991 RMK AO2
     RAB15 SLP128 P0000 60000 T01110089 58019=
KBHB 110256Z AUTO 35003KT 10SM SCT029 BKN034 OVC055 M03/M04 A3022
     RMK AO2 SLP234 T10281044 51007 FZRANO=
KBID 110256Z AUTO 00000KT 10SM CLR 06/04 A3015 RMK AO2 SLP210
     T00560044 56009=
KBLM 110256Z AUTO 00000KT 10SM OVC050 07/05 A3013 RMK AO2 SLP204
     6//// T00670050 55011 PNO $=
KBTP 110256Z AUTO 14005KT 10SM FEW020 BKN075 OVC090 11/06 A2989
     RMK AO2 RAB44E55 SLP129 P0000 60000 T01110061 56019=
KELZ 110256Z AUTO 16010KT 10SM CLR 04/M02 A2994 RMK AO2 SLP153
     T00391022 58020=
KGAI 110256Z AUTO 10004KT 10SM OVC019 08/02 A3007 RMK AO2 SLP198
     T00780022 58007=
KGVQ 110256Z AUTO 18006KT 10SM CLR 05/02 A2991 RMK AO2 SLP133
     T00500017 58029=
KRKD 110256Z AUTO 00000KT 10SM BKN029 OVC050 M02/M03 A3021 RMK AO2
     SLP232 T10221028 53002 FZRANO=
KSFZ 110256Z AUTO 03003KT 10SM OVC022 02/M01 A3016 RMK AO2 SLP223
     6//// T00171006 58003 FZRANO PNO $=
KUCP 110256Z AUTO 14007KT 7SM RA FEW050 BKN070 OVC085 11/07 A2986
     RMK AO2 RAB38 PRESFR SLP128 P0000 60000 T01060072 58025=
KASH 110256Z AUTO 00000KT 10SM CLR M03/M04 A3018 RMK AO2 SLP228
     T10331044 58002=
KBKX 110256Z AUTO 01007KT 7SM -SN BKN029 OVC039 M03/M04 A2974 RMK
     AO2 SLP107 P0000 60000 T10281039 50005 FZRANO=
KESC 110256Z AUTO 05008KT 1/4SM +SN FG OVC003 00/M01 A2968 RMK AO2
     SLP061 P0000 60000 T00001006 58045 FZRANO $=
KIWD 110256Z AUTO 06004KT 1 1/4SM -SN OVC016 M03/M06 A2972 RMK AO2
     SLP086 P0000 60000 T10281056 50001 FZRANO=
KJHW 110256Z AUTO 16006KT 10SM BKN036 BKN110 06/02 A2988 RMK AO2
     SLP133 T00560022 58023=
KMKT 110256Z AUTO 36020KT 1 1/4SM -SN OVC005 A2959 RMK AO2 SLPNO
     P0000 60000 58020 FZRANO $=
KMVN 110256Z AUTO 18014G22KT 10SM BKN029 BKN038 OVC070 19/19 A2950
     RMK AO2 SLP991 60000 T01940194 56044=
KOLU 110256Z AUTO 33019G25KT 1 3/4SM -SN BR BKN009 OVC016 M02/M02
     A2970 RMK AO2 PK WND 33027/0234 CIG 007V011 SLP074 P0000
     60001 T10221022 51027 FZRANO=
KSFM 110256Z AUTO 12003KT 10SM BKN009 M05/M07 A3020 RMK AO2 SLP233
     T10501067 53001 FZRANO=
KSQI 110256Z 14004KT 7SM RA BKN010 BKN015 OVC035 10/10 A2932 RMK
     AO2 LTG DSNT E AND SW CIG 007V012 SLP797 P0039 60093
     T01000100 55040=
KSUE 110256Z AUTO 06012G19KT 1 1/4SM -SN BR OVC004 01/00 A2954 RMK
     AO2 SLP010 P0002 6//// T00060000 56035 FZRANO $=
KUGN 110255Z 35005KT 2 1/2SM RA BR OVC002 08/07 A2934 RMK AO2
     SLP941 P0014 60033 T00780072 58078=
KCVO 110256Z AUTO 17015KT 10SM OVC033 07/04 A3011 RMK AO2 SLP198
     T00720044 56010=
KDIJ 110256Z AUTO 16008KT 10SM CLR M11/M13 A3004 RMK AO2 SLP250
     T11061133 51008=
KHDN 110256Z AUTO 28009KT 10SM FEW033 M11/M13 A3006 RMK AO2 SLP247
     60000 T11061133 51025 FZRANO=
KHYI 110256Z AUTO 26004KT 9SM CLR 21/20 A2980 RMK AO2 SLP084 6////
     T02060200 53022 PNO $=
KKLS 110256Z AUTO 15015G20KT 10SM OVC015 07/05 A3000 RMK AO2 RAE30
     SLP161 P0000 60003 T00720050 58027=
KLLJ 110255Z AUTO 22007KT 10SM OVC060 M04/M13 A3004 RMK AO2 SLP220
     T10391133 53010=
KLRD 110256Z 14007KT 10SM CLR 24/19 A2976 RMK AO2 SLP075 T02440189
     51020=
KPWT 110256Z AUTO 19012G29KT 9SM -RA OVC005 06/05 A2984 RMK AO2 PK
     WND 22029/0248 SLP111 P0005 60020 T00560050 58026=
KSDY 110256Z AUTO 19004KT 10SM CLR M09/M12 A2977 RMK AO2 SLP126
     T10941117 50000 FZRANO=
KSGU 110256Z AUTO 06018KT 10SM CLR 03/M11 A3025 RMK AO2 SLP253
     6//// T00281106 51017 PNO $=
KSKX 110256Z AUTO 10SM CLR M09/M15 A3008 RMK AO2 SLP223 T10891150
     53043 FZRANO $=


241 
SAXX60 KWBC 110300 RRB
METAR
KRIV 110256Z AUTO 00000KT 10SM CLR 06/04 A3014 RMK AO2 SLP210
     T00630035 50009=
KRND 110256Z AUTO 14003KT 10SM CLR 20/19 A2977 RMK AO2 SLP075
     T02020187 52020=
KSSC 110256Z AUTO 11003KT 2 1/2SM BR OVC003 11/11 A3012 RMK AO2
     OVC V BKN SLP202 T01140106 58005=
KNSI 110253Z AUTO 32007KT 10SM CLR 08/07 A3015 RMK AO2 SLP208
     T00780067 51016 $=
K9L2 110258Z AUTO 01005KT 10SM CLR 04/M04 A3020 RMK AO2 SLP240
     T00441036 53018=
KBAD 110256Z AUTO 18014KT 10SM SCT021 BKN027 BKN033 24/20 A2973
     RMK AO2 CIG 021V027 BKN027 V OVC SLP069 T02350200 50008=
KFBG 110256Z AUTO 22003KT 4SM BR OVC017 11/11 A3012 RMK AO2 SLP203
     60001 T01140112 58004 $=
KHRT 110256Z AUTO 15009KT 10SM OVC006 22/21 A3004 RMK AO2 SLP174
     T02190209 52008 $=
KHST 110256Z AUTO 07004KT 10SM CLR 23/21 A3010 RMK AO2 SLP196
     T02340209 50007=
KLRF 110256Z 21009KT 10SM CLR 20/19 A2959 RMK AO2A PK WND 24056/21
     LTG DSNT NE-E RAE37 TSE41 SLP021 P0107 60112 T01990189
     55015=
KNBG 110255Z 17009KT 9SM FEW015 SCT030 SCT045 23/22 A2996 RMK AO2
     SLP145 T02330222 50008 $=
KNIP 110253Z 16007KT 10SM CLR 20/19 A3014 RMK AO2 SLP202 T02000194
     51003=
KNKX 110255Z 00000KT 10SM CLR 09/07 A3013 RMK AO2 SLP199 T00890072
     50003 $=
KNMM 110256Z AUTO 18007KT 10SM SCT017 BKN022 OVC043 22/21 A2993
     RMK AO2 SLP141 T02220206 50000=
KNTD 110252Z 06003KT 10SM CLR 10/07 A3017 RMK AO2 SLP219 T01000067
     51019 CHINO N VISNO N $=
KRND 110256Z AUTO 14003KT 10SM CLR 20/19 A2977 RMK AO2 SLP075
     T02020187 52020=
PMDY 110256Z AUTO 08014KT 10SM FEW017 SCT028 25/21 A3003 RMK AO2
     SLP167 6//// T02500211 55003=
KMCC 110255Z AUTO 00000KT 9SM CLR 07/02 A3023 RMK AO2=
KBAD 110256Z AUTO 18014KT 10SM SCT021 BKN027 BKN033 24/20 A2973
     RMK AO2 CIG 021V027 BKN027 V OVC SLP069 T02350200 50008=
KBKF 110258Z 29008KT 10SM FEW100 M06/M16 A2992 RMK AO2A SLP161
     T10561162 51028=
KCBM 110256Z AUTO 18014G21KT 10SM CLR 23/20 A2984 RMK AO2 PK WND
     17026/27 SLP106 T02280199 58006 TSNO $=
KDYS 110256Z AUTO 25009KT 10SM CLR 20/M00 A2981 RMK AO2 SLP065
     T02031004 52027=
KEDW 110256Z 07005KT 30SM CLR 05/M03 A3018 RMK AO2A SLP233
     T00491034 52016=
KFBG 110256Z AUTO 22003KT 4SM BR OVC017 11/11 A3012 RMK AO2 SLP203
     60001 T01140112 58004 $=
KFCS 110255Z 33012KT 10SM FEW200 M03/M27 A2995 RMK AO2A SLP234 WND
     DATA ESTMD=
KGRF 110256Z 15018G22KT 10SM -RA BKN031 OVC040 07/03 A2988 RMK
     AO2A SLP124 P0000 60000 T00690031 57032 $=
KHIF 110256Z 15010KT 10SM SCT070 M06/M11 A3019 RMK AO2A SLP256
     T10591107 52014 $=
KHST 110256Z AUTO 07004KT 10SM CLR 23/21 A3010 RMK AO2 SLP196
     T02340209 50007=
KIAB 110256Z AUTO 31019G26KT 10SM BKN140 03/M04 A2971 RMK AO2 PK
     WND 31033/23 SLP066 T00251045 52049 $=
KLHW 110256Z AUTO 12003KT 8SM CLR 15/14 A3011 RMK AO2 SLP199
     T01500144 50001 $=
KMCC 110255Z AUTO 00000KT 9SM CLR 07/02 A3023 RMK AO2=
KNBG 110255Z 17009KT 9SM FEW015 SCT030 SCT045 23/22 A2996 RMK AO2
     SLP145 T02330222 50008 $=
KNUQ 110255Z AUTO 00000KT 10SM CLR 09/02 A3024 RMK AO2=
K9L2 110258Z AUTO 01005KT 10SM CLR 04/M04 A3020 RMK AO2 SLP240
     T00441036 53018=
KNTD 110252Z 06003KT 10SM CLR 10/07 A3017 RMK AO2 SLP219 T01000067
     51019 CHINO N VISNO N $=
KRND 110256Z AUTO 14003KT 10SM CLR 20/19 A2977 RMK AO2 SLP075
     T02020187 52020=
KDLF 110256Z AUTO 03003KT 10SM BKN140 19/13 A2979 RMK AO2 SLP080
     T01930130 52024 $=
KDOV 110256Z AUTO 00000KT 10SM OVC024 08/07 A3009 RMK AO2 SLP193
     60000 T00770071 55006 $=
KFHU 110258Z AUTO 28007KT 10SM CLR 06/03 A3014 RMK AO2 SLP188
     T00550028 52015=


242 
SAUS70 KWBC 110300 RRG
METAR
KPEZ 110255Z AUTO 07006KT 10SM CLR 23/18 A2978 RMK AO2
     T02280184=
KPHT 110255Z AUTO 17019KT 10SM BKN021 BKN034 OVC095 22/20 A2964
     RMK A01=
KPKV 110255Z AUTO 18014G19KT 7SM BKN025 25/23 A2980 RMK AO2
     T02500225=
KPLD 110315Z AUTO 17010G15KT 5SM BR OVC004 13/12 A2962 RMK AO2=
KPNM 110257Z AUTO 34008KT 2 1/2SM -SN SCT007 OVC012 M02/M03 A2971
     RMK AO2=
KPRS 110255Z AUTO 30011KT 10SM CLR 20/06 A2996 RMK AO2
     T01990055=
KPTD 110255Z AUTO 36004KT 10SM OVC040 00/M02 A3007 RMK AO2=
KPVE 110255Z AUTO 19014G22KT 10SM BKN020 OVC027 22/20 A2970 RMK
     A01=
KPVF 110255Z AUTO 10003KT 10SM BKN020 03/02 A3021 RMK AO1=
KPVJ 110255Z AUTO 26014G22KT 10SM BKN100 23/02 A2967 RMK AO2
     T02250015=
KPWC 110255Z AUTO 00000KT 10SM OVC080 M05/M07 A2977 RMK AO=
KPYX 110255Z AUTO 33016G24KT 10SM SCT026 BKN034 OVC047 03/M03
     A2989 RMK AO2 T00301033=
KPZZ 110255Z AUTO 18022KT CLR 25/22 A2996 RMK A01=
KRCR 110255Z AUTO 15013G23KT 2SM BR OVC003 13/12 A2945 RMK AO2=
KRDM 110256Z 19008KT 10SM SCT075 OVC090 04/M04 A3005 RMK AO2
     SLP196 T00441044 58009=
KREG 110255Z AUTO 17009KT 10SM OVC015 25/23 A2993 RMK AO2
     T02450225=
KRGA 110255Z AUTO 18013G20KT 10SM OVC014 16/15 A2981 RMK AO2=
KRKW 110250Z AUTO VRB05KT 1SM BR OVC003 11/11 A2995 RMK A01=
KRNC 110255Z AUTO 21011G17KT 10SM OVC015 20/17 A2985 RMK A01=
KRRT 110255Z AUTO 23003KT 10SM CLR M09/M12 A2971 RMK AO2=
KRSN 110255Z AUTO 20012G20KT 10SM BKN023 BKN027 OVC060 24/20 A2981
     RMK AO2 T02390196=
KRSV 110255Z AUTO 17013G21KT 10SM VCTS OVC009 17/16 A2952 RMK AO2
     LTG DSNT E AND SE T01700163=
KRTS 110255Z AUTO 00000KT 10SM CLR M03/M08 A3019 RMK AO2=
KRYW 110255Z AUTO 22005KT 10SM CLR 22/18 A2980 RMK AO2
     T02220180=
KRZL 110255Z AUTO 15017G23KT 3SM BR OVC003 14/13 A2939 RMK AO2=
KRZR 110255Z AUTO 20013KT 160V220 10SM OVC010 17/17 A2993 RMK
     A01=
KSAA 110255Z AUTO 24016KT 10SM CLR M12/M14 A2994 RMK AO2=
KSAR 110255Z AUTO 20013G22KT 10SM SCT032 SCT039 SCT047 21/18 A2951
     RMK AO2 LTG DSNT N T02060180=
KSBP 110256Z 35005KT 10SM CLR 11/02 A3020 RMK AO2 SLP226 T01110017
     53017=
KSCD 110255Z AUTO 19010G15KT 10SM OVC015 21/19 A3000 RMK AO2
     T02080193=
KSCX 110255Z AUTO 21016G25KT 10SM OVC006 15/14 A2990 RMK A01=
KSDF 110256Z 18013G22KT 10SM -RA BKN014 OVC018 19/17 A2967 RMK AO2
     LTG DSNT SE AND SW RAB23 SLP044 P0000 60000 T01890167
     58041=
KSEM 110255Z AUTO 18007G12KT 8SM FEW010 SCT014 SCT025 21/21 A2998
     RMK AO2=
KSEZ 110255Z AUTO 03009KT 10SM CLR 02/M06 A3014 RMK AO2=
KSLE 110256Z 18015G20KT 10SM OVC029 09/03 A3007 RMK AO2 RAB18E35
     SLP184 P0000 60000 T00890033 56022=
KSLH 110255Z AUTO 09007KT 10SM OVC026 02/M01 A2975 RMK AO2=
KSLO 110255Z AUTO 18015G21KT 10SM SCT015 BKN027 BKN035 20/20 A2947
     RMK AO2 LTG DSNT NW THRU E T02040195=
KSNH 110255Z AUTO 19015G20KT 10SM SCT022 BKN028 OVC036 23/21 A2974
     RMK A01=
KSRB 110255Z AUTO 16011KT 10SM OVC019 16/16 A2986 RMK A01=
KSRE 110255Z AUTO 32016G27KT 10SM SCT080 BKN110 11/M01 A2969 RMK
     AO2=
KSTE 110255Z AUTO 05013G20KT 4SM UP OVC010 00/M02 A2949 RMK AO2
     P0001 60003 T00001017=
KSTF 110255Z AUTO 17012G19KT 10SM OVC019 23/21 A2983 RMK AO2=
KSTK 110255Z AUTO 29015KT 10SM SCT120 M03/M07 A2991 RMK AO2=
KSYF 110255Z AUTO 28007KT 10SM OVC024 M03/M06 A2990 RMK AO2
     T10351063 PWINO=
KSYI 110255Z AUTO 18019G24KT 10SM OVC012 20/18 A2982 RMK A01=
KSZT 110255Z AUTO 21004KT 5SM -SN OVC025 00/M01 A2997 RMK AO2=
KSZY 110255Z AUTO 20010G26KT 10SM BKN024 OVC031 23/20 A2974 RMK
     A01=
KT69 110255Z AUTO 18006KT 7SM CLR 24/23 A2979 RMK A01=


244 
SAUS70 KWBC 110300 RRI
METAR
KMCD 110255Z AUTO 11013G25KT 10SM OVC018 02/M02 A2976 RMK AO2
     T00241016=
KMWC 110255Z AUTO 04007KT 1 3/4SM -RA OVC004 04/02 A2942 RMK AO2
     P0010=
KNRN 110255Z AUTO 32011KT 10SM CLR M02/M05 A2987 RMK AO2=
KOQN 110255Z AUTO 00000KT 10SM BKN042 BKN075 06/02 A3010 RMK
     AO2=
KS33 110255Z AUTO 17008KT 10SM OVC090 04/M03 A3007 RMK AO2=
KSHD 110255Z AUTO 17003KT 10SM BKN043 BKN048 BKN055 08/07 A3005
     RMK AO2 T00810065=
KTDF 110255Z AUTO 15003KT 10SM OVC011 11/09 A3012 RMK AO2=
KTFP 110255Z AUTO 20012G16KT 7SM SCT006 24/23 A2979 RMK AO2
     T02430230=
KTTA 110255Z AUTO 00000KT 10SM OVC014 12/12 A3012 RMK AO2
     T01150115=
KTYL 110255Z AUTO 02003KT 10SM CLR M01/M08 A3018 RMK AO2=
KUKF 110255Z AUTO 22003KT 7SM OVC006 09/08 A3014 RMK AO2=
KBIS 110252Z 27005KT 10SM CLR M07/M09 A2978 RMK AO2 SLP115 I1001
     I3001 T10721089 53004=
KCIU 110256Z AUTO 09006KT 10SM OVC065 00/M01 A2979 RMK AO2 SLP095
     T00001011 58039 FZRANO=
KGON 110256Z 35004KT 9SM CLR M01/M01 A3015 RMK AO2 SLP209
     T10061006 56004=
KGRN 110255Z AUTO 26005KT 10SM SCT060 BKN070 OVC085 M08/M09 A2985
     RMK AO2 T10801090=
KHHV 110255Z AUTO 18024G30KT 4SM HZ FEW011 25/23 A2983 RMK A01=
KHLB 110255Z AUTO 17008KT 2SM BR OVC002 15/15 A2967 RMK A01
     P0009=
KHPT 110255Z AUTO 00000KT 7SM OVC005 00/M01 A2940 RMK AO2=
KHSB 110255Z AUTO 18012KT 10SM BKN035 BKN043 BKN050 20/18 A2956
     RMK AO2 LTG DSNT E AND SE 60019 T02010177=
KHVN 110253Z 02006KT 8SM OVC060 04/01 A3013 RMK AO2 SLP203
     T00440011 58006=
KHWV 110256Z AUTO 00000KT 9SM FEW065 02/01 A3014 RMK AO2 SLP206
     T00220006 58005=
KI16 110255Z AUTO 1/2SM FG BKN001 OVC036 A2999 RMK AO2=
KMML 110256Z AUTO 35013KT 1 1/2SM -SN BR BKN006 OVC013 M02/M03
     A2974 RMK AO2 CIG 004V009 SLP089 P0000 60000 T10221028 53001
     FZRANO=
KOXI 110255Z AUTO 16016G22KT 4SM OVC005 13/12 A2940 RMK AO1=
KPLD 110315Z AUTO 17010G15KT 5SM BR OVC004 13/12 A2962 RMK AO2=
KPNM 110257Z AUTO 34008KT 2 1/2SM -SN SCT007 OVC012 M02/M03 A2971
     RMK AO2=
KRCR 110255Z AUTO 15013G23KT 2SM BR OVC003 13/12 A2945 RMK AO2=
K46U 110255Z AUTO 00000KT 10SM SCT028 OVC034 M07/M11 A3010 RMK
     A01=
KBKD 110255Z AUTO 28010KT 7SM SCT031 SCT110 23/03 A2978 RMK AO2
     T02270033=
KBPC 110255Z AUTO 36008KT 10SM OVC110 05/M05 A2994 RMK AO2=
KBYY 110255Z AUTO 20011KT 7SM SCT020 SCT028 OVC038 23/22 A2982 RMK
     AO2 T02400228=
KC83 110255Z AUTO 24006KT 10SM CLR 04/01 A3025 RMK AO2=
KCTB 110256Z AUTO 26032G41KT 10SM CLR M02/M11 A2961 RMK AO2 PK WND
     26041/0246 SLP071 T10221111 58017=
KCWC 110255Z AUTO 28008KT 10SM CLR 22/02 A2975 RMK AO2
     T02210023=
KDTA 110255Z AUTO 10SM CLR M08/M10 A3026 RMK AO1=
KDZB 110255Z AUTO 20006KT 10SM CLR 22/17 A2980 RMK AO2
     T02240173=
KEBG 110255Z AUTO 16009KT 10SM BKN015 25/23 A2979 RMK AO2
     T02480230 TSNO=
KELA 110255Z AUTO 20011G19KT 10SM OVC013 A2981 RMK AO2=
KFOT 110255Z AUTO 00000KT 10SM CLR 04/04 A3023 RMK AO1=
KGLE 110255Z AUTO 27010KT 5SM HZ OVC041 24/04 A2972 RMK AO2
     T02350035=
KSBP 110256Z 35005KT 10SM CLR 11/02 A3020 RMK AO2 SLP226 T01110017
     53017=
KGOO 110250Z AUTO 00000KT 10SM CLR 02/M01 A3017 RMK A01=
KGPM 110255Z AUTO 22005KT 10SM BKN001 24/06 A2974 RMK AO2
     T02400058=
KGYB 110255Z AUTO 17006KT 7SM OVC012 24/22 A2980 RMK AO2
     T02360218=
KGYI 110255Z AUTO 25009KT 7SM SCT026 23/05 A2970 RMK AO2
     T02280054=
KHCR 110255Z AUTO 08004KT 10SM BKN046 BKN050 M12/M16 A3018 RMK
     AO2=
KHHF 110255Z AUTO 34019G24KT 10SM BKN110 05/M04 A2991 RMK AO2
     T00451040=
KHHV 110255Z AUTO 18024G30KT 4SM HZ FEW011 25/23 A2983 RMK A01=


245 
SAUS70 KWBC 110300 RRH
METAR
KT89 110255Z AUTO 31006KT 10SM CLR 22/02 A2989 RMK A01=
KTHA 110255Z AUTO 18010G17KT 10SM OVC012 19/18 A2984 RMK A01=
KTPH 110256Z AUTO 02009KT 10SM CLR M03/M08 A3024 RMK AO2 SLP274
     T10331083 53016=
KTQV 110255Z AUTO 21008KT 10SM OVC017 12/10 A3011 RMK A01=
KTSP 110255Z AUTO 10009KT 10SM CLR 03/M02 A3020 RMK AO2=
KTYQ 110255Z AUTO 16016G23KT 1/2SM FG OVC002 14/14 A2954 RMK AO2
     LTG DSNT SE AND S T01350135=
KTZR 110255Z AUTO 17008KT 5SM -RA OVC008 12/11 A2977 RMK AO2 60004
     T01200113=
KU42 110255Z AUTO 18007KT 10SM SCT070 M07/M09 A3024 RMK AO1
     T10661090=
KUCY 110250Z AUTO 18022G28KT 10SM BKN100 22/21 A2958 RMK A01=
KUKI 110256Z AUTO 25003KT 10SM CLR 06/01 A3023 RMK AO2 SLP236
     T00560006 53009=
KUKL 110255Z AUTO 31015G21KT 10SM SCT021 03/M03 A2959 RMK AO2
     T00271029=
KUNI 110255Z AUTO 16004KT 10SM BKN014 OVC020 14/12 A2981 RMK AO2
     T01400121=
KUSE 110255Z AUTO 16015KT 4SM BR OVC006 10/10 A2962 RMK AO2=
KVAF 110255Z AUTO 9SM CLR 25/22 A2986 RMK A01=
KVCV 110255Z AUTO 07006KT 10SM CLR 06/M08 A3022 RMK AO2=
KVKY 110255Z AUTO 00000KT 7SM CLR 23/23 A3002 RMK A01=
KVOA 110255Z AUTO 10SM BKN003 OVC022 24/23 A3003 RMK A01=
KVPZ 110256Z AUTO 17010G18KT 1 1/4SM BR OVC002 13/13 A2940 RMK AO2
     RAE32 SLP960 P0001 60004 T01280128 58067=
KVTP 110255Z AUTO 30005KT 10SM CLR M16/M24 A2987 RMK AO2=
KVUJ 110255Z AUTO 20004KT 5SM BR OVC005 11/11 A3015 RMK AO2
     T01120107=
KW78 110255Z AUTO 20003KT 10SM OVC015 13/08 A3010 RMK AO1
     T01270082=
KWBF 110255Z AUTO 16016G26KT 9SM FEW020 26/22 A2998 RMK A01=
KWJF 110256Z 04005KT 10SM CLR 03/M02 A3020 RMK AO2 SLP242
     T00281017 53015=
KXNX 110255Z AUTO 17010G16KT 150V210 9SM OVC014 20/19 A2979 RMK
     A01=
KBTN 110255Z AUTO 20005KT 10SM FEW110 M03/M05 A2977 RMK AO2=
KAJO 110256Z AUTO 00000KT 10SM CLR 07/06 A3016 RMK AO2 SLP215
     6//// T00720056 51014=
KBOK 110256Z AUTO 00000KT 10SM CLR 06/04 A3021 RMK AO2 SLP233
     6//// T00560039 58015=
KCMA 110255Z 00000KT 10SM CLR 11/06 A3016 RMK AO2 SLP224 T01060061
     51017=
KCOE 110256Z AUTO 16003KT 7SM -SN FEW008 SCT013 OVC022 00/M01
     A2998 RMK AO2 SLP196 P0000 60000 T00001011 58006 FZRANO=
KEGE 110256Z AUTO 11009KT 10SM CLR M14/M16 A3010 RMK AO2 SLP275
     T11391161 51026 FZRANO=
KEUL 110256Z AUTO 11006KT 10SM OVC065 02/M03 A3018 RMK AO2 SLP242
     T00221028 58000 FZRANO=
KFNL 110256Z 33008KT 10SM CLR M05/M17 A2994 RMK AO2 SLP168
     T10501167 51025 FZRANO=
KGDV 110256Z AUTO 27009KT 10SM CLR M07/M11 A2978 RMK AO2 SLP127
     T10671106 50003 FZRANO=
KGUL 110300Z AUTO 19012KT 8SM CLR 25/23 A2988 RMK A01=
KHJO 110253Z AUTO 00000KT 5SM BR FEW028 06/05 A3025 RMK AO2 SLP247
     T00610050 53018=
KJAC 110256Z 20012KT 10SM FEW030 OVC038 M07/M14 A2999 RMK AO2
     SLP232 60000 T10721139 51010=
KLGD 110256Z AUTO 17009KT 10SM BKN055 02/M03 A3010 RMK AO2 SLP215
     T00171033 58002 FZRANO=
KLPC 110256Z AUTO 27005KT 10SM CLR 10/07 A3018 RMK AO2 SLP220
     T01000067 53015=
K4I3 110255Z AUTO 14011KT 7SM DZ BKN009 OVC015 11/10 A2978 RMK AO2
     P0005=
K5M9 110255Z AUTO 19008G18KT 150V210 10SM SCT013 SCT024 SCT033
     20/18 A2958 RMK AO2 T01950175=
KAEL 110255Z AUTO 03018G24KT 1 3/4SM -SN OVC006 M02/M02 A2947 RMK
     AO2=
KDLZ 110255Z AUTO 16010G15KT 5SM -RA OVC007 11/10 A2975 RMK AO2
     P0002=
KFGX 110255Z AUTO 19009KT 7SM -RA OVC013 15/13 A2980 RMK AO2
     T01460134=
KFYJ 110255Z AUTO 15003KT 1 3/4SM 10/09 A3010 RMK AO1
     T00980093=
KGVE 110255Z AUTO 00000KT 10SM OVC013 08/07 A3006 RMK AO1
     T00750069=
KLVN 110256Z AUTO RMK AO2 PWINO=


246 
SAUS70 KWBC 110300 RRJ
METAR
KHRX 110255Z AUTO 02014G19KT 10SM CLR 05/M04 A2994 RMK AO2
     T00481039=
KHVE 110255Z AUTO 31003KT 10SM CLR M03/M15 A3025 RMK AO2=
KO69 110255Z AUTO 00000KT 10SM CLR 03/01 A3025 RMK A01=
KOMK 110253Z AUTO 00000KT 10SM FEW035 SCT055 OVC070 M01/M03 A2989
     RMK AO2 SLP136 T10111033 58024=
KORS 110255Z AUTO 17015G26KT 10SM OVC019 07/05 A2974 RMK AO2=
KP08 110255Z AUTO 33003KT 10SM FEW120 13/08 A3012 RMK AO2=
KPKV 110255Z AUTO 18014G19KT 7SM BKN025 25/23 A2980 RMK AO2
     T02500225=
KPRS 110255Z AUTO 30011KT 10SM CLR 20/06 A2996 RMK AO2
     T01990055=
KPVF 110255Z AUTO 10003KT 10SM BKN020 03/02 A3021 RMK AO1=
KPYX 110255Z AUTO 33016G24KT 10SM SCT026 BKN034 OVC047 03/M03
     A2989 RMK AO2 T00301033=
KRDM 110256Z 19008KT 10SM SCT075 OVC090 04/M04 A3005 RMK AO2
     SLP196 T00441044 58009=
KBOS 110254Z 32005KT 10SM OVC028 03/M01 A3018 RMK AO2 SLP218
     T00281006 58003=
KPHL 110254Z 08003KT 10SM -RA OVC043 08/03 A3011 RMK AO2 RAB21
     PRESFR SLP196 P0000 60000 T00830033 56010=
KCQM 110256Z AUTO 00000KT 10SM SCT085 M07/M08 A2973 RMK AO2=
KDAY 110256Z 17012KT 1/4SM R06L/5500VP6000FT -RA BR OVC002 14/12
     A2971 RMK AO2 SFC VIS 3/4 SLP060 P0000 60002 T01440122
     58031=
KDMW 110255Z AUTO 14007KT 10SM SCT022 BKN030 08/02 A3005 RMK
     AO2=
KFET 110255Z AUTO 33020G27KT 2 1/2SM -SN BKN010 OVC016 M01/M02
     A2963 RMK AO2 T10101025=
KADC 110256Z AUTO 27003KT 10SM SCT090 M07/M08 A2974 RMK AO2
     TSNO=
KANW 110255Z AUTO 32013KT 5SM BR SCT009 BKN042 OVC050 M03/M05
     A2984 RMK AO2 T10351048=
KART 110256Z AUTO 08004KT 10SM CLR 00/M02 A3003 RMK AO2 SLP173
     T00001022 58004=
KHYA 110256Z 00000KT 5SM BR FEW029 02/01 A3016 RMK AO2 SLP212
     T00220011 55006=
KI74 110255Z AUTO 16011G16KT 2 1/2SM BR OVC003 11/11 A2973 RMK
     AO2=
KIGQ 110255Z AUTO 17014G20KT 4SM -RA OVC005 13/13 A2937 RMK AO2
     60009 T01310131=
KIKT 110255Z AUTO 16011KT 6SM BR CLR 23/23 A3003 RMK A01=
KJMS 110256Z AUTO 00000KT 10SM CLR M09/M12 A2974 RMK AO2 SLP098
     I1000 I3000 T10891117 56004=
KJYG 110256Z AUTO 35020G27KT M02/M03 A2960 RMK AO2 PWINO=
KLCG 110255Z AUTO 33021G28KT 1 3/4SM -SN BKN008 OVC013 M02/M03
     A2968 RMK AO2 T10181031=
KLJF 110255Z 36011KT 3SM UP M02/M04 A2971 RMK AO2=
KMDT 110256Z 12005KT 10SM OVC037 08/01 A3007 RMK AO2 SLP184
     T00780006 58012=
KMJX 110256Z AUTO 00000KT 10SM OVC050 06/03 A3013 RMK AO2 SLP209
     T00560028 55009 TSNO=
KPCW 110255Z AUTO 17011KT 10SM OVC023 10/09 A2968 RMK AO2=
KPTD 110255Z AUTO 36004KT 10SM OVC040 00/M02 A3007 RMK AO2=
KPWC 110255Z AUTO 00000KT 10SM OVC080 M05/M07 A2977 RMK AO=
KRZL 110255Z AUTO 15017G23KT 3SM BR OVC003 14/13 A2939 RMK AO2=
KUSE 110255Z AUTO 16015KT 4SM BR OVC006 10/10 A2962 RMK AO2=
K2V5 110255Z AUTO 10SM SCT019 SCT032 BKN046 M02/M04 A2989 RMK
     AO2=
K4V0 110255Z AUTO 00000KT 10SM CLR M15/M17 A3015 RMK AO2
     T11521170=
K65S 110250Z AUTO 20005KT 4SM -SN FEW003 BKN023 OVC033 M01/M03
     A2993 RMK AO2=
KALM 110255Z AUTO 00000KT 10SM CLR 10/M04 A3003 RMK AO2=
KAVX 110251Z AUTO 07005KT 10SM CLR 09/07 A3015 RMK AO2 SLP214
     T00940072 53014=
KBDN 110255Z AUTO 21008KT 10SM FEW070 03/M04 A3008 RMK AO2=
KBJC 110254Z 28018G28KT 10SM FEW080 M03/M19 A2993=
KM75 110255Z AUTO 00000KT 10SM CLR M15/M16 A2972 RMK A01=
KMVH 110255Z AUTO 28009G15KT 10SM CLR M06/M16 A2975 RMK AO2
     PWINO=
KSEZ 110255Z AUTO 03009KT 10SM CLR 02/M06 A3014 RMK AO2=
KUKI 110256Z AUTO 25003KT 10SM CLR 06/01 A3023 RMK AO2 SLP236
     T00560006 53009=
KVAF 110255Z AUTO 9SM CLR 25/22 A2986 RMK A01=
KWBF 110255Z AUTO 16016G26KT 9SM FEW020 26/22 A2998 RMK A01=


247 
SAUS70 KWBC 110300 RRK
METAR
KSGH 110256Z AUTO 16011KT 2SM BR OVC002 13/ A2973 RMK AO2 RAB08E54
     SLP069 6//// T0128 58032 PNO $=
PAGA 110256Z AUTO 27004KT 10SM CLR M22/M24 A2940 RMK AO2 SLP962
     T12221244 53027 FZRANO=
PASC 110253Z 26010KT 3SM BR OVC041 M23/M26 A2942 RMK AO2 SNE30
     SLP965 T12281261 53011 PNO=
KTTS 110256Z AUTO 00000KT 10SM CLR 17/16 A3013 RMK AO2 VIS 1 3/8
     RWY15 VIS 1/2 RWY15/33 SLP207 T01660158 50005 $=
K0CO 110255Z AUTO 1/4SM +SN OVC003 M22/M25 A2961 RMK AO2=
K0F2 110255Z AUTO 28014G22KT 7SM CLR 24/04 A2972 RMK AO2
     T02350035=
K5T9 110255Z AUTO 10006KT 10SM CLR 17/09 A2977 RMK A01=
K66R 110255Z AUTO 19010G15KT 10SM OVC014 25/22 A2982 RMK AO2
     T02450221=
KARM 110255Z AUTO 18015KT 10SM BKN014 BKN031 OVC037 24/22 A2982
     RMK AO2 T02380215=
KAXH 110255Z AUTO 21003KT 10SM BKN015 OVC020 25/24 A2983 RMK AO2
     T02500241=
KAZC 110255Z AUTO 05003KT 10SM CLR 00/M10 A3024 RMK AO2=
KIFP 110255Z AUTO 05008KT 10SM CLR 11/M12 A3023 RMK AO2=
KIKT 110255Z AUTO 16011KT 6SM BR CLR 23/23 A3003 RMK A01=
KLAS 110256Z 04008KT 10SM CLR 08/M12 A3025 RMK AO2 SLP247
     T00781117 53023=
KSLE 110256Z 18015G20KT 10SM OVC029 09/03 A3007 RMK AO2 RAB18E35
     SLP184 P0000 60000 T00890033 56022=
KTPH 110256Z AUTO 02009KT 10SM CLR M03/M08 A3024 RMK AO2 SLP274
     T10331083 53016=
KSGH 110256Z AUTO 16011KT 2SM BR OVC002 13/ A2973 RMK AO2 RAB08E54
     SLP069 6//// T0128 58032 PNO $=
KTTS 110256Z AUTO 00000KT 10SM CLR 17/16 A3013 RMK AO2 VIS 1 3/8
     RWY15 VIS 1/2 RWY15/33 SLP207 T01660158 50005 $=
K33N 110255Z AUTO 00000KT 10SM OVC025 08/06 A3011 RMK A01=
K3I2 110255Z AUTO 00000KT 10SM OVC019 16/13 A2985 RMK AO2
     T01620127=
K3LF 110255Z AUTO 16012KT 4SM TSRA BKN008 OVC012 17/17 A2942 RMK
     AO2 LTG DSNT ALQDS P0001 60002 T01730171=
K57C 110255Z AUTO 07008KT 2SM +RA OVC004 04/04 A2937 RMK AO2 P0020
     60026 T00370037=
KAHQ 110255Z AUTO 33020G28KT 2SM -SN SCT009 OVC016 M01/M01 A2962
     RMK AO2 T10131013=
KASW 110255Z AUTO 16008G15KT 2 1/2SM -RA OVC003 12/12 A2948 RMK
     AO2=
KJXN 110256Z AUTO 11010KT 6SM BR OVC005 08/07 A2957 RMK AO2
     RAE06B09E42 PRESFR SLP019 P0002 60036 T00830072 58040 $=
KLNR 110256Z AUTO 07007KT 6SM -RA BR OVC009 02/00 A2940 RMK AO2
     SLP957 P0004 60014 T00170000 55036=
KLXL 110255Z AUTO 00000KT 3SM -SN BKN016 OVC024 M03/M03 A2974 RMK
     AO2=
KM30 110255Z AUTO 18010G16KT 10SM CLR 22/18 A2958 RMK AO2 LTG DSNT
     ALQDS T02160183=
KMGC 110255Z AUTO 17010G18KT 5SM BR OVC004 12/12 A2939 RMK AO2=
KRRT 110255Z AUTO 23003KT 10SM CLR M09/M12 A2971 RMK AO2=
KSLH 110255Z AUTO 09007KT 10SM OVC026 02/M01 A2975 RMK AO2=
KSLO 110255Z AUTO 18015G21KT 10SM SCT015 BKN027 BKN035 20/20 A2947
     RMK AO2 LTG DSNT NW THRU E T02040195=
KTZR 110255Z AUTO 17008KT 5SM -RA OVC008 12/11 A2977 RMK AO2 60004
     T01200113=
KVAF 110255Z AUTO 9SM CLR 25/22 A2986 RMK A01=
KVPZ 110256Z AUTO 17010G18KT 1 1/4SM BR OVC002 13/13 A2940 RMK AO2
     RAE32 SLP960 P0001 60004 T01280128 58067=
KWBF 110255Z AUTO 16016G26KT 9SM FEW020 26/22 A2998 RMK A01=
K05U 110255Z AUTO 18005KT 10SM CLR M12/M15 A3022 RMK A01=
K0A0 110255Z AUTO 22005KT 10SM CLR 09/M04 A3003 RMK AO2=
K3T5 110255Z AUTO 18006KT 7SM OVC013 25/24 A2978 RMK AO2
     T02450236=
K82V 110255Z AUTO 32007KT 10SM CLR M08/M10 A2991 RMK AO2=
KANK 110255Z AUTO 26011G16KT 10SM CLR M08/M21 A3004 RMK AO1
     T10781209=
KAVQ 110255Z AUTO 00000KT 10SM CLR 13/06 A3010 RMK AO2
     T01250060=
KMEV 110255Z AUTO 08003KT 10SM CLR M05/M06 A3021 RMK AO2=
KMNZ 110255Z AUTO 27004KT 10SM CLR 20/04 A2981 RMK AO2
     T01950040=


248 
SAUS70 KWBC 110300 RRA
METAR
KSMN 110256Z AUTO 00000KT 10SM OVC065 M02/M12 A3005 RMK AO2 SLP229
     T10171117 53011 FZRANO $=
KVIS 110256Z AUTO 00000KT 10SM CLR 07/07 A3025 RMK AO2 SLP252
     T00720072 53016=
KCAD 110255Z AUTO 08016G21KT 3SM -SN OVC006 01/00 A2957 RMK AO2
     T00130000=
KFPK 110255Z AUTO 13006G15KT 7SM -RA OVC006 09/08 A2953 RMK AO2
     60020 T00870075 P0001=
KFSW 110255Z AUTO 20009KT 10SM 16/15 A2929 RMK AO2 P0001=
KMNM 110256Z AUTO 07019G25KT 1 1/2SM -SN BR OVC004 01/01 A2958 RMK
     AO2 PK WND 07026/0245 PRESFR SLP023 P0002 60003 T00060006
     56056 FZRANO $=
KMSV 110256Z AUTO 03005KT 10SM BKN048 00/M02 A3007 RMK AO2 SLP198
     T00001017 58016 FZRANO=
KMTN 110254Z 00000KT 10SM OVC028 08/04 A3011=
KMTW 110256Z AUTO 07008G16KT 6SM -RA BR OVC009 02/02 A2951 RMK AO2
     UPE24RAB24 CIG 007V010 SLP000 P0005 60016 T00170017 56070
     FZRANO=
KOKK 110256Z AUTO 16021KT 1 1/2SM BR OVC002 13/ A2950 RMK AO2
     RAB08E35 PRESFR SLP994 6//// T0133 58057 PNO $=
KOTG 110256Z AUTO 36025G31KT 1 1/4SM -SN BR SCT006 OVC014 M03/M04
     A2961 RMK AO2 PK WND 36031/0254 SLP051 P0000 60000 T10331039
     58007 FZRANO=
KPQI 110256Z AUTO 00000KT 10SM SCT037 OVC070 M07/M08 A3015 RMK AO2
     SLP248 T10721083 58002=
KPVC 110256Z AUTO 14005KT 10SM BKN030 BKN070 07/06 A3018 RMK AO2
     SLP218 T00720056 55005=
KWWD 110256Z AUTO 18006KT 6SM -RA BR FEW004 BKN018 OVC026 11/10
     A3012 RMK AO2 RAB51 SLP202 P0000 60001 T01060100 55006 $=
KY50 110256Z AUTO 06009KT OVC006 00/M01 A2948 RMK AO2 SLP990 P0005
     60008 T00001006 56059 PWINO FZRANO $=
KYKN 110256Z AUTO 32019G26KT 2SM -SN BR BKN009 OVC015 M02/M03
     A2976 RMK AO2 PK WND 32026/0250 CIG 007V010 SLP104 P0000
     60001 T10221028 51020 FZRANO=
KBMI 110256Z 22020G27KT 3SM R20/5500VP6000FT VCTS +RA BR BKN004
     OVC009 16/16 A2939 RMK AO2 PK WND 17034/0241 LTG DSNT ALQDS
     TSB15 SLP950 P0030 60035 T01610161 56050=
KCWI 110256Z AUTO 08008KT 3SM +RA BKN037 OVC046 09/ A2928 RMK AO2
     LTG DSNT N AND S RAE04B48 SLP922 P0007 6//// T0089 58034=
KEEN 110256Z AUTO 00000KT CLR M03/M03 A3015 RMK AO2 SLP220
     T10331033 58007 PWINO FZRANO $=
KFIT 110252Z AUTO 00000KT 10SM M03/M05 A3017 RMK AO2 SLP222
     T10281050 58002=
KFKL 110256Z AUTO 15008KT 10SM OVC019 09/04 A2988 RMK AO2 SLP125
     T00940044 58021=
KHNB 110256Z AUTO 17013G19KT 10SM SCT011 18/17 A2959 RMK AO2 LTG
     DSNT E AND SE TSE03RAE09 SLP018 P0000 60010 T01830172
     58045=
KITH 110256Z AUTO 11004KT 10SM SCT050 03/M01 A3001 RMK AO2 SLP169
     T00281006 58012=
KLCI 110256Z AUTO 00000KT 10SM CLR M04/M06 A3018 RMK AO2 SLP227
     T10391061 55001 FZRANO=
KMBL 110256Z AUTO 09016KT 4SM -RA BR FEW009 OVC015 01/01 A2951 RMK
     AO2 UPE41RAB41 PRESFR SLP998 P0006 60013 T00110011 58077
     FZRANO=
KRUT 110256Z AUTO 13010KT 10SM CLR 01/M03 A3011 RMK AO2 SLP201
     T00111028 55006 FZRANO $=
KSGH 110256Z AUTO 16011KT 2SM BR OVC002 13/ A2973 RMK AO2 RAB08E54
     SLP069 6//// T0128 58032 PNO $=
KTVF 110256Z AUTO 19008KT 10SM CLR M09/M10 A2975 RMK AO2 SLP099
     T10941100 55006 FZRANO=
KWVL 110256Z AUTO 00000KT 10SM OVC046 M06/M08 A3018 RMK AO2 SLP254
     T10611083 50002 FZRANO=
KCLS 110255Z AUTO 18012KT 160V220 10SM BKN015 BKN021 OVC028 07/06
     A2994 RMK AO2=
KMRF 110256Z AUTO 29013KT 10SM CLR 11/01 A3004 RMK AO2 SLP136
     T01110006 51024=
KMYV 110253Z AUTO 17003KT 10SM CLR 06/01 A3022 RMK AO2 SLP238
     T00610011 51007=
KOCH 110256Z AUTO 18010KT 10SM OVC014 23/22 A2979 RMK AO2 SLP087
     T02330222 51007=
KONM 110255Z AUTO 36018G24KT 10SM CLR 01/M10 A3012 RMK AO2
     T00101102=


249 
SANA35 KAWN 110300 RRC
METAR KADW 110256Z AUTO 00000KT 10SM OVC021 08/07 A3006 RMK AO2 CIG
      020 RWY19R SLP188 60001 T00810066 58002 $=
METAR KBIX 110256Z 17007KT 1/2SM FG VV001 21/09 A2997 RMK SLP152 T02050194
      52009=
METAR KDOV 110256Z AUTO 00000KT 10SM OVC024 08/07 A3009 RMK AO2 SLP193
      60000 T00770071 55006 $=
METAR KGSB 110256Z 14005KT 4SM -RA SCT005 OVC030 12/11 A3010 RMK AO2A
      RAB16E35RAB51 SLP197 P0000 60000 T01150109 58002 $=
METAR KLFI 110256Z AUTO 20003KT 4SM -DZ OVC006 10/10 A3010 RMK AO2
      RAB46E47DZB47 CIG 005 RWY08 SLP199 P0000 60000 T01040102
      57011 $=
METAR KMCF 110256Z AUTO 06003KT 10SM FEW044 21/21 A3009 RMK AO2 SLP192
      T02080206 52006 FZRANO $=
METAR KNBC 110256Z 15005KT 10SM CLR 15/13 A3013 RMK AO2 SLP204 T01500133
      58004=
METAR KNBG 110255Z 17009KT 9SM FEW015 SCT030 SCT045 23/22 A2996 RMK
      AO2 SLP145 T02330222 50008 $=
METAR KNCA 110256Z AUTO 25003KT 5SM BR BKN050 OVC065 16/16 A3013 RMK
      AO2 SLP205 60000 T01610156 50003=
METAR KNTU 110256Z 13003KT 9SM SCT025 BKN050 OVC190 12/09 A3010 RMK
      AO2 SLP196 T01170089 58013=
METAR KOFF 110256Z 33012KT 3SM -SN BKN010 00/M02 A2957 RMK AO2A SNE0156
      SLP026 60002 T00001022 53017 PWINO PNO FZRANO TSNO VISNO
      RWY12 CHINO RWY12 $=
METAR KSSC 110256Z AUTO 11003KT 2 1/2SM BR OVC003 11/11 A3012 RMK AO2
      OVC V BKN SLP202 T01140106 58005=
METAR KVPS 110256Z 15010KT 5SM BR OVC007 22/21 A3004 RMK AO2A CIG 005
      RWY01 CIG 005 RWY12 CIG 005 RWY30 SLP179 T02180214 50007 $=
METAR KWRI 110256Z AUTO 00000KT 10SM OVC050 06/03 A3013 RMK AO2 SLP203
      T00610029 55005 $=


252 
SAUS70 KWBC 110300 RRB
METAR
KOTH 110256Z 14008KT 10SM SCT036 08/05 A3016 RMK AO2 SLP213
     T00780050 56019=
KPRX 110256Z AUTO 21012KT 10SM CLR 22/18 A2968 RMK AO2 SLP060
     T02170183 53013=
KPTV 110256Z AUTO 00000KT 9SM CLR 07/06 A3025 RMK AO2 SLP246
     T00670056 53014=
KPVU 110256Z 11006KT 10SM CLR M07/M11 A3027 RMK AO2 SLP291
     T10671106 51019=
KPWG 110256Z AUTO 23005KT 10SM CLR 21/17 A2977 RMK AO2 SLP074
     T02110172 51027=
KAWO 110256Z AUTO 15016G24KT 10SM FEW034 BKN120 07/03 A2985 RMK
     AO2 PK WND 15026/0226 SLP113 6//// T00670033 56039 PNO $=
KCGZ 110256Z AUTO 30003KT 10SM CLR 13/07 A3012 RMK AO2 SLP201
     T01330072 51018=
KCOD 110256Z AUTO 26019G29KT 10SM CLR M04/M14 A2984 RMK AO2 PK WND
     26032/0228 SLP159 T10391144 58003 FZRANO=
KCVN 110256Z AUTO 30028G38KT 10SM CLR 07/M08 A2994 RMK AO2 PK WND
     30040/0232 PRESRR SLP133 T00721083 52049=
KEAT 110255Z AUTO 13009KT 10SM OVC060 03/M03 A2988 RMK AO2 SLP129
     T00331028 58026=
KENV 110256Z AUTO 10SM M03/M10 RMK AO2 SLPNO 6//// T10281100
     FZRANO $=
KGTU 110256Z 18006KT 9SM CLR 21/17 A2980 RMK AO2 SLP086 T02060172
     51021=
KGUC 110256Z AUTO 24008KT 9SM -SN OVC055 M11/M13 A3004 RMK AO2
     SNB18 SLP233 P0000 60000 T11111133 51026 FZRANO=
KGXY 110256Z AUTO 34011KT 10SM CLR M05/M13 A2995 RMK AO2 SLP186
     T10501133 51033 FZRANO=
KHND 110256Z 05005KT 10SM CLR 06/M12 A3026 RMK AO2 SLP275
     T00611122 51021=
KILE 110256Z AUTO 21007KT 10SM CLR 22/18 A2977 RMK AO2 SLP070
     T02220183 51020=
K6R3 110255Z AUTO 18006KT 7SM SCT018 BKN032 OVC060 25/24 A2983 RMK
     AO2 T02450236=
K82V 110255Z AUTO 32007KT 10SM CLR M08/M10 A2991 RMK AO2=
KAAS 110255Z AUTO 16013G18KT 10SM OVC014 17/16 A2982 RMK AO1=
KACP 110255Z AUTO 18009KT 150V210 10SM OVC011 24/21 A2987 RMK
     AO2=
KADC 110256Z AUTO 27003KT 10SM SCT090 M07/M08 A2974 RMK AO2
     TSNO=
KADM 110250Z 25009G14KT 10SM SCT048 BKN055 23/03 A2967=
KAEJ 110255Z AUTO 24007G20KT 10SM CLR M09/M22 A2993 RMK AO2
     T10931219=
KAHQ 110255Z AUTO 33020G28KT 2SM -SN SCT009 OVC016 M01/M01 A2962
     RMK AO2 T10131013=
KALM 110255Z AUTO 00000KT 10SM CLR 10/M04 A3003 RMK AO2=
KALX 110255Z AUTO 17005KT 10SM BKN008 OVC012 20/20 A3001 RMK AO2
     T02010200=
KAND 110256Z AUTO 03003KT 1SM -RA BR VV003 11/11 A3009 RMK AO2
     RAB29 SLP190 P0000 60000 T01060106 58005=
KANK 110255Z AUTO 26011G16KT 10SM CLR M08/M21 A3004 RMK AO1
     T10781209=
KANW 110255Z AUTO 32013KT 5SM BR SCT009 BKN042 OVC050 M03/M05
     A2984 RMK AO2 T10351048=
KARM 110255Z AUTO 18015KT 10SM BKN014 BKN031 OVC037 24/22 A2982
     RMK AO2 T02380215=
KART 110256Z AUTO 08004KT 10SM CLR 00/M02 A3003 RMK AO2 SLP173
     T00001022 58004=
KASN 110255Z AUTO 16003KT 10SM BKN020 BKN060 20/20 A2998 RMK AO2
     LTG DSNT N T02000195=
KASW 110255Z AUTO 16008G15KT 2 1/2SM -RA OVC003 12/12 A2948 RMK
     AO2=
KATP 110255Z AUTO 17020KT 10SM CLR 26/22 A2999 RMK A01=
KAVK 110255Z AUTO 32021G29KT 10SM FEW065 OVC110 04/M04 A2985 RMK
     AO2=
KAVQ 110255Z AUTO 00000KT 10SM CLR 13/06 A3010 RMK AO2
     T01250060=
KAVX 110251Z AUTO 07005KT 10SM CLR 09/07 A3015 RMK AO2 SLP214
     T00940072 53014=
KAXH 110255Z AUTO 21003KT 10SM BKN015 OVC020 25/24 A2983 RMK AO2
     T02500241=
KAXS 110255Z AUTO 35017G23KT 10SM SCT049 11/M02 A2983 RMK AO2
     T01091018=
KAZC 110255Z AUTO 05003KT 10SM CLR 00/M10 A3024 RMK AO2=
KBAM 110255Z AUTO 18004KT 10SM CLR M04/M08 A3023 RMK AO1=
KBDN 110255Z AUTO 21008KT 10SM FEW070 03/M04 A3008 RMK AO2=
KBDU 110255Z AUTO 30007G11KT 10SM CLR M02/M18 A2994 RMK AO2=
KBGE 110255Z AUTO 17006KT 7SM CLR 20/ A3009 RMK AO2 T0198////=


255 
SAUS70 KWBC 110300 RRF
METAR
KHPT 110255Z AUTO 00000KT 7SM OVC005 00/M01 A2940 RMK AO2=
KHQG 110255Z AUTO 33013G19KT 10SM CLR 01/M03 A2991 RMK AO2 6////
     T00081031=
KHQZ 110255Z AUTO 22005KT 10SM SCT046 BKN050 23/17 A2973 RMK AO1
     T02300171=
KHRX 110255Z AUTO 02014G19KT 10SM CLR 05/M04 A2994 RMK AO2
     T00481039=
KHSB 110255Z AUTO 18012KT 10SM BKN035 BKN043 BKN050 20/18 A2956
     RMK AO2 LTG DSNT E AND SE 60019 T02010177=
KHSD 110255Z AUTO 32019G27KT 10SM CLR 08/M02 A2978 RMK A01=
KHVE 110255Z AUTO 31003KT 10SM CLR M03/M15 A3025 RMK AO2=
KHVN 110253Z 02006KT 8SM OVC060 04/01 A3013 RMK AO2 SLP203
     T00440011 58006=
KHWV 110256Z AUTO 00000KT 9SM FEW065 02/01 A3014 RMK AO2 SLP206
     T00220006 58005=
KHYA 110256Z 00000KT 5SM BR FEW029 02/01 A3016 RMK AO2 SLP212
     T00220011 55006=
KHZD 110255Z AUTO 18018G29KT 10SM OVC020 23/20 A2965 RMK A01=
KI16 110255Z AUTO 1/2SM FG BKN001 OVC036 A2999 RMK AO2=
KI35 110255Z AUTO 01003KT 10SM OVC018 14/13 A2994 RMK AO2
     T01350131=
KLUX 110255Z AUTO 00000KT 1/2SM FG OVC002 10/10 A3010 RMK AO2=
KLXL 110255Z AUTO 00000KT 3SM -SN BKN016 OVC024 M03/M03 A2974 RMK
     AO2=
KLXY 110255Z AUTO 19011G19KT 10SM CLR 23/20 A2975 RMK AO2
     T02340202=
KM02 110255Z AUTO 20018KT 10SM OVC019 21/19 A2972 RMK A01=
KM04 110255Z AUTO 20019G25KT 10SM BKN038 BKN045 OVC090 25/19 A2964
     RMK A01=
KM08 110255Z AUTO 17013G19KT 10SM OVC020 23/20 A2972 RMK A01=
KM30 110255Z AUTO 18010G16KT 10SM CLR 22/18 A2958 RMK AO2 LTG DSNT
     ALQDS T02160183=
KM54 110255Z AUTO 18015KT 10SM BKN018 OVC026 20/18 A2975 RMK
     A01=
KM75 110255Z AUTO 00000KT 10SM CLR M15/M16 A2972 RMK A01=
KM91 110240Z AUTO 18012G20KT 10SM SCT012 BKN018 OVC080 20/19 A2972
     RMK A01=
KMBT 110255Z AUTO 19016KT 10SM OVC017 21/18 A2978 RMK A01=
KMDD 110255Z AUTO 26010KT 10SM CLR 16/00 A2992 RMK AO2
     T01571001=
KMDT 110256Z 12005KT 10SM OVC037 08/01 A3007 RMK AO2 SLP184
     T00780006 58012=
KMEV 110255Z AUTO 08003KT 10SM CLR M05/M06 A3021 RMK AO2=
KMGC 110255Z AUTO 17010G18KT 5SM BR OVC004 12/12 A2939 RMK AO2=
KMHV 110240Z AUTO 36004KT 10SM FEW044 04/M06 A3020 RMK A01=
KMIS 110255Z AUTO 18009KT 10SM SCT023 BKN030 23/22 A3001 RMK
     A01=
KMJX 110256Z AUTO 00000KT 10SM OVC050 06/03 A3013 RMK AO2 SLP209
     T00560028 55009 TSNO=
KMLJ 110255Z AUTO 00000KT 1/4SM FG OVC001 15/15 A3010 RMK AO2=
KMMI 110255Z AUTO 00000KT 4SM BR SCT006 OVC019 12/12 A2997 RMK
     A01=
KMNV 110255Z AUTO 00000KT 5SM BR OVC023 11/11 A2995 RMK A01=
KMNZ 110255Z AUTO 27004KT 10SM CLR 20/04 A2981 RMK AO2
     T01950040=
KMOR 110255Z AUTO 00000KT 10SM SCT047 SCT055 OVC080 10/10 A2995
     RMK A01=
KMRC 110255Z AUTO 19016G28KT 6SM BR FEW017 SCT027 BKN034 22/22
     A2975 RMK A01=
KMTV 110255Z AUTO 22004KT 10SM OVC010 10/08 A3010 RMK AO2
     T01010082=
KMVH 110255Z AUTO 28009G15KT 10SM CLR M06/M16 A2975 RMK AO2
     PWINO=
KO69 110255Z AUTO 00000KT 10SM CLR 03/01 A3025 RMK A01=
KOJA 110255Z AUTO 34012G24KT 10SM CLR 07/M03 A2982 RMK AO2
     T00691027=
KOMK 110253Z AUTO 00000KT 10SM FEW035 SCT055 OVC070 M01/M03 A2989
     RMK AO2 SLP136 T10111033 58024=
KORK 110255Z AUTO 21016G24KT 10SM SCT032 SCT045 BKN120 22/20 A2959
     RMK AO2 LTG DSNT NE AND SW P0067=
KORS 110255Z AUTO 17015G26KT 10SM OVC019 07/05 A2974 RMK AO2=
KOWI 110255Z AUTO 30019G26KT 10SM BKN023 BKN048 OVC120 05/00 A2954
     RMK AO2=
KOXI 110255Z AUTO 16016G22KT 4SM OVC005 13/12 A2940 RMK AO1=
KP08 110255Z AUTO 33003KT 10SM FEW120 13/08 A3012 RMK AO2=
KPCM 110255Z AUTO 12006KT 10SM CLR 24/20 A3015 RMK AO2=
KPCW 110255Z AUTO 17011KT 10SM OVC023 10/09 A2968 RMK AO2=


256 
SAXX60 KWBC 110300
METAR
KNLC 110256Z 31007KT 10SM CLR 04/01 A3025 RMK AO2 SLP246 RH/79
     T00440011 53020=
KNRS 110256Z AUTO 00000KT 10SM CLR 09/08 A3014 RMK AO2 SLP205
     T00940078 50007 $=
KNYG 110256Z AUTO 00000KT 7SM OVC024 09/07 A3009 RMK AO2 SLP188
     60000 T00940067 58002 $=
KNUC 110256Z AUTO 07007KT 10SM CLR 11/06 A3015 RMK AO2 SLP209
     T01110061 51011 $=
KNFL 110256Z VRB05KT 10SM CLR M01/M04 A3022 RMK AO2 SLP196
     T10111039 50004=
KBKF 110258Z 29008KT 10SM FEW100 M06/M16 A2992 RMK AO2A SLP161
     T10561162 51028=
KEDW 110256Z 07005KT 30SM CLR 05/M03 A3018 RMK AO2A SLP233
     T00491034 52016=
KGRF 110256Z 15018G22KT 10SM -RA BKN031 OVC040 07/03 A2988 RMK
     AO2A SLP124 P0000 60000 T00690031 57032 $=
KAFF 110256Z 29016G24KT 10SM CLR M06/M21 A2988 RMK AO2A PK WND
     29028/25 SLP159 T10631211 52039=
KAPY 110255Z AUTO 00000KT 10SM CLR 25/20 A2978 RMK AO2 T02520200
     TSNO=
KGBK 110255Z AUTO 16022KT 10SM FEW028 25/25 A2994 RMK A01=
KLUF 110256Z AUTO 34004KT 10SM CLR 14/04 A3011 RMK AO2 SLP195
     T01370043 52020 $=
KMCC 110255Z AUTO 00000KT 9SM CLR 07/02 A3023 RMK AO2=
KMHR 110255Z AUTO 10003KT 10SM CLR 03/00 A3022 RMK A01=
KNQX 110253Z 10010KT 10SM FEW025 27/21 A3010 RMK AO2 SLP192
     T02670211 51008 $=
KNRB 110252Z AUTO 16008KT 10SM CLR 21/19 A3014 RMK AO2 SLP204
     T02060194 51003=
KNUQ 110255Z AUTO 00000KT 10SM CLR 09/02 A3024 RMK AO2=
KOZR 110256Z AUTO 17009KT 10SM OVC008 21/21 A3005 RMK AO2 SLP176
     T02120210 52006=
KPAM 110256Z AUTO 15011KT 9SM OVC003 22/21 A3006 RMK AO2 SLP182
     T02150206 50002 $=
KVAD 110256Z AUTO 18003KT 8SM CLR 18/17 A3010 RMK AO2 SLP194
     T01790169 50005 $=
KNGP 110256Z AUTO 18011G21KT 7SM FEW009 BKN018 25/23 A2979 RMK AO2
     SLP087 T02500233 51019 $=
PHHI 110256Z AUTO 10011KT 10SM FEW026 BKN035 24/17 A3007 RMK AO2
     SLP174 T02360173 53004 $=
KNXF 110256Z AUTO 03005KT 10SM CLR A3014 RMK AO2 SLPNO 51007 $=
KINS 110256Z AUTO 05005KT 10SM CLR 04/M09 A3024 RMK AO2 SLP244
     T00401087 52020 $=
KNTU 110256Z 13003KT 9SM SCT025 BKN050 OVC190 12/09 A3010 RMK AO2
     SLP196 T01170089 58013=
RJOI 110256Z 10004KT 9SM FEW020 FEW180 15/07 A3026 RMK AO2 SLP246
     T01500072 58014=
KNKX 110255Z 00000KT 10SM CLR 09/07 A3013 RMK AO2 SLP199 T00890072
     50003 $=
KBAD 110256Z AUTO 18014KT 10SM SCT021 BKN027 BKN033 24/20 A2973
     RMK AO2 CIG 021V027 BKN027 V OVC SLP069 T02350200 50008=
KCOF 110256Z AUTO 00000KT 10SM CLR 22/22 A3012 RMK AO2 SLP204
     T02220220 50003 $=
KHST 110256Z AUTO 07004KT 10SM CLR 23/21 A3010 RMK AO2 SLP196
     T02340209 50007=
KNBG 110255Z 17009KT 9SM FEW015 SCT030 SCT045 23/22 A2996 RMK AO2
     SLP145 T02330222 50008 $=
KNIP 110253Z 16007KT 10SM CLR 20/19 A3014 RMK AO2 SLP202 T02000194
     51003=
KNRB 110252Z AUTO 16008KT 10SM CLR 21/19 A3014 RMK AO2 SLP204
     T02060194 51003=
KPAM 110256Z AUTO 15011KT 9SM OVC003 22/21 A3006 RMK AO2 SLP182
     T02150206 50002 $=
KPOB 110256Z AUTO 24005KT 10SM OVC015 12/12 A3012 RMK AO2 CIG 014
     RWY05 SLP203 60000 T01210116 58005 $=
KVAD 110256Z AUTO 18003KT 8SM CLR 18/17 A3010 RMK AO2 SLP194
     T01790169 50005 $=
TJNR 110253Z AUTO 05010KT 10SM FEW024 26/23 A3001 RMK AO2 SLP161
     60001 T02610233 51004=
KDOV 110256Z AUTO 00000KT 10SM OVC024 08/07 A3009 RMK AO2 SLP193
     60000 T00770071 55006 $=
KGTB 110256Z AUTO 14010KT 10SM OVC040 02/M02 A3003 RMK AO2 SLP176
     T00191017 55000=
KGUS 110256Z 16019G26KT 3SM BR OVC002 14/13 A2946 RMK AO2A PK WND
     17026/33 DZB15E18RAB18E26DZB26E27RAB27E28 SLP980 P0000 60000
     T01370131 58067 $=


356 
SAPR82 SPIM 110300
METAR SPHI 110300Z NIL=
METAR SPJC 110300Z 15010KT CAVOK 19/16 Q1014 NOSIG RMK PP000=
METAR SPQT 110300Z VRB02KT 9999 BKN008 OVC070
24/23 Q1008 NOSIG RMK PP000=
METAR SPQU 110300Z VRB02KT 9999 SCT007 SCT015 11/09 Q1027 NOSIG
RMK PP000=
METAR SPRU 110300Z 14006KT 8000 VCFG OVC050 19/15 Q1014 RMK PP000=
METAR SPSO 110300Z 21012KT 9999 BKN080  19/16 Q1014 RMK PP000=
METAR SPTN 110300Z NIL=
METAR SPZO 110300Z 12010KT 6000 RA SCT046 OVC080 11/07 Q1030 
NOSIG RMK BIRD HAZARD RWY28 PP036=


381 
SPNA14 KAWN 110300 RRH
SPECI KNMM 110254Z AUTO 18009KT 10SM SCT017 BKN022 OVC043 22/21 A2993
      RMK AO2=
SPECI KNPA 110245Z 16009KT 5SM BR OVC004 22/21 A3002 RMK AO2 CIG 003V007
      T02170206 $=
SPECI KTBN 110254Z AUTO 20003KT 10SM FEW025 17/14 A2946 RMK AO2 DZB22E24RAB24E51DZB51E54
      SLP973=
SPECI KVPS 110257Z 15010KT 5SM BR OVC005 22/21 A3004 RMK AO2A CIG 005V007
      SLP179 $=


385 
SPNA35 KAWN 110300 RRG
SPECI KNPA 110245Z 16009KT 5SM BR OVC004 22/21 A3002 RMK AO2 CIG 003V007
      T02170206 $=
SPECI KVPS 110257Z 15010KT 5SM BR OVC005 22/21 A3004 RMK AO2A CIG 005V007
      SLP179 $=


564 
SPZZ40 KAWN 110300 RRU
SPECI CYAH 110257Z AUTO 24018G25KT 5SM -SN OVC026 M08/M12 A2975 RMK
      SLP102=
SPECI CYFC 110256Z AUTO 00000KT 9SM OVC006 M05/M06 A3020 RMK ICE SLP229=
SPECI CYPQ 110257Z AUTO 02003KT 2 1/2SM BR BKN021 OVC041 M00/M00 A2995
      RMK SLP152=
SPECI CYPY 110257Z AUTO 11007KT 9SM CLR M20/M22 A2932 RMK SLP957=
SPECI CYWK 110256Z 20011KT 8SM -SN BKN042 BKN072 OVC110 M14/M16 A2979
      RMK SC5AC2AC1 SLP149=
SPECI CYXR 110257Z AUTO VRB02KT 5/8SM BR SCT001 OVC160 M09/M10 A2993
      RMK ICE SLP156=
SPECI CYXS 110256Z AUTO 17029KT 5SM -SN CLR M02/M07 A2912 RMK SLP895=
SPECI EEEI 110258Z AUTO 11009KT 9999 -FZRA OVC007/// M01/M02 Q1013=
SPECI EKKA 110258Z AUTO 24006KT 2700 BR FEW006/// BKN013/// BKN043///
      01/00 Q1004=
SPECI FACT 110254Z 32004KT 300V360 9999 SCT005 BKN012 16/15 Q1011 BECMG
      BKN025=
SPECI FAPE 110254Z 25007KT 9999 FEW005 BKN008 20/19 Q1007 TEMPO SCT009=
SPECI KNMM 110254Z AUTO 18009KT 10SM SCT017 BKN022 OVC043 22/21 A2993
      RMK AO2=
SPECI KTBN 110254Z AUTO 20003KT 10SM FEW025 17/14 A2946 RMK AO2 DZB22E24RAB24E51DZB51E54
      SLP973=
SPECI KVPS 110257Z 15010KT 5SM BR OVC005 22/21 A3004 RMK AO2A CIG 005V007
      SLP179 $=
SPECI NFFN 110300Z 06008KT 9999 -TSRA FEW018CB SCT026TCU 31/24 Q1009
      TEMPO 5000 TSRA=


637 
SACU31 MUHA 110300
METAR
MUHA 110250Z 08005KT 9000 SKC 23/22 Q1018=
MUVR 110250Z 09004KT 9000 SKC 22/22 Q1019=
MUSC 110250Z 08005KT 9000 FEW020 21/21 Q1019=
MUCC 110250Z 08011KT 9000 FEW020 26/21 Q1018=
MUCM 110250Z 04008KT 9000 NSC 23/21 Q1018=
MUHG 110250Z 04007KT 9999 FEW020 22/21 Q1017=
MUCU 110250Z 02007KT 9000 FEW020 24/19 Q1016=
MUCL  NIL=
MUCF 110259Z AUTO 07005KT 050V120 22/21 Q1019=


640 
SAIV20 DIAP 110300
METAR DIAP 110300Z 17004KT 9999 FEW012 28/25 Q1007 NOSIG=


641 
SASD31 OEJD 110300
METAR OEDF 110300Z 29009KT CAVOK 13/04 Q1021 NOSIG=
METAR OEDR 110300Z 27010KT CAVOK 14/07 Q1020=
METAR OEJN 110300Z NIL=
METAR OEMA 110300Z 07003KT 6000 NSC 16/M01 Q1023 NOSIG=
METAR OERK 110300Z 29002KT CAVOK 09/01 Q1025 NOSIG=
METAR OERY 110300Z NIL=
METAR OEAB 110300Z 00000KT CAVOK 04/M09 Q1026 NOSIG=
METAR OYAA 110300Z NIL=
METAR OYSN 110300Z NIL=


646 
SABA31 MYIG 110300
METAR MYIG 110300Z AUTO 08009KT //// // FEW026/// ///// A////=


647 
SAAK41 KNKA 110300
METAR PAAD 110255Z AUTO 25014KT 1 1/4SM -SN SCT035 OVC060 M20/M22 
     A2941 RMK AO2 T12051225=


651 
SABA31 MYGF 110300
METAR MYGF 110300Z AUTO 06003KT //// R06///// // NCD 21/20 A3014=


652 
SABA31 MYNN 110300
METAR MYNN 110300Z 09005KT 9999 FEW020 25/21 A3014=


653 
SAIQ01 ORBI 110300
METAR ORBI 110300Z 30006KT CAVOK 05/01 Q1024 NOSIG=


654 
SABA31 MYEM 110300
METAR MYEM 110300Z AUTO 07009KT //// R33///// // FEW020 25/22 Q1020
    A3012=


655 
SAPR76 SPIM 110300
METAR SPCL 110300Z 03002KT 9999 SCT020 BKN080 25/25 Q1008
RMK PP000=
METAR SPJL 110300Z NIL=
METAR SPME 110300Z NIL=
METAR SPST 110300Z 16003KT 9999 FEW015 SCT100 26/24 Q1008 RMK
BIRD HAZARD RWY 17/35 PP000=


656 
SAEQ01 SEQU 110300
METAR SEQM 110300Z 02002KT 9999 SCT006 BKN040 14/13 Q1025 NOSIG RMK 
    A3029=
METAR SEMT 110300Z 21008KT 8000 -DZ OVC026 23/21 Q1012 RMK A2991=
METAR SELT 110300Z 31001KT 9999 SCT026 11/08 Q1028=
METAR SEGU 110300Z 21011KT 9999 FEW010 BKN023 OVC100 25/20 Q1012 NOSIG RMK A2988=
METAR SECU 110300Z 24006KT 9999 -RA SCT013 BKN030 14/14 Q1025=


679 
SAUS46 KMTR 110300 COR
MTRMHS
METAR KMHS 110256Z AUTO 00000KT 8SM CLR M01/M06 A3016 RMK AO2 SLP254 
T10111061 56002


680 
SAUS46 KPQR 110300 COR
MTRNUW
METAR KNUW 110256Z 15024G35KT 10SM SCT020 BKN025 OVC040 08/04 A2980 
RMK AO2 PK WND 15040/0205 SLP092 T00830044 56048 PNO


799 
SAUS14 KAWN 110300 RRX
METAR KBIF 110258Z AUTO 17010KT 10SM CLR 13/00 A3003 RMK AO2 SLP135
      T01260004 51025 $=
METAR KBYS 110258Z AUTO 32006KT 10SM CLR 04/M11 A3021 RMK AO2 SLP238
      T00421115 52012 $=
METAR KDLF 110256Z AUTO 03003KT 10SM BKN140 19/13 A2979 RMK AO2 SLP080
      T01930130 52024 $=
METAR KFBR 110255Z AUTO 25014KT 10SM CLR M11/M14 A3009 RMK AO2 T11101138=
METAR KFHU 110258Z AUTO 28007KT 10SM CLR 06/03 A3014 RMK AO2 SLP188
      T00550028 52015=
METAR KFLG 110257Z AUTO 02003KT 10SM CLR M08/M09 A3013 RMK AO2 SLP223
      T10781089 51013=
METAR KGRK 110256Z AUTO 22007KT 10SM CLR 22/18 A2975 RMK AO2 SLP066
      T02200176 52021=
METAR KIWA 110255Z VRB04KT 10SM CLR 13/07 A3012=
METAR KMCE 110253Z AUTO 03003KT 10SM CLR 08/03 A3023 RMK AO2 SLP239
      T00780028 51016=
METAR KNJK 110256Z AUTO 03005KT 10SM CLR 13/03 A3017 RMK AO2 SLP232
      T01330028 51019 $=
METAR KQVB 110258Z AUTO M M M M M M RMK AO2 SLPNO PWINO PNO TSNO $=
METAR KQVG 110258Z AUTO 35009KT 6SM HZ CLR 11/08 A3017 RMK AO2 SLP243
      T01120084 52011 $=
METAR KS33 110255Z AUTO 17008KT 10SM OVC090 04/M03 A3007 RMK AO2=
METAR KSKA 110258Z 18010KT 10SM CLR 00/00 A2993 RMK AO2A SLP163 60000
      T00020001 58011 $=
METAR KSKF 110256Z AUTO 34005KT 10SM CLR 20/18 A2976 RMK AO2 SLP072
      T02020176 52015 $=
METAR KTFP 110255Z AUTO 20012G16KT 7SM SCT006 24/23 A2979 RMK AO2 T02430230=
METAR KTYL 110255Z AUTO 02003KT 10SM CLR M01/M08 A3018 RMK AO2=
METAR KVBG 110258Z AUTO 36007KT 10SM CLR 10/06 A3017 RMK AO2 SLP221
      T00990057 53010 PNO $=


828 
SAUS43 KDTX 110300 COR
MTRP58
METAR KP58 110255Z AUTO 11016KT 03/03 A2971 RMK AO1 PRESFR SLP070 
P0001 60001 T00330028 58052


956 
SAHA31 MTPP 110300
METAR MTPP 110259Z AUTO 11006KT 8000 ////// 25/21 Q1014 A2996 NOSIG=

061 
SABA31 MYSM 110300
METAR MYSM 110300Z AUTO 07006KT CAVOK 25/21 A3012=


172 
SAUS44 KJAN 110300 COR
MTRNMM
METAR KNMM 110256Z AUTO 18007KT 10SM SCT017 BKN022 OVC043 22/21 
A2993 RMK AO2 SLP141 T02220206 50000


733 
SAAJ31 UBBB 110300
METAR UBBB 110300Z 15010KT 9999 SCT009 BKN039 11/10 Q1025
NOSIG=


734 
SAUR30 UKMS 110300
METAR UKBB 110300Z 13007MPS 9999 SCT012 BKN020 08/07
         Q1014 TEMPO    15010G15MPS=
METAR UKHH 110300Z 11008MPS 9999 OVC010 02/M00 Q1023
         NOSIG=
METAR UKOO 110300Z 16006MPS 6000 -SHRA FEW008
         SCT015CB  BKN043 10/10 Q1010 NOSIG=
METAR UKDE 110300Z 09007MPS 060V130 9999 OVC007 06/04
          Q1019 TEMPO 11009G14MPS=
METAR UKDD 110300Z 12009MPS 9999 BKN007 06/04 Q1019
         NOSIG=
METAR UKLL 110300Z 00000MPS 1700 1400NW R31/P2000D BR
         NSC  M02/M03 Q1007 NOSIG=
METAR UKDR 110300Z 13010MPS CAVOK 07/05 Q1015 NOSIG=


736 
SAFJ31 NFFN 110300
METAR NFFN 110300Z 06008KT 9999 -TSRA FEW018CB SCT026TCU 31/24 Q1009
TEMPO 5000 TSRA=

744 
SAAJ31 UBBB 110300
METAR UBBG 110300Z 21006KT 1500 BR OVC013 05/05 Q1025
NOSIG =


745 
SAAG SAWH 110300
METAR SAWH 110300Z  09013KT 9999  FEW015 BKN025 
08/06 Q1010=


784 
SAUS43 KDDC 110300 COR
MTRP28
METAR KP28 110256Z AUTO 32019G30KT 02/M04 A2982 RMK AO1 PK WND 
31032/0213 SLP103 T00171044 53069 $


896 
SAMO31 ZMCK 110300
METAR ZMCK 110300Z 00000MPS CAVOK M19/M23 Q1030 NOSIG RMK QFE655.8 
73=

919 
SAHW40 PHFO 110300 COR
MTRBKH
METAR PHBK 110251Z AUTO 00000KT 5SM -RA OVC037 25/22 A3003 RMK AO2 
RAB43 SLP172 P0000 60000 T02500217 53001


503 
SARM31 LUKK 110300
METAR LUKK 110300Z 17008KT 9999 FEW009 SCT014 BKN024 10/09 Q1007
NOSIG=


522 
SAUS45 KPSR 110300
MTRNOZ
METAR KNOZ 110259Z AUTO 36010KT 10SM CLR 16/M01 A3014 RMK AO2 SLP156 
T01561006 53015 $


523 
SAUS46 KLOX 110300 COR
MTRSDB
METAR KSDB 110253Z AUTO 06016KT 10SM CLR 04/M04 A3017 RMK AO2 SLP209 
T00441039 53010


777 
SAUS45 KTFX 110300
MTR6S8
METAR K6S8 110255Z AUTO RMK A01 Choteau


781 
SAUS45 KTFX 110300
MTRCII
METAR KCII 110255Z AUTO 25020G25KT 10SM M00/M13 A2966 RMK A01 Choteau


782 
SAUS45 KTFX 110300
MTR6S5
METAR KHRF 110255Z AUTO 18011KT 10SM FEW037 OVC044 00/M08 A2998 RMK AO2 Hamilton


825 
SPAU68 AMMC 110300
SPECI YSNF 110300Z AUTO 04015KT 9999 // BKN010 25/22 Q1012=




827 
SPAU31 AMMC 110300
SPECI YSNF 110300Z AUTO 04015KT 9999 // BKN010 25/22 Q1012=




828 
SPAU32 AMMC 110300
SPECI YSNF 110300Z AUTO 04015KT 9999 // BKN010 25/22 Q1012=




841 
SAUS46 KMFR 110300
MTRSXT
METAR KSXT 110256Z AUTO 16013KT 10SM BKN110 01/M03 A3010 RMK AO2 
SLP220 T00061033 58010


883 
SAIN90 VOML 110300
METAR VOML 110300Z 09004KT 6000 NSC 26/20 Q1013 NOSIG=


044 
SAAU69 AMMC 110300
METAR YSTW 110300Z AUTO 23007KT 9999 // SCT049 OVC061 25/15 Q1012=
METAR YSWG 110300Z AUTO 15004KT 9999 // SCT064 23/07 Q1014=
METAR YTEF 110300Z AUTO 22011KT 110V220 9999 // ////// 42/// Q1007=
METAR YTNK 110300Z AUTO 07007KT 9999 // NCD 35/00 Q1010=
METAR YTRE 110300Z AUTO 22011KT 9999 // SCT041 SCT047 OVC055 22/12 Q1013=
METAR YWGT 110300Z AUTO 12005KT 050V210 9999 // BKN057 24/07 Q1014=
METAR YWHA 110300Z AUTO 14011KT 9999 // NCD 26/09 Q1014=
METAR YWLM 110300Z AUTO 20015G25KT 9999 // BKN036 OVC055 20/12 Q1014=



045 
SAAU62 AMMC 110300
METAR YBTL 110300Z AUTO 05013KT 9999 // NCD 33/23 Q1006=
METAR YBUD 110300Z AUTO 12009KT 070V140 9999 // NCD 31/15 Q1009=
METAR YBWP 110300Z AUTO 23006KT 200V260 9999 // SCT047 BKN054 33/24 Q1005=
METAR YBWX 110300Z AUTO 22016KT //// // ////// 33/22 Q1007=
METAR YCAR 110300Z AUTO 18019KT 9999 // NCD 27/16 Q1013=
METAR YCAS 110300Z AUTO 11013KT //// // ////// 26/16 Q1011=
METAR YCBA 110300Z AUTO 25006KT 190V290 9999 // NCD ///// Q1012=
METAR YCBB 110300Z AUTO 19008KT 9999 // SCT048 22/11 Q1014=
METAR YCBP 110300Z AUTO 02010KT 330V040 9999 // NCD 31/00 Q1013=
METAR YCCY 110300Z AUTO 22006KT 190V250 9999 // NCD 34/M07 Q1008=



047 
SPAU69 AMMC 110300
SPECI YWLM 110300Z AUTO 20015G25KT 9999 // BKN036 OVC055 20/12 Q1014=




048 
SPAU32 AMMC 110300
SPECI YWLM 110300Z AUTO 20015G25KT 9999 // BKN036 OVC055 20/12 Q1014=




067 
SAUS41 KLWX 110300 COR
MTRNHK
METAR KNHK 110252Z 12004KT 10SM OVC036 11/08 A3008 RMK AO2 SLP186 
60000 T01060083 56007 $


090 
SABR31 TBPB 110300
METAR TBPB 110300Z 06014KT 9999 FEW022 26/22 Q1011 NOSIG=

099 
SPAK31 KWBC 110301
SPECI
PAOR 110257Z 00000KT 2SM -SN OVC029 M18/M21 A2879=


100 
SPAU31 KWBC 110301
SPECI
YSNF 110300Z AUTO 04015KT 9999 // BKN010 25/22 Q1012=


102 
SPUS81 KWBC 110301
SPECI
KAAF 110257Z AUTO 14008KT 1 3/4SM BR OVC003 21/21 A3009=


105 
SPCN51 CWAO 110300
SPECI CZCP 110300Z AUTO 08017KT ////SM //// FEW002 BKN007 BKN012 M21/M23 A2925=


106 
SPZA31 KWBC 110301
SPECI
FACT 110254Z 32004KT 300V360 9999 SCT005 BKN012 16/15 Q1011 BECMG
BKN025=


122 
SPZA31 KWBC 110301
SPECI
FAPE 110254Z 25007KT 9999 FEW005 BKN008 20/19 Q1007 TEMPO SCT009=


299 
SPUS81 KWBC 110301
SPECI
PAOR 110257Z 00000KT 2SM -SN OVC029 M18/M21 A2879=


315 
SAGG31 UGTB 110300
METAR UGTB 110300Z 07004KT 020V090 CAVOK 02/00 Q1026 NOSIG=
METAR UGKO 110300Z 08017G29KT CAVOK 10/04 Q1020 NOSIG=
METAR UGSB 110300Z 13022KT CAVOK 14/01 Q1018 NOSIG=


317 
SAFG20 SOCA 110300
METAR SOCA 110300Z AUTO 24001KT 9999 FEW025 SCT038 25/24 Q1008
TEMPO 3000 SHRA BKN005 BKN012TCU=


318 
SPAU36 YBBN 110300
SPECI YWLM 110300Z AUTO 20015G25KT 9999 // BKN036 OVC055 20/12 Q1014=


319 
SASQ31 LZIB 110300
METAR LZIB 110300Z 03004KT 4000 -FZDZ BR BKN003 OVC004 M00/M01
Q1007=
METAR LZKZ 110300Z 13003KT 0700 R01/1800U FG BKN001 OVC011 00/00
Q1007=
METAR LZTT 110300Z 26003KT 9999 0500NE R27/0400D BCFG FEW001
SCT006 M06/M06 Q1005=


320 
SAJM31 MKJS 110300
METAR MKJS 110300Z 10008KT 9999 FEW022 26/21 Q1015=


321 
SAER32 OMAE 110300
METAR OMAA 110300Z 20004KT 8000 SCT040 18/14 Q1019 NOSIG=
METAR OMAD 110300Z VRB02KT 8000 NSC 20/16 Q1020 NOSIG=
METAR OMAL 110300Z 04007KT CAVOK 16/09 Q1021 NOSIG=
METAR OMDB 110300Z 20003KT 170V240 9999 FEW045 19/11 Q1020 NOSIG=
METAR OMDW 110300Z 15006KT CAVOK 17/10 Q1021 NOSIG=
METAR OMFJ 110300Z 30006KT 8000 NSC 17/08 Q1020 A3012=
METAR OMRK 110300Z 0000KT CAVOK 12/07 Q1020 A3014=
METAR OMSJ 110300Z 17003KT CAVOK 15/09 Q1020 NOSIG=

322 
SAAJ31 UBBB 110300
METAR UBBY 110300Z 01004KT 9999 BKN060 06/05 Q1028
NOSIG RMK MT OP=


323 
SPAU32 YBBN 110300
SPECI YSNF 110300Z AUTO 04015KT 9999 // BKN010 25/22 Q1012
RF00.0/000.0=


324 
SAOM32 OOMS 110300
METAR OOMS 110300Z NIL=
METAR OOSA 110250Z 04008KT CAVOK 24/12 Q1018 NOSIG=
METAR OOSH 110300Z NIL=
METAR OODQ 110250Z AUTO 33007KT 9999 SCT033 19/14 Q1018 NOSIG=
METAR OOKB 110250Z AUTO 18006KT CAVOK ////// 18/09 Q1020 NOSIG=
METAR OOAD 110250Z AUTO 35005KT 9999 // NCD 16/08 Q1021 NOSIG=

334 
SAUS41 KAKQ 110301
MTRNGU
METAR KNGU 110259Z 00000KT 5SM BR SCT009 BKN023 OVC029 12/10 A3012 
RMK AO2 RAB43E51 SLP198 P0000 60000 T01170100 58009 $


619 
SAUS41 RODE 110301
MTRXXG
METAR RODE 110259Z AUTO 06009KT 10SM FEW030 OVC060 23/16 A3024 RMK 
AO2 SLP281 T02330156 58008 PWINO $


644 
SAXX70 KAWN 110300 RRD
METAR KQEI 110300Z AUTO 17003KT 9000 HZ FEW027 07/02 A3029 RMK A02
      TSNO=
METAR KQEN 110300Z AUTO 25006G13KT M0400 /CLR 02/00 / RMK A02 TSNO=
METAR KQEP 110300Z AUTO 19001KT 3200 HZ FEW150 08/04 A3034 RMK A02
      TSNO=
METAR KQEQ 110300Z AUTO 04002KT 3200 BR BKN006 04/04 A3037 RMK A02
      TSNO=
METAR KQEW 110300Z AUTO 25003KT 6000 HZ CLR 10/03 A3029 RMK A02 TSNO=
METAR KQFU 110300Z AUTO 21001KT 2800 BR OVC007 05/04 A3036 RMK A02
      TSNO=
METAR KQFV 110300Z AUTO 9000 HZ CLR 06/01 A3032 RMK / A02=
METAR KQFX 110300Z AUTO 36001KT 3200 HZ SCT022 08/05 A3031 RMK A02
      TSNO=


720 
SAUS46 KSGX 110301 COR
MTRNZY
METAR KNZY 110252Z 31003KT 10SM FEW035 12/09 A3013 RMK AO2 SLP202 
T01220089 50006


875 
SAUS44 KJAN 110301 COR
MTRNMM
METAR KNMM 110256Z AUTO 18007KT 10SM SCT017 BKN022 OVC043 22/21 
A2993 RMK AO2 SLP141 T02220206 50000


939 
SAZZ40 KAWN 110300 RRK
METAR BGTL 110256Z AUTO 08009KT 9999 SCT042 M17/M18 A2956 RMK AO2 SLP000
      T11751177 57009 TSNO $=
METAR KHEY 110258Z AUTO 19006KT 10SM OVC008 21/21 A3004 RMK AO2 SLP173
      T02140212 52006=
METAR KHUA 110258Z AUTO 20016G20KT 10SM BKN013 BKN021 21/20 A2986 RMK
      AO2 RAB14E25 SLP110 P0000 60000 T02100201 58013=
METAR KLOR 110258Z AUTO 18007KT 10SM OVC008 22/21 A3005 RMK AO2 SLP158
      T02180206 52006=
METAR KNID 110256Z AUTO 15005KT CLR 05/M09 A3021 RMK AO2 SLP245 T00501089
      53017 $=
METAR KNMM 110256Z AUTO 18007KT 10SM SCT017 BKN022 OVC043 22/21 A2993
      RMK AO2 SLP141 T02220206 50000=
METAR KNQI 110256Z AUTO 16006KT 10SM CLR 24/22 A2978 RMK AO2 SLP081
      T02440217 51021 $=
METAR KNYL 110257Z 35008KT 7SM FEW150 BKN200 16/M03 A3014 RMK AO2 SLP206
      T01611028 52018=
METAR KOFF 110256Z 33012KT 3SM -SN BKN010 00/M02 A2957 RMK AO2A SNE0156
      SLP026 60002 T00001022 53017 PWINO PNO FZRANO TSNO VISNO
      RWY12 CHINO RWY12 $=
METAR KSKA 110258Z 18010KT 10SM CLR 00/00 A2993 RMK AO2A SLP163 60000
      T00020001 58011 $=
METAR KSXS 110258Z AUTO 19009KT 10SM OVC008 22/21 A3004 RMK AO2 SLP172
      T02160207 50004=
METAR KVBG 110258Z AUTO 36007KT 10SM CLR 10/06 A3017 RMK AO2 SLP221
      T00990057 53010 PNO $=
METAR MROC 110300Z 11006KT CAVOK 20/15 A3000 NOSIG=
METAR MUCU 110250Z 02007KT 9000 FEW020 24/19 Q1016=
METAR MUHA 110250Z 08005KT 9000 SKC 23/22 Q1018=
METAR PAED 110256Z 00000KT 10SM FEW010 OVC033 M05/M12 A2880 RMK AO2A
      SLP751 T10501120 52028 $=


941 
SAAJ31 UBBB 110300
METAR UBBF 110300Z AUTO 30008KT 230V320 9999 // /////////
03/M00 Q1025=


944 
SAUS14 KAWN 110300 RRX
METAR KDVO 110255Z AUTO 00000KT 10SM CLR 06/02 A3024 RMK AO2=
METAR KE42 110255Z AUTO 35017KT 3 1/2SM -SN SCT014 BKN020 OVC029 01/M02
      A2994 RMK AO2 T00141016=
METAR KFMM 110255Z AUTO 34017KT 10SM CLR M05/M11 A2992 RMK AO2=
METAR KGCD 110255Z AUTO 08006G14KT 10SM OVC050 00/M04 A3009 RMK AO2
      T10021042=
METAR KGIC 110255Z AUTO 20017G24KT 10SM SCT080 BKN110 00/M06 A3002
      RMK AO1=
METAR KGNC 110255Z AUTO 25012KT 10SM CLR 13/01 A2996 RMK AO2 T01330010=
METAR KGYF 110255Z AUTO 16029G32KT 10SM OVC009 A2984 RMK AO2 PWINO=
METAR KMHS 110256Z AUTO 00000KT 8SM CLR M01/M06 A3016 RMK AO2 SLP254
      T10111061 56002=
METAR KNID 110256Z AUTO 15005KT CLR 05/M09 A3021 RMK AO2 SLP245 T00501089
      53017 $=
METAR KNQI 110256Z AUTO 16006KT 10SM CLR 24/22 A2978 RMK AO2 SLP081
      T02440217 51021 $=
METAR KNYL 110257Z 35008KT 7SM FEW150 BKN200 16/M03 A3014 RMK AO2 SLP206
      T01611028 52018=
METAR KSOA 110255Z AUTO 00000KT 10SM CLR 17/03 A2992 RMK AO2=
METAR KT20 110255Z AUTO 17005KT 7SM OVC010 24/23 A2979 RMK AO2 T02370230=
METAR KT41 110255Z AUTO 19011G19KT 7SM BKN011 OVC017 25/23 A2984 RMK
      AO2 T02460229=
METAR KT74 110255Z AUTO 18009KT 10SM CLR 23/21 A2978 RMK AO2 T02280210=
METAR KT78 110255Z AUTO 20007G14KT 8SM -RA BKN011 OVC016 24/23 A2984
      RMK AO2=
METAR KTEX 110255Z AUTO 00000KT 10SM SCT025 BKN030 BKN036 M13/M15 A3006
      RMK AO2=
METAR KTVL 110253Z AUTO 19003KT 10SM CLR M07/M09 A3015 RMK AO2 SLP267
      I1000 I3001 T10721094 53008=
METAR KW43 110255Z AUTO 21010KT 10SM CLR M07/M11 A2984 RMK AO2=


945 
SAHU31 LHBM 110300
METAR LHBP 110300Z 04004KT 7000 OVC008 01/00 Q1007 NOSIG=


946 
SABU31 LBSM 110300
METAR LBSF 110300Z 10004KT 080V160 CAVOK 02/00 Q1007 NOSIG=
METAR LBWN 110300Z 03004KT 350V060 CAVOK 07/04 Q1011 NOSIG=
METAR LBBG 110300Z 29004KT CAVOK 08/06 Q1011 NOSIG=
METAR LBPD 110300Z AUTO 11004KT 090V150 9999 BKN210/// 02/00 Q1009=
METAR LBGO 110300Z AUTO 09008KT 2200 BR SCT001/// BKN230/// 01/01
    Q1008=


948 
SAEG31 HECA 110300
METAR HECA 110300Z 00000KT 6000 NSC 14/09 Q1017 NOSIG=


950 
SABU33 LBSM 110300
METAR LBPG 110300Z 01004KT 5000 BR BKN100 01/01 Q1009=
METAR LBIA 110300Z 02002KT 9999 FEW100 04/03 Q1011=
METAR LBPL 110300Z NIL=
METAR LBWB 110300Z NIL=


951 
SAMF20 TFFR 110300
METAR TFFR 110300Z AUTO 08007KT 9999 FEW024 26/22 Q1013 TEMPO 4000
SHRA SCT018TCU SCT025=

952 
SAMR20 TFFF 110300
METAR TFFF 110300Z AUTO 09007KT 9999 FEW022 SCT062 25/22 Q1013
TEMPO 4000 SHRA SCT018TCU=


953 
SAXN17 KAWN 110300 RRC
METAR MMMD 110246Z 14008KT 7SM SKC 25/20 A2998 RMK SLP153 52016 977=
METAR MMMX 110248Z 05005KT 10SM SKC 18/06 A3031 NOSIG RMK SLP126 52032
      953=
METAR MMVR 110248Z 00000KT 4SM OVC012 24/24 A2989 RMK SLP093 52022
      987 8/6// HZ=
METAR MRLB 110300Z 09003KT CAVOK 25/19 A2987=
METAR MROC 110300Z 11006KT CAVOK 20/15 A3000 NOSIG=
METAR NFFN 110300Z 06008KT 9999 -TSRA FEW018CB SCT026TCU 31/24 Q1009
      TEMPO 5000 TSRA=
METAR NGTA 110300Z 09010KT 9999 FEW020 BKN300 31/23 Q1006=
METAR PAED 110256Z 00000KT 10SM FEW010 OVC033 M05/M12 A2880 RMK AO2A
      SLP751 T10501120 52028 $=
METAR PAEI 110256Z 24003KT 5SM -SN BR OVC004 M13/M16 A2900 RMK AO2A
      SNB0150 SLP836 P0000 60000 T11341156 52024 $=
METAR PAFR 110258Z AUTO 17006KT 10SM BKN019 OVC026 M06/M10 A2877 RMK
      AO2 SLP753 T10611098 52028 PNO $=
METAR PAGA 110256Z AUTO 27004KT 10SM CLR M22/M24 A2940 RMK AO2 SLP962
      T12221244 53027 FZRANO=
METAR PALU 110255Z AUTO 33020KT 8SM -SHSN OVC016 M21/M23 A2972 RMK
      AO2 SHSNB0054 SLP065 P0000 60000 T12081235 52020=
METAR PATL 110255Z AUTO VRB04KT 10SM CLR M15/M20 A2927 RMK AO2 SLP944
      T11471202 53035=
METAR PGUA 110256Z 10012KT 10SM FEW009 SCT016 BKN23 28/24 A2982 RMK
      AO2A RAE0159 SLP088 P0000 60001 T02760242 57021 $=
METAR PLCH 110300Z 11010KT 9999 FEW019 BKN040 28/23 Q1007=
METAR RJOI 110256Z 10004KT 9999 FEW020 FEW180 15/07 A3026 RMK SLP246
      T01500072 58014=
METAR RKSO 110258Z AUTO 00000KT 4SM BR FEW004 SCT130 07/07 A3033 RMK
      AO2 SLP274 T00670065 58009 TSNO $=


185 
SAUS14 KAWN 110300 RRX
METAR KCOM 110255Z AUTO 29008KT 10SM CLR 21/03 A2983 RMK AO2 T02110031=
METAR KDKB 110255Z AUTO 09004KT 1 3/4SM UP OVC001 07/07 A2934 RMK AO2
      LTG DSNT W P0017 60032 T00670066=
METAR KDKR 110255Z AUTO 17009KT 10SM FEW020 BKN036 24/22 A2977 RMK
      AO2=
METAR KE16 110255Z AUTO 30003KT 10SM CLR 07/00 A3026 RMK AO2 PWINO
      PNO=
METAR KE41 110255Z AUTO 28005KT 10SM CLR 17/01 A2991 RMK AO2 T01660015=
METAR KECS 110255Z AUTO 01007KT 10SM CLR M12/M15 A2989 RMK AO2=
METAR KECU 110255Z AUTO 00000KT 10SM FEW120 20/05 A2991 RMK AO2=
METAR KF00 110255Z AUTO 20009KT 10SM BKN037 BKN043 BKN120 22/17 A2969
      RMK AO2 T02180165=
METAR KGVT 110255Z AUTO 22009KT 10SM SCT049 SCT055 SCT110 23/19 A2972
      RMK AO2 TSNO T02260188=
METAR KHBV 110255Z AUTO 00000KT 7SM CLR 22/21 A2980 RMK AO2 T02220210=
METAR KIZA 110255Z AUTO 08004KT 10SM CLR 07/04 A3018 RMK AO2=
METAR KJAS 110255Z AUTO 20014KT 10SM SCT020 BKN026 OVC065 24/23 A2982
      RMK AO2=
METAR KNGP 110256Z AUTO 18011G21KT 7SM FEW009 BKN018 25/23 A2979 RMK
      AO2 SLP087 T02500233 51019 $=
METAR KOSA 110255Z AUTO 20014KT 10SM CLR 24/19 A2969 RMK AO2 T02440194=
METAR KPEQ 110255Z AUTO 28015KT CLR 17/02 A2996 RMK AO2 T01680018 PWINO=
METAR KRCV 110255Z AUTO 28010G16KT 10SM CLR M10/M21 A3000 RMK AO2 T11031209=
METAR KS52 110255Z AUTO 30004KT 7SM -SN BR SCT030 BKN035 OVC065 M04/M06
      A2989 RMK AO2 T10391059=
METAR KT35 110255Z AUTO 19010G17KT 10SM CLR 24/21 A2977 RMK AO2 T02360211=
METAR KTMA 110255Z AUTO 19003KT 20/19 A3010 RMK AO2 T01950188 PWINO=
METAR KUVA 110255Z AUTO 03008KT 10SM CLR 19/16 A2981 RMK AO2 T01860163=
METAR KVHN 110255Z AUTO 29008KT 10SM CLR 13/03 A3008 RMK AO2 T01290030=


190 
SAMH31 PKWA 110300
METAR PKWA 110300Z AUTO 07009KT 10SM CLR 29/23 A2976 RMK AO2 T02910225=


196 
SAUS14 KAWN 110300 RRX
METAR KDLO 110255Z AUTO 00000KT 10SM CLR 06/03 A3024 RMK AO2 T00550031=
METAR KE38 110255Z AUTO 28007KT 10SM CLR 16/01 A3006 RMK AO2 T01590011=
METAR KERV 110255Z AUTO 00000KT 7SM CLR 16/15 A2984 RMK AO2 T01620146=
METAR KF17 110255Z AUTO 17012G16KT 10SM BKN020 OVC027 25/21 A2979 RMK
      AO2=
METAR KGOP 110255Z AUTO 00000KT 10SM CLR 21/17 A2981 RMK AO2=
METAR KHII 110255Z AUTO 34011KT 10SM CLR 12/M10 A3019 RMK AO2=
METAR KNUC 110256Z AUTO 07007KT 10SM CLR 11/06 A3015 RMK AO2 SLP209
      T01110061 51011 $=
METAR KNXF 110256Z AUTO 03005KT 10SM CLR A3014 RMK AO2 SLPNO 51007
      $=
METAR KONP 110255Z AUTO 18011G18KT 10SM SCT022 BKN033 OVC049 07/06
      A3009 RMK AO2=
METAR KOZA 110255Z AUTO 32009KT 10SM CLR 19/02 A2992 RMK AO2=
METAR KPLU 110255Z AUTO 18010KT 150V230 10SM FEW055 OVC070 08/03 A2990
      RMK AO2=
METAR KPOY 110255Z AUTO 25011KT 10SM CLR M07/M19 A2981 RMK AO2=
METAR KPSN 110255Z AUTO 19010KT 10SM FEW023 BKN032 BKN040 23/21 A2975
      RMK AO2=
METAR KPSO 110255Z AUTO 00000KT 10SM CLR M14/M16 A3005 RMK AO2 T11431156=
METAR KPVW 110255Z AUTO 30017G22KT 10SM CLR 11/M08 A2989 RMK AO2 T01101085=
METAR KRAS 110255Z AUTO 17009KT 2 1/2SM BR SCT008 SCT018 23/22 A2982
      RMK AO2 T02270220=
METAR KRWV 110255Z AUTO 19009KT 10SM BKN014 A2979 RMK AO2=
METAR KSBS 110255Z AUTO 27008KT 7SM BKN030 OVC039 M10/M12 A3002 RMK
      AO1 T10961117=
METAR KSFF 110253Z COR 20004KT 10SM SCT035 OVC070 02/M01 A2999 RMK
      AO2 SLP171 T00171011 58006=
METAR KSJN 110254Z AUTO 31003KT 10SM CLR M02/M07 A3015 RMK AO2 SLP208
      T10171067 53031=


197 
SANA14 KAWN 110300 RRC
METAR KGTB 110256Z AUTO 14010KT 10SM OVC040 02/M02 A3003 RMK AO2 SLP176
      T00191017 55000=
METAR KNGP 110256Z AUTO 18011G21KT 7SM FEW009 BKN018 25/23 A2979 RMK
      AO2 SLP087 T02500233 51019 $=
METAR KNID 110256Z AUTO 15005KT CLR 05/M09 A3021 RMK AO2 SLP245 T00501089
      53017 $=
METAR KNMM 110256Z AUTO 18007KT 10SM SCT017 BKN022 OVC043 22/21 A2993
      RMK AO2 SLP141 T02220206 50000=
METAR KNQI 110256Z AUTO 16006KT 10SM CLR 24/22 A2978 RMK AO2 SLP081
      T02440217 51021 $=
METAR KNTU 110256Z 13003KT 9SM SCT025 BKN050 OVC190 12/09 A3010 RMK
      AO2 SLP196 T01170089 58013=
METAR KNYL 110257Z 35008KT 7SM FEW150 BKN200 16/M03 A3014 RMK AO2 SLP206
      T01611028 52018=
METAR KOFF 110256Z 33012KT 3SM -SN BKN010 00/M02 A2957 RMK AO2A SNE0156
      SLP026 60002 T00001022 53017 PWINO PNO FZRANO TSNO VISNO
      RWY12 CHINO RWY12 $=
METAR KSKA 110258Z 18010KT 10SM CLR 00/00 A2993 RMK AO2A SLP163 60000
      T00020001 58011 $=
METAR KSKF 110256Z AUTO 34005KT 10SM CLR 20/18 A2976 RMK AO2 SLP072
      T02020176 52015 $=
METAR KVBG 110258Z AUTO 36007KT 10SM CLR 10/06 A3017 RMK AO2 SLP221
      T00990057 53010 PNO $=
METAR KVPS 110256Z 15010KT 5SM BR OVC007 22/21 A3004 RMK AO2A CIG 005
      RWY01 CIG 005 RWY12 CIG 005 RWY30 SLP179 T02180214 50007 $=
METAR KWRI 110256Z AUTO 00000KT 10SM OVC050 06/03 A3013 RMK AO2 SLP203
      T00610029 55005 $=
METAR PHSF 110258Z AUTO 24004KT 10SM CLR 19/05 A3031 RMK AO2 PK WND
      12028/02 SLP146 T01930053 53008 $=


284 
SAUS46 KPQR 110301 COR
MTRNUW
METAR KNUW 110256Z 15024G35KT 10SM SCT020 BKN025 OVC040 08/04 A2980 
RMK AO2 PK WND 15040/0205 SLP092 T00830044 56048 PNO


464 
SAPK31 OPKC 110300
METAR OPFA 110255Z 00000KT 1500 BR FEW100 06/04 Q1019  BECMG 1000 =
METAR OPIS 110300Z 23004KT 4000 FU NSC 08/01 Q1019 TEMPO 3000=
METAR OPKC 110255Z 00000KT 4000 HZ NSC 11/02 Q1020 NOSIG=
METAR OPLA 110255Z 00000KT 1000 BR FEW100 10/07 Q1018 BECMG 1500 RMK
QFE990 A30.08=
METAR OPMT 110300Z 00000KT 0800 BR NSC 10/07 Q1019 TEMPO 1000=
METAR OPNH 110300Z 36002KT 1200M BR NSC 09/07 Q1022 TEMPO 1000M BR=
METAR OPPS 110300Z 18004KT 5000 HZ FEW200 06/01 Q1020=
METAR OPSK 110300Z 00000KT 1000 BR NSC 08/05 Q1018 BECMG 2500 HZ=
METAR OPST 110255Z 00000KT 1500 BR NSC 07/05 Q1019 BECMG 2500 RH85=
METAR OPGD 110300Z NIL=
METAR OPRN 110300Z NIL=


548 
SANC01 NWWW 110300
METAR NWWW 110300Z AUTO 02007KT 330V080 9999 FEW052 33/21 Q1008
TEMPO SHRA=


560 
SAUS14 KAWN 110300 RRX
METAR KAJZ 110255Z AUTO 20004KT 10SM CLR M03/M09 A3015 RMK AO2 T10331087=
METAR KAQO 110255Z AUTO 31008G17KT 1 1/4SM -RA HZ FEW022 SCT055 20/16
      A2980 RMK AO2 VIS 1/4V5=
METAR KASL 110255Z AUTO 20008G14KT 10SM OVC019 23/20 A2976 RMK AO1
      T02250200=
METAR KAUN 110255Z AUTO 00000KT 10SM 04/00 A3021 RMK A01=
METAR KBDG 110255Z AUTO 30007KT 10SM M06/M11 A3024 RMK AO1 T10611115=
METAR KBVS 110255Z AUTO 13011G16KT 100V170 10SM OVC021 07/04 A2980
      RMK A01=
METAR KCCU 110255Z AUTO 29019G31KT OVC001 M18/M22 A2977 RMK AO2 PWINO=
METAR KEIK 110255Z AUTO 30003KT 10SM CLR M05/M18 A2994 RMK AO2 T10461180=
METAR KHLR 110258Z AUTO 23006KT 6SM HZ CLR 23/18 A2977 RMK AO2 SLP071
      T02290180 52022=
METAR KNFL 110256Z VRB05KT 10SM CLR M01/M04 A3022 RMK AO2 SLP196 T10111039
      50004=
METAR KNLC 110256Z 31007KT 10SM CLR 04/01 A3025 RMK AO2 SLP246 RH/79
      T00440011 53020=
METAR KNRS 110256Z AUTO 00000KT 10SM CLR 09/08 A3014 RMK AO2 SLP205
      T00940078 50007 $=
METAR KNRS 110256Z AUTO 00000KT 10SM CLR 09/08 A3014 RMK AO2 SLP205
      T00940078 50007 $=
METAR KNUC 110256Z AUTO 07007KT 10SM CLR 11/06 A3015 RMK AO2 SLP209
      T01110061 51011 $=
METAR KPPA 110255Z AUTO 34013G18KT 10SM SCT100 04/M03 A2992 RMK AO2
      T00401033=
METAR KRBO 110255Z AUTO 16008KT 10SM CLR 25/23 A2979 RMK AO2 T02540226=
METAR KSEQ 110258Z AUTO 17005KT 9SM R13/5500FT CLR 22/21 A2982 RMK
      AO2 SLP095 60000 T02180212 52022=
METAR KT70 110258Z AUTO 09005KT 5SM R13/5000FT HZ CLR 20/16 A2972 RMK
      AO2 SLP055 T01970155 52019 $=


569 
SAZZ40 KAWN 110300 RRL
METAR KGOV 110258Z AUTO 09012KT 6SM -RA BR OVC006 01/00 A2964 RMK AO2
      SNE21RAB21 SLP054 P0006 60006 T00050002 57058 $=
METAR KNFL 110256Z VRB05KT 10SM CLR M01/M04 A3022 RMK AO2 SLP196 T10111039
      50004=
METAR KNGP 110256Z AUTO 18011G21KT 7SM FEW009 BKN018 25/23 A2979 RMK
      AO2 SLP087 T02500233 51019 $=
METAR KNLC 110256Z 31007KT 10SM CLR 04/01 A3025 RMK AO2 SLP246 RH/79
      T00440011 53020=
METAR KNRS 110256Z AUTO 00000KT 10SM CLR 09/08 A3014 RMK AO2 SLP205
      T00940078 50007 $=
METAR KNUC 110256Z AUTO 07007KT 10SM CLR 11/06 A3015 RMK AO2 SLP209
      T01110061 51011 $=
METAR KPOE 110258Z AUTO 19015G23KT 10SM OVC014 24/22 A2984 RMK AO2
      SLP104 50009=
METAR KT70 110258Z AUTO 09005KT 5SM R13/5000FT HZ CLR 20/16 A2972 RMK
      AO2 SLP055 T01970155 52019 $=
METAR KTIK 110256Z 33022G31KT 10SM SCT065 SCT250 08/M02 A2972 RMK AO2A
      PK WND 33032/50 PRESRR SLP069 T00811020 52058=
METAR KWRB 110256Z 16005KT 5/8SM R15/3500FT BR OVC002 17/17 A3006 RMK
      AO2A SLP181 T01700170 58005=
METAR MTPP 110259Z AUTO 11006KT 8000 ////// 25/21 Q1014 A2996 NOSIG=
METAR MUCF 110259Z AUTO 07005KT 050V120 22/21 Q1019=
METAR MUCM 110250Z 04008KT 9000 NSC 23/21 Q1018=
METAR MUHG 110250Z 04007KT 9999 FEW020 22/21 Q1017=
METAR MUVR 110250Z 09004KT 9000 SKC 22/22 Q1019=
METAR MYGF 110300Z AUTO 06003KT //// R06///// // NCD 21/20 A3014=
METAR ORBI 110300Z 30006KT CAVOK 05/01 Q1024 NOSIG=
METAR SADF 110300Z 07006KT CAVOK 21/18 Q1009 RMK PP000=
METAR SECU 110300Z 24006KT 9999 -RA SCT013 BKN030 14/14 Q1025=


573 
SAXN17 KAWN 110300 RRD
METAR MMAA 110250Z 26004KT 5SM FEW015 SCT100 27/24 A2983 RMK SLP093
      52020 973 8/130 HZY=
METAR MMCE 110256Z 12008KT 7SM SKC 27/22 A2992 RMK SLP129 55017 967=
METAR MMCL 110246Z 34004KT 10SM FEW230 22/18 A2996 RMK SLP144 52010
      904 8/002 HZY=
METAR MMCU 110247Z 29007KT 10SM FEW040 BKN200 17/02 A3007 RMK SLP114
      52034 912 8/502=
METAR MMHO 110248Z 29004KT 10SM FEW200 16/11 A3006 RMK SLP183 52016
      927 8/008=
METAR MMLO 110245Z 00000KT 8SM SKC 12/M02 A3028 RMK SLP158 52013 967=
METAR MMPS 110246Z 23004KT 7SM SCT030 BKN070 28/21 A2990 RMK 8/71/
      HZY=
METAR MMSD 110245Z 29005KT 8SM SCT120 22/16 A3003 RMK SLP153 52017
      909 8/030 SC=
METAR MMTJ 110246Z 36003KT 6SM SKC 12/07 A3015 RMK SLP212 52010 940
      HZY ST W=
METAR MMTO 110246Z 35005KT 5SM SKC 10/04 A3038 RMK SLP168 52028 961
      HZY=
METAR MMUN 110247Z 10012KT 7SM SCT015 27/24 A3001 RMK SLP166 52011
      967 8/100 MDT CU=
METAR MTPP 110259Z AUTO 11006KT 8000 ////// 25/21 Q1014 A2996 NOSIG=
METAR MUHA 110250Z 08005KT 9000 SKC 23/22 Q1018=
METAR MYGF 110300Z AUTO 06003KT //// R06///// // NCD 21/20 A3014=
METAR MYNN 110300Z 09005KT 9999 FEW020 25/21 A3014=
METAR RJOI 110256Z 10004KT 9SM FEW020 FEW180 15/07 A3026 RMK AO2 SLP246
      T01500072 58014=
METAR SKBO 110300Z VRB02KT 9999 SCT015 SCT070 14/12 Q1025 NOSIG RMK
      A3027=
METAR SKCL 110300Z 35003KT 9999 FEW040 BKN150 21/18 Q1014 NOSIG RMK
      A2996=


600 
SAUS14 KAWN 110300 RRX
METAR K20V 110255Z AUTO 25009KT 10SM BKN027 BKN034 BKN045 M10/M13 A3000
      RMK AO2=
METAR K2R9 110255Z AUTO 15006KT 7SM CLR 23/22 A2979 RMK AO2 T02310216=
METAR K4BM 110255Z AUTO 27009G23KT 10SM CLR M18/M23 A2980 RMK AO2=
METAR K4F2 110255Z AUTO 18011G18KT 150V210 10SM BKN020 BKN024 24/21
      A2975 RMK AO2 T02360209=
METAR K4S2 110255Z AUTO 00000KT 7SM -RA BKN042 OVC050 04/03 A3004 RMK
      AO2 P0001=
METAR K81R 110255Z AUTO 24004KT 10SM CLR 19/05 A2982 RMK AO2 T01860050=
METAR KADS 110255Z AUTO 23003KT 10SM CLR 24/07 A2974 RMK AO2 T02360070=
METAR KALK 110256Z AUTO 25008KT 10SM CLR 05/03 A3014 RMK AO2 SLP166
      T00500028 53015=
METAR KAXX 110255Z AUTO 28007G17KT 10SM BKN036 OVC046 M10/M16 A2999
      RMK AO2 T11041165=
METAR KBBD 110255Z AUTO 32005KT 10SM 20/04 RMK AO2=
METAR KBMC 110255Z AUTO 00000KT 10SM OVC070 M02/M10 A3021 RMK AO1 T10221102=
METAR KBPG 110255Z AUTO 22009KT 10SM CLR 15/00 A2990 RMK AO2 T01501002=
METAR KBWD 110255Z AUTO 00000KT 10SM FEW017 15/04 A2982 RMK AO1=
METAR KC07 110255Z AUTO 29009G20KT 250V060 A2983 RMK AO2 PWINO=
METAR KJDD 110255Z AUTO 20012G17KT 10SM CLR 24/20 A2971 RMK AO2=
METAR KLAM 110255Z AUTO 26013G18KT 10SM CLR M06/M21 A3007 RMK AO2 T10611208=
METAR KMEH 110256Z AUTO 00000KT 3SM -SN BR OVC038 M01/M02 A3003 RMK
      AO2 SLP197 P0000 60006 T10111022 56005=
METAR KMYP 110255Z AUTO BKN003 OVC006 M20/M23 A2986 RMK AO2 PWINO=
METAR KNUW 110256Z 15024G35KT 10SM SCT020 BKN025 OVC040 08/04 A2980
      RMK AO2 PK WND 15040/0205 SLP092 T00830044 56048 PNO=
METAR KP60 110256Z AUTO 00000KT M16/M17 A2992 RMK AO1 SLP245 T11561172
      51013=
METAR KSPD 110256Z AUTO 30011KT M02/M04 A2992 RMK AO1 SLP122 60002
      T10171039 51039=


888 
SASR31 WSSS 110300
METAR WSSS 110300Z 35010KT 9000 FEW018 FEW020TCU BKN300 30/25 Q1012
NOSIG=


149 
SAMZ40 FQMA 110300
METAR FQNP 110300Z 02008KT CAVOK 22/19 Q1014=

150 
SASG20 GOOY 110300
METAR GOBD 110300Z 01013KT CAVOK 20/15 Q1009 NOSIG=

152 
SAMG21 FMMI 110300
METAR FMMI 110300Z VRB02KT 9999 FEW017 16/15 Q1021 NOSIG=

155 
SAID33 WAJJ 110300
METAR WAJJ 110300Z 30012KT 9999 SCT013 33/23 Q1005 NOSIG=

156 
SAMA20 FIMP 110300
METAR FIMP 110300Z 07007KT 9999 FEW020 25/22 Q1017=

161 
SAAK41 KNKA 110301
SPECI PAPG 110300Z 02004KT 1 1/4SM -SN BR SCT006 OVC013 00/M01 A2899 
    RMK AO2 P0000=


162 
SAMZ40 FQMA 110300
METAR FQLC 110300Z 06008KT 9999 FEW017 18/14 Q1019=

164 
SABN31 OBBI 110300
METAR OBBI 110300Z 30011KT CAVOK 20/14 Q1021 NOSIG=

165 
SAIN90 VOCB 110300
METAR VOCB 110300Z 05005KT 2000 BR FEW008 SCT012 24/22 Q1017 NOSIG=

166 
SAVN22 SVMI 110300
METAR SVMI 110300Z 09008KT 9999 FEW016 31/25 Q1010=

239 
SAUS46 KSGX 110301 COR
MTRNXP
METAR KNXP 110256Z AUTO 28004KT 10SM CLR 07/M11 A3026 RMK AO2 SLP237 
T00671111 51013


328 
SAZZ40 KAWN 110300 RRM
METAR KAPG 110258Z AUTO 00000KT 9SM R22/5500FT BKN029 OVC036 08/03
      A3009 RMK AO2 CIG 029V036 BKN V SCT SLP193 60000 T00750034
      58001 $=
METAR KCEF 110256Z 00000KT 10SM FEW060 SCT200 M02/M04 A3015 RMK AO2A
      SLP219 T10241041 50001=
METAR KHLR 110258Z AUTO 23006KT 6SM HZ CLR 23/18 A2977 RMK AO2 SLP071
      T02290180 52022=
METAR KNRS 110256Z AUTO 00000KT 10SM CLR 09/08 A3014 RMK AO2 SLP205
      T00940078 50007 $=
METAR KNUC 110256Z AUTO 07007KT 10SM CLR 11/06 A3015 RMK AO2 SLP209
      T01110061 51011 $=
METAR KNUW 110256Z 15024G35KT 10SM SCT020 BKN025 OVC040 08/04 A2980
      RMK AO2 PK WND 15040/0205 SLP092 T00830044 56048 PNO=
METAR KSZL 110256Z 27018G24KT 10SM CLR 16/08 A2936 RMK AO2A PRESRR
      SLP943 T01590084 53009 $=
METAR LTAE 110250Z 35004KT 9999 SCT040 BKN100 03/02 Q1019 NOSIG RMK
      RWY21 01004KT 350V060=
METAR MKJS 110300Z 10008KT 9999 FEW022 26/21 Q1015=
METAR MYNN 110300Z 09005KT 9999 FEW020 25/21 A3014=
METAR OEDR 110300Z 27010KT CAVOK 14/07 Q1020=
METAR OEMA 110300Z 07003KT 6000 NSC 16/M01 Q1023 NOSIG=
METAR OEPS 110256Z 25004KT 9000 HZ SCT280 10/M00 A3034 RMK AO2A SLP259
      WND DATA ESTMD T00991003 52012=
METAR OERK 110300Z 29002KT CAVOK 09/01 Q1025 NOSIG=
METAR TBPB 110300Z 06014KT 9999 FEW022 26/22 Q1011 NOSIG=
METAR TFFF 110300Z AUTO 09007KT 9999 FEW022 SCT062 25/22 Q1013 TEMPO
      4000 SHRA SCT018TCU=
METAR TFFR 110300Z AUTO 08007KT 9999 FEW024 26/22 Q1013 TEMPO 4000
      SHRA SCT018TCU SCT025=
METAR UGKO 110300Z 08017G29KT CAVOK 10/04 Q1020 NOSIG=


334 
SASR31 WSAP 110300
METAR WSAP 110300Z 04013KT 9999 
SCT018 FEW020TCU BKN300 30/24 Q1012=

337 
SAIN90 VECC 110300
METAR VECC 110300Z 00000KT 1000 R01R/1300 BR NSC 23/21 Q1018 NOSIG=

542 
SAKA31 PTPN 110300
METAR PTPN 110258Z 09010KT 15SM BKN018TCU OVC300 31/25 A2973
RMK TCU SE-S AND W LAST


723 
SPCN47 CWAO 110301
SPECI CYWA 110301Z AUTO 11004KT 080V140 9SM BKN010 OVC017 M02/M04 A3002 RMK SLP174=


258 
SAHW31 KMSC 110301
METAR PHSF 110258Z AUTO 24004KT 10SM CLR 19/05 A3031 RMK AO2 PK WND
      12028/02 SLP146 T01930053 53008 $=
METAR PGWT 110254Z 08014KT 7SM FEW017 BKN150 29/24 A2981
=


272 
SAUS41 KPHI 110301
MTRNEL
METAR KNEL 110300Z AUTO 00000KT OVC050 06/03 A3011 RMK AO2 SLP196 
T00560028 58009 $


304 
SAUS46 KLOX 110301 COR
MTRNSI
METAR KNSI 110253Z AUTO 32007KT 10SM CLR 08/07 A3015 RMK AO2 SLP208 
T00780067 51016 $


360 
SPCN31 CWAO 110301
SPECI CYQG 110301Z AUTO 09008KT 310V120 1 1/4SM RA BR OVC016 07/07 A2969 RMK VIS VRB 3/4-1 1/2 SLP061=


363 
SPCN42 CWAO 110301
SPECI CYXS 110301Z AUTO 18028G36KT 5SM -SN CLR M02/M07 A2912 RMK PRESFR SLP893=


384 
SAUS41 RJOI 110301
RR7XXF
.A RJOI 1211 DH0300/PPH 0.00


484 
SAUS70 KWBC 110300 RRR
METAR
KTIF 110255Z AUTO 32010KT 10SM BKN070 M05/M06 A2985 RMK AO2
     T10471058=
KTMA 110255Z AUTO 19003KT 20/19 A3010 RMK AO2 T01950188 PWINO=
KTOC 110255Z AUTO 00000KT 1/2SM -RA OVC001 10/09 A3010 RMK AO2
     T00960088=
KTQH 110255Z AUTO 22010KT 10SM BKN048 BKN070 21/09 A2956 RMK
     AO2=
KTQK 110255Z AUTO 33014KT 10SM SCT120 M02/M07 A2990 RMK AO2
     T10181070=
KTVI 110255Z AUTO 21004KT 4SM BR OVC003 19/18 A3012 RMK AO2=
KTVK 110255Z AUTO 28011KT 1/2SM FG OVC001 07/07 A2932 RMK AO2=
KTVL 110253Z AUTO 19003KT 10SM CLR M07/M09 A3015 RMK AO2 SLP267
     I1000 I3001 T10721094 53008=
KUVA 110255Z AUTO 03008KT 10SM CLR 19/16 A2981 RMK AO2
     T01860163=
KVHN 110255Z AUTO 29008KT 10SM CLR 13/03 A3008 RMK AO2
     T01290030=
KVPC 110255Z AUTO 11005KT 1 3/4SM BR OVC003 12/12 A3004 RMK
     AO2=
KVWU 110255Z AUTO 00000KT 10SM CLR M06/M08 A2973 RMK AO2=
KW43 110255Z AUTO 21010KT 10SM CLR M07/M11 A2984 RMK AO2=
KW99 110255Z AUTO 00000KT 10SM SCT070 SCT095 BKN110 08/03 A3002
     RMK AO2 T00790025=
KWDR 110255Z AUTO 00000KT 1/4SM FG OVC003 10/09 A3009 RMK AO2=
KWWR 110255Z AUTO 31017G26KT 10SM BKN120 03/M03 A2989 RMK AO2=
KX26 110255Z AUTO 00000KT 10SM CLR 19/18 A3014 RMK AO2
     T01870179=
KXLL 110255Z AUTO 00000KT 10SM OVC048 06/01 A3013 RMK AO2=
KZPH 110255Z AUTO 10SM SCT046 21/19 A3014 RMK A02 T02130190=
PAAD 110255Z AUTO 25014KT 1 1/4SM -SN SCT035 OVC060 M20/M22 A2941
     RMK AO2 T12051225=
PAAD 110255Z AUTO 25014KT 1 1/4SM -SN SCT035 OVC060 M20/M22 A2941
     RMK AO2 T12051225=
KBYS 110258Z AUTO 32006KT 10SM CLR 04/M11 A3021 RMK AO2 SLP238
     T00421115 52012 $=
KFBR 110255Z AUTO 25014KT 10SM CLR M11/M14 A3009 RMK AO2
     T11101138=
KIWA 110255Z VRB04KT 10SM CLR 13/07 A3012=
KMCE 110253Z AUTO 03003KT 10SM CLR 08/03 A3023 RMK AO2 SLP239
     T00780028 51016=
KS33 110255Z AUTO 17008KT 10SM OVC090 04/M03 A3007 RMK AO2=
KTFP 110255Z AUTO 20012G16KT 7SM SCT006 24/23 A2979 RMK AO2
     T02430230=
KTYL 110255Z AUTO 02003KT 10SM CLR M01/M08 A3018 RMK AO2=
K6S8 110255Z AUTO RMK A01 Choteau=
K4I3 110255Z AUTO 14011KT 7SM DZ BKN009 OVC015 11/10 A2978 RMK AO2
     P0005=
KAEL 110255Z AUTO 03018G24KT 1 3/4SM -SN OVC006 M02/M02 A2947 RMK
     AO2=
KALN 110250Z 26013G24KT 6SM +TSRA SCT016 BKN037 17/17 A2946 RMK
     OCNL LTGICCG VC TSB19 TS VC MOV NE=
KATW 110245Z 06019G25KT 3SM RA OVC004 01/M01 A2945=
KDLZ 110255Z AUTO 16010G15KT 5SM -RA OVC007 11/10 A2975 RMK AO2
     P0002=
KISP 110256Z 00000KT 10SM SCT065 SCT250 03/03 A3013 RMK AO2 SLP202
     T00330033 58004=
KLVN 110256Z AUTO RMK AO2 PWINO=
KMCD 110255Z AUTO 11013G25KT 10SM OVC018 02/M02 A2976 RMK AO2
     T00241016=
KMWC 110255Z AUTO 04007KT 1 3/4SM -RA OVC004 04/02 A2942 RMK AO2
     P0010=
KOQN 110255Z AUTO 00000KT 10SM BKN042 BKN075 06/02 A3010 RMK
     AO2=
KTIF 110255Z AUTO 32010KT 10SM BKN070 M05/M06 A2985 RMK AO2
     T10471058=
KTVK 110255Z AUTO 28011KT 1/2SM FG OVC001 07/07 A2932 RMK AO2=
KDVO 110255Z AUTO 00000KT 10SM CLR 06/02 A3024 RMK AO2=
KE42 110255Z AUTO 35017KT 3 1/2SM -SN SCT014 BKN020 OVC029 01/M02
     A2994 RMK AO2 T00141016=
KFMM 110255Z AUTO 34017KT 10SM CLR M05/M11 A2992 RMK AO2=
KGCD 110255Z AUTO 08006G14KT 10SM OVC050 00/M04 A3009 RMK AO2
     T10021042=
KGNC 110255Z AUTO 25012KT 10SM CLR 13/01 A2996 RMK AO2
     T01330010=
KT20 110255Z AUTO 17005KT 7SM OVC010 24/23 A2979 RMK AO2
     T02370230=
KT41 110255Z AUTO 19011G19KT 7SM BKN011 OVC017 25/23 A2984 RMK AO2
     T02460229=
KT74 110255Z AUTO 18009KT 10SM CLR 23/21 A2978 RMK AO2
     T02280210=


486 
SPCN31 KWBC 110302
SPECI
CYQG 110301Z AUTO 09008KT 310V120 1 1/4SM RA BR OVC016 07/07 A2969
RMK VIS VRB 3/4-1 1/2 SLP061=


487 
SAUS70 KWBC 110300 RRQ
METAR
KMRH 110258Z AUTO 17010KT 10SM BKN075 19/17 A3014 RMK AO2 SLP206
     60000 I1000 I3/// T01940167 58002=
KMWA 110255Z AUTO 19012KT 10SM SCT025 BKN040 OVC050 20/19 A2953
     RMK AO2 T02020187=
KMWO 110255Z AUTO 21010G15KT 5SM HZ OVC005 15/ A2971 RMK AO2 LTG
     DSNT SW AND W P0001 T0146//// 60003=
KMYP 110255Z AUTO BKN003 OVC006 M20/M23 A2986 RMK AO2 PWINO=
KOBE 110255Z AUTO 00000KT 8SM CLR 20/20 A3013 RMK AO2=
KOGA 110255Z AUTO 32009KT 4SM UP BKN016 BKN023 OVC039 M02/M03
     A2988 RMK AO2 T10201035=
KOGS 110255Z AUTO 06004KT 8SM BKN041 BKN110 M01/M02 A3004 RMK
     AO2=
KOKM 110255Z AUTO 31018G28KT 10SM BKN048 OVC110 14/01 A2965 RMK
     AO2 T01360005=
KOKZ 110255Z AUTO 13006KT 1 1/2SM BR OVC003 15/14 A3009 RMK AO2
     T01460141=
KONL 110255Z AUTO 32017G22KT BKN007 BKN011 OVC022 M02/M04 A2981
     RMK AO2 T10251037 PWINO=
KONP 110255Z AUTO 18011G18KT 10SM SCT022 BKN033 OVC049 07/06 A3009
     RMK AO2=
KOPN 110255Z AUTO 17007KT 1/4SM FG OVC003 18/18 A3008 RMK AO2=
KOSA 110255Z AUTO 20014KT 10SM CLR 24/19 A2969 RMK AO2
     T02440194=
KOWP 110255Z AUTO 30012G23KT 10SM SCT110 11/01 A2968 RMK AO2
     T01070005 PWINO=
KOYM 110255Z AUTO 13008KT 10SM SCT032 BKN040 BKN120 05/01 A2995
     RMK AO2 PWINO=
KOZA 110255Z AUTO 32009KT 10SM CLR 19/02 A2992 RMK AO2=
KPBX 110255Z AUTO 18007KT 140V200 10SM BKN046 BKN050 BKN080 15/15
     A2989 RMK AO2 T01510151=
KPEQ 110255Z AUTO 28015KT CLR 17/02 A2996 RMK AO2 T01680018
     PWINO=
KPLU 110255Z AUTO 18010KT 150V230 10SM FEW055 OVC070 08/03 A2990
     RMK AO2=
KPMU 110255Z AUTO 20013G20KT 10SM SCT033 BKN043 OVC075 25/19 A2973
     RMK AO2=
KPMV 110255Z AUTO 31017G20KT 10SM -SN BKN007 OVC013 00/M01 A2954
     RMK AO2 T00001008=
KPNT 110255Z AUTO 17020G31KT -RA BKN005 BKN033 OVC041 16/15 A2938
     RMK AO2 LTG DSNT ALQS P0012 60016 T01550152=
KPOY 110255Z AUTO 25011KT 10SM CLR M07/M19 A2981 RMK AO2=
KPPA 110255Z AUTO 34013G18KT 10SM SCT100 04/M03 A2992 RMK AO2
     T00401033=
KPRG 110255Z AUTO 17021G30KT 7SM OVC005 17/17 A2948 RMK AO2 LTG
     DSNT W AND NW T01660166=
KPSO 110255Z AUTO 00000KT 10SM CLR M14/M16 A3005 RMK AO2
     T11431156=
KPUJ 110255Z AUTO 14004KT 1/4SM -RA OVC002 13/13 A3003 RMK AO2=
KPVW 110255Z AUTO 30017G22KT 10SM CLR 11/M08 A2989 RMK AO2
     T01101085=
KRAS 110255Z AUTO 17009KT 2 1/2SM BR SCT008 SCT018 23/22 A2982 RMK
     AO2 T02270220=
KRBO 110255Z AUTO 16008KT 10SM CLR 25/23 A2979 RMK AO2
     T02540226=
KRCV 110255Z AUTO 28010G16KT 10SM CLR M10/M21 A3000 RMK AO2
     T11031209=
KRQO 110255Z AUTO 34025G29KT 10SM OVC075 07/M02 A2980 RMK AO2
     T00711017=
KRVJ 110255Z AUTO 15007KT 7SM CLR 17/17 A3012 RMK AO2
     T01750169=
KRWV 110255Z AUTO 19009KT 10SM BKN014 A2979 RMK AO2=
KSBS 110255Z AUTO 27008KT 7SM BKN030 OVC039 M10/M12 A3002 RMK AO1
     T10961117=
KSEF 110255Z AUTO 09003KT 10SM CLR 21/20 A3014 RMK AO2
     T02110200=
KSFF 110253Z COR 20004KT 10SM SCT035 OVC070 02/M01 A2999 RMK AO2
     SLP171 T00171011 58006=
KSJN 110254Z AUTO 31003KT 10SM CLR M02/M07 A3015 RMK AO2 SLP208
     T10171067 53031=
KSME 110255Z AUTO 19008G15KT 160V230 10SM OVC014 16/15 A2983 RMK
     AO2 LTG DSNT N AND NW=
KT20 110255Z AUTO 17005KT 7SM OVC010 24/23 A2979 RMK AO2
     T02370230=
KT35 110255Z AUTO 19010G17KT 10SM CLR 24/21 A2977 RMK AO2
     T02360211=
KT41 110255Z AUTO 19011G19KT 7SM BKN011 OVC017 25/23 A2984 RMK AO2
     T02460229=
KT74 110255Z AUTO 18009KT 10SM CLR 23/21 A2978 RMK AO2
     T02280210=
KTEX 110255Z AUTO 00000KT 10SM SCT025 BKN030 BKN036 M13/M15 A3006
     RMK AO2=


489 
SPUS70 KWBC 110302
SPECI
KASX 110258Z AUTO 01005KT 3/4SM -SN BR VV014 M02/M03 A2974 RMK AO2
     P0000 T10171033=
KBPT 110258Z 18012G20KT 9SM FEW009 FEW023 OVC044 24/22 A2985 RMK
     AO2 T02390222=
KDEC 110258Z 18015G25KT 2 1/2SM VCTS +RA BR SCT006 BKN012 OVC039
     17/17 A2942 RMK AO2 LTG DSNT SW-N P0004 T01720172=
KHQM 110258Z AUTO 21021G28KT 2 1/2SM RA BKN013 BKN018 OVC023 10/07
     A2987 RMK AO2 PK WND 20028/0257 P0002 T01000072=
KECP 110259Z 15009KT 1SM R16/P6000FT BR OVC002 22/22 A3007 RMK AO2
     T02170217 $=
KMVY 110259Z AUTO 00000KT 2SM R24/1000V1800FT BR BKN003 OVC070
     01/01 A3016 RMK AO2 T00060006=
PAPG 110300Z 02004KT 1 1/4SM -SN BR SCT006 OVC013 00/M01 A2899 RMK
     AO2 P0000=


490 
SAXX60 KWBC 110300 RRF
METAR
KDLF 110256Z AUTO 03003KT 10SM BKN140 19/13 A2979 RMK AO2 SLP080
     T01930130 52024 $=
KFHU 110258Z AUTO 28007KT 10SM CLR 06/03 A3014 RMK AO2 SLP188
     T00550028 52015=
KGRK 110256Z AUTO 22007KT 10SM CLR 22/18 A2975 RMK AO2 SLP066
     T02200176 52021=
KNJK 110256Z AUTO 03005KT 10SM CLR 13/03 A3017 RMK AO2 SLP232
     T01330028 51019 $=
KSKA 110258Z 18010KT 10SM CLR 00/00 A2993 RMK AO2A SLP163 60000
     T00020001 58011 $=
KSKF 110256Z AUTO 34005KT 10SM CLR 20/18 A2976 RMK AO2 SLP072
     T02020176 52015 $=
KVBG 110258Z AUTO 36007KT 10SM CLR 10/06 A3017 RMK AO2 SLP221
     T00990057 53010 PNO $=
KEUF 110258Z AUTO 19004KT 10SM FEW012 BKN020 21/19 A3005 RMK AO2
     SLP174 T02110194 50005 $ NN=
KNOZ 110259Z AUTO 36010KT 10SM CLR 16/M01 A3014 RMK AO2 SLP156
     T01561006 53015 $=
KNGU 110259Z 00000KT 5SM BR SCT009 BKN023 OVC029 12/10 A3012 RMK
     AO2 RAB43E51 SLP198 P0000 60000 T01170100 58009 $=
RODE 110259Z AUTO 06009KT 10SM FEW030 OVC060 23/16 A3024 RMK AO2
     SLP281 T02330156 58008 PWINO $=
KADW 110256Z AUTO 00000KT 10SM OVC021 08/07 A3006 RMK AO2 CIG 020
     RWY19R SLP188 60001 T00810066 58002 $=
KOFF 110256Z 33012KT 3SM -SN BKN010 00/M02 A2957 RMK AO2A SNE0156
     SLP026 60002 T00001022 53017 PWINO PNO FZRANO TSNO VISNO
     RWY12 CHINO RWY12 $=
KWRI 110256Z AUTO 00000KT 10SM OVC050 06/03 A3013 RMK AO2 SLP203
     T00610029 55005 $=
KNID 110256Z AUTO 15005KT CLR 05/M09 A3021 RMK AO2 SLP245
     T00501089 53017 $=
KNQI 110256Z AUTO 16006KT 10SM CLR 24/22 A2978 RMK AO2 SLP081
     T02440217 51021 $=
KNYL 110257Z 35008KT 7SM FEW150 BKN200 16/M03 A3014 RMK AO2 SLP206
     T01611028 52018=
KHEY 110258Z AUTO 19006KT 10SM OVC008 21/21 A3004 RMK AO2 SLP173
     T02140212 52006=
KHUA 110258Z AUTO 20016G20KT 10SM BKN013 BKN021 21/20 A2986 RMK
     AO2 RAB14E25 SLP110 P0000 60000 T02100201 58013=
KLOR 110258Z AUTO 18007KT 10SM OVC008 22/21 A3005 RMK AO2 SLP158
     T02180206 52006=
KNID 110256Z AUTO 15005KT CLR 05/M09 A3021 RMK AO2 SLP245
     T00501089 53017 $=
KNMM 110256Z AUTO 18007KT 10SM SCT017 BKN022 OVC043 22/21 A2993
     RMK AO2 SLP141 T02220206 50000=
KNQI 110256Z AUTO 16006KT 10SM CLR 24/22 A2978 RMK AO2 SLP081
     T02440217 51021 $=
KNYL 110257Z 35008KT 7SM FEW150 BKN200 16/M03 A3014 RMK AO2 SLP206
     T01611028 52018=
KOFF 110256Z 33012KT 3SM -SN BKN010 00/M02 A2957 RMK AO2A SNE0156
     SLP026 60002 T00001022 53017 PWINO PNO FZRANO TSNO VISNO
     RWY12 CHINO RWY12 $=
KSKA 110258Z 18010KT 10SM CLR 00/00 A2993 RMK AO2A SLP163 60000
     T00020001 58011 $=
KSXS 110258Z AUTO 19009KT 10SM OVC008 22/21 A3004 RMK AO2 SLP172
     T02160207 50004=
KVBG 110258Z AUTO 36007KT 10SM CLR 10/06 A3017 RMK AO2 SLP221
     T00990057 53010 PNO $=
PAED 110256Z 00000KT 10SM FEW010 OVC033 M05/M12 A2880 RMK AO2A
     SLP751 T10501120 52028 $=
KNGP 110256Z AUTO 18011G21KT 7SM FEW009 BKN018 25/23 A2979 RMK AO2
     SLP087 T02500233 51019 $=
KNUC 110256Z AUTO 07007KT 10SM CLR 11/06 A3015 RMK AO2 SLP209
     T01110061 51011 $=
KNXF 110256Z AUTO 03005KT 10SM CLR A3014 RMK AO2 SLPNO 51007 $=
KGTB 110256Z AUTO 14010KT 10SM OVC040 02/M02 A3003 RMK AO2 SLP176
     T00191017 55000=
KNGP 110256Z AUTO 18011G21KT 7SM FEW009 BKN018 25/23 A2979 RMK AO2
     SLP087 T02500233 51019 $=
KNID 110256Z AUTO 15005KT CLR 05/M09 A3021 RMK AO2 SLP245
     T00501089 53017 $=
KNMM 110256Z AUTO 18007KT 10SM SCT017 BKN022 OVC043 22/21 A2993
     RMK AO2 SLP141 T02220206 50000=
KNQI 110256Z AUTO 16006KT 10SM CLR 24/22 A2978 RMK AO2 SLP081
     T02440217 51021 $=


491 
SAUS80 KWBC 110300 RRB
METAR
K2I0 110255Z AUTO 19016G23KT 10SM -RA SCT021 BKN029 BKN040 21/19
     A2964 RMK AO2 P0001 60054 T02050190=
K48A 110255Z AUTO 12003KT 1/4SM FG OVC001 17/17 A3009 RMK AO2
     T0170////=
K4BM 110255Z AUTO 27009G23KT 10SM CLR M18/M23 A2980 RMK AO2=
K9V9 110255Z AUTO 29005KT 10SM SCT027 BKN036 OVC055 M02/M02 A2983
     RMK AO2 T10171017=
KCTY 110255Z AUTO 00000KT 3SM BR SCT001 SCT120 17/17 A3012 RMK AO2
     T01720171=
KEHA 110255Z AUTO 32009KT 10SM BKN080 OVC100 00/M03 A2996 RMK AO2
     T10031026=
KGIC 110255Z AUTO 20017G24KT 10SM SCT080 BKN110 00/M06 A3002 RMK
     AO1=
KIZA 110255Z AUTO 08004KT 10SM CLR 07/04 A3018 RMK AO2=
KPSN 110255Z AUTO 19010KT 10SM FEW023 BKN032 BKN040 23/21 A2975
     RMK AO2=
KSOA 110255Z AUTO 00000KT 10SM CLR 17/03 A2992 RMK AO2=
KFLG 110257Z AUTO 02003KT 10SM CLR M08/M09 A3013 RMK AO2 SLP223
     T10781089 51013=
K2WX 110256Z AUTO 28008KT M07/M12 A2978 RMK AO1 SLP123 T10671122
     50005=
KD07 110256Z AUTO 28008KT M06/M07 A2981 RMK AO1 SLP134 T10561072
     50006=
KSXT 110256Z AUTO 16013KT 10SM BKN110 01/M03 A3010 RMK AO2 SLP220
     T00061033 58010=
KCBE 110255Z AUTO 00000KT 5SM -RA SCT028 SCT075 OVC090 06/03 A3007
     RMK AO2 T00560025=
KGIC 110255Z AUTO 20017G24KT 10SM SCT080 BKN110 00/M06 A3002 RMK
     AO1=
KMHS 110256Z AUTO 00000KT 8SM CLR M01/M06 A3016 RMK AO2 SLP254
     T10111061 56002=
KSOA 110255Z AUTO 00000KT 10SM CLR 17/03 A2992 RMK AO2=
KMWN 110254Z 28025KT 0SM FZFG VV000 M05/M05 RMK VRY LGT ICG=
KIZA 110255Z AUTO 08004KT 10SM CLR 07/04 A3018 RMK AO2=
KPSN 110255Z AUTO 19010KT 10SM FEW023 BKN032 BKN040 23/21 A2975
     RMK AO2=
KD07 110256Z AUTO 28008KT M06/M07 A2981 RMK AO1 SLP134 T10561072
     50006=
KGNR 110256Z AUTO 00000KT M04/M07 A3009 RMK AO1 SLP218 T10441072
     50005=
K4BM 110255Z AUTO 27009G23KT 10SM CLR M18/M23 A2980 RMK AO2=
KALK 110256Z AUTO 25008KT 10SM CLR 05/03 A3014 RMK AO2 SLP166
     T00500028 53015=
KMEH 110256Z AUTO 00000KT 3SM -SN BR OVC038 M01/M02 A3003 RMK AO2
     SLP197 P0000 60006 T10111022 56005=
KP60 110256Z AUTO 00000KT M16/M17 A2992 RMK AO1 SLP245 T11561172
     51013=
KSPD 110256Z AUTO 30011KT M02/M04 A2992 RMK AO1 SLP122 60002
     T10171039 51039=
K2WX 110256Z AUTO 28008KT M07/M12 A2978 RMK AO1 SLP123 T10671122
     50005=
KGNA 110256Z AUTO 01003KT M03/M05 A2977 RMK AO1 SLP096 T10281050
     56009=


492 
SAUS70 KWBC 110300 RRT
METAR
KPSO 110255Z AUTO 00000KT 10SM CLR M14/M16 A3005 RMK AO2
     T11431156=
KPVW 110255Z AUTO 30017G22KT 10SM CLR 11/M08 A2989 RMK AO2
     T01101085=
KRAS 110255Z AUTO 17009KT 2 1/2SM BR SCT008 SCT018 23/22 A2982 RMK
     AO2 T02270220=
KRWV 110255Z AUTO 19009KT 10SM BKN014 A2979 RMK AO2=
KSBS 110255Z AUTO 27008KT 7SM BKN030 OVC039 M10/M12 A3002 RMK AO1
     T10961117=
KSFF 110253Z COR 20004KT 10SM SCT035 OVC070 02/M01 A2999 RMK AO2
     SLP171 T00171011 58006=
KSJN 110254Z AUTO 31003KT 10SM CLR M02/M07 A3015 RMK AO2 SLP208
     T10171067 53031=
KMIV 110254Z AUTO 15004KT 9SM OVC027 08/06 A3011 RMK AO2 SLP194
     60000 T00780056 56006=
KPEO 110253Z AUTO 14006KT 10SM FEW047 03/M01 A2997 RMK AO2 SLP157
     T00281006 58015=
KTOA 110258Z 00000KT 10SM FEW040 09/06 A3016=
KGOV 110258Z AUTO 09012KT 6SM -RA BR OVC006 01/00 A2964 RMK AO2
     SNE21RAB21 SLP054 P0006 60006 T00050002 57058 $=
KAJZ 110255Z AUTO 20004KT 10SM CLR M03/M09 A3015 RMK AO2
     T10331087=
KAQO 110255Z AUTO 31008G17KT 1 1/4SM -RA HZ FEW022 SCT055 20/16
     A2980 RMK AO2 VIS 1/4V5=
KASL 110255Z AUTO 20008G14KT 10SM OVC019 23/20 A2976 RMK AO1
     T02250200=
KAUN 110255Z AUTO 00000KT 10SM 04/00 A3021 RMK A01=
KBDG 110255Z AUTO 30007KT 10SM M06/M11 A3024 RMK AO1 T10611115=
KBVS 110255Z AUTO 13011G16KT 100V170 10SM OVC021 07/04 A2980 RMK
     A01=
KCCU 110255Z AUTO 29019G31KT OVC001 M18/M22 A2977 RMK AO2
     PWINO=
KEIK 110255Z AUTO 30003KT 10SM CLR M05/M18 A2994 RMK AO2
     T10461180=
KPPA 110255Z AUTO 34013G18KT 10SM SCT100 04/M03 A2992 RMK AO2
     T00401033=
KRBO 110255Z AUTO 16008KT 10SM CLR 25/23 A2979 RMK AO2
     T02540226=
KAPG 110258Z AUTO 00000KT 9SM R22/5500FT BKN029 OVC036 08/03 A3009
     RMK AO2 CIG 029V036 BKN V SCT SLP193 60000 T00750034 58001
     $=
KCMY 110258Z AUTO 04007KT 4SM R29/4500FT UP BR BKN010 OVC014
     M01/M01 A2947 RMK AO2 UPB27 BKN V OVC SLP992 P0000 60000
     T10061013 57045 $=
KFOA 110255Z AUTO 17014KT 10SM SCT011 SCT031 18/17 A2950 RMK
     AO2=
KGOV 110258Z AUTO 09012KT 6SM -RA BR OVC006 01/00 A2964 RMK AO2
     SNE21RAB21 SLP054 P0006 60006 T00050002 57058 $=
KGPC 110255Z AUTO 15016G22KT 5SM BR OVC003 15/15 A2951 RMK AO2 LTG
     DSNT SE T01510150 60001=
KIBM 110255Z AUTO 31009KT 10SM CLR M07/M10 A2990 RMK AO2
     T10751097=
KIJX 110255Z AUTO 20013G22KT 10SM 15/15 A2937 RMK AO2 LTG DSNT E
     P0009 60014 T01460146=
KOYM 110255Z AUTO 13008KT 10SM SCT032 BKN040 BKN120 05/01 A2995
     RMK AO2 PWINO=
KPNT 110255Z AUTO 17020G31KT -RA BKN005 BKN033 OVC041 16/15 A2938
     RMK AO2 LTG DSNT ALQS P0012 60016 T01550152=
KPRG 110255Z AUTO 17021G30KT 7SM OVC005 17/17 A2948 RMK AO2 LTG
     DSNT W AND NW T01660166=
KXIF 110258Z AUTO 05003KT 10SM OVC024 06/00 A3002 RMK AO2 SLPNO
     T00620002 57011 $=
K20V 110255Z AUTO 25009KT 10SM BKN027 BKN034 BKN045 M10/M13 A3000
     RMK AO2=
K2R9 110255Z AUTO 15006KT 7SM CLR 23/22 A2979 RMK AO2
     T02310216=
K4S2 110255Z AUTO 00000KT 7SM -RA BKN042 OVC050 04/03 A3004 RMK
     AO2 P0001=
K81R 110255Z AUTO 24004KT 10SM CLR 19/05 A2982 RMK AO2
     T01860050=
KADS 110255Z AUTO 23003KT 10SM CLR 24/07 A2974 RMK AO2
     T02360070=
KAXX 110255Z AUTO 28007G17KT 10SM BKN036 OVC046 M10/M16 A2999 RMK
     AO2 T11041165=
KBBD 110255Z AUTO 32005KT 10SM 20/04 RMK AO2=
KBMC 110255Z AUTO 00000KT 10SM OVC070 M02/M10 A3021 RMK AO1
     T10221102=
KBPG 110255Z AUTO 22009KT 10SM CLR 15/00 A2990 RMK AO2
     T01501002=
KBWD 110255Z AUTO 00000KT 10SM FEW017 15/04 A2982 RMK AO1=
KC07 110255Z AUTO 29009G20KT 250V060 A2983 RMK AO2 PWINO=


493 
SAUS70 KWBC 110300 RRP
METAR
KGCD 110255Z AUTO 08006G14KT 10SM OVC050 00/M04 A3009 RMK AO2
     T10021042=
KGGP 110255Z AUTO 16021G26KT 5SM HZ OVC004 13/05 A2946 RMK AO2=
KGHG 110255Z AUTO 00000KT 10SM BKN028 OVC060 03/03 A3017 RMK
     AO2=
KGNC 110255Z AUTO 25012KT 10SM CLR 13/01 A2996 RMK AO2
     T01330010=
KGOP 110255Z AUTO 00000KT 10SM CLR 21/17 A2981 RMK AO2=
KGPC 110255Z AUTO 15016G22KT 5SM BR OVC003 15/15 A2951 RMK AO2 LTG
     DSNT SE T01510150 60001=
KGVT 110255Z AUTO 22009KT 10SM SCT049 SCT055 SCT110 23/19 A2972
     RMK AO2 TSNO T02260188=
KGWB 110255Z AUTO 14007KT 095V195 2SM BR OVC003 11/11 A2957 RMK
     AO2=
KHBV 110255Z AUTO 00000KT 7SM CLR 22/21 A2980 RMK AO2
     T02220210=
KHDE 110255Z AUTO 34018G22KT 7SM OVC014 M02/M04 A2977 RMK AO2
     T10231037=
KHHW 110255Z AUTO 21009G14KT 10SM SCT060 SCT070 SCT120 22/17 A2966
     RMK AO2=
KHII 110255Z AUTO 34011KT 10SM CLR 12/M10 A3019 RMK AO2=
KHJH 110255Z AUTO 33015G22KT 7SM -SN OVC012 M01/M02 A2968 RMK AO2
     T10071021=
KHMP 110255Z AUTO 12004KT 1/4SM FG OVC003 13/13 A3009 RMK AO2
     T01350135=
KHQU 110255Z AUTO 13004KT 3/4SM BR OVC002 12/12 A3010 RMK AO2
     T01240123=
KHZR 110255Z AUTO 18007KT 10SM OVC020 24/22 A2992 RMK AO2
     T02360215=
KI63 110255Z AUTO 19010KT 10SM CLR 14/14 A2934 RMK AO2 LTG DSNT E
     60006 T01370137=
KIBM 110255Z AUTO 31009KT 10SM CLR M07/M10 A2990 RMK AO2
     T10751097=
KIIY 110255Z AUTO 11003KT 1/2SM FG OVC003 11/11 A3010 RMK AO2
     T01140113=
KIJX 110255Z AUTO 20013G22KT 10SM 15/15 A2937 RMK AO2 LTG DSNT E
     P0009 60014 T01460146=
KIML 110253Z AUTO 32006KT 8SM -SN OVC012 M03/M05 A2988 RMK AO2
     SNB45 SLP146 P0000 60000 T10281050 53035=
KJAS 110255Z AUTO 20014KT 10SM SCT020 BKN026 OVC065 24/23 A2982
     RMK AO2=
KJCA 110255Z AUTO 08004KT 1/2SM FG OVC003 10/ A3009 RMK AO2
     T0097//// 60001=
KJDD 110255Z AUTO 20012G17KT 10SM CLR 24/20 A2971 RMK AO2=
KJOT 110255Z AUTO 18010G16KT 3SM +RA OVC004 15/14 A2936 RMK AO2
     P0008 60014 T01470144=
KJYR 110255Z AUTO 33015KT 2SM -SN BR BKN003 OVC009 M02/M02 A2968
     RMK AO2=
KJZP 110255Z AUTO 00000KT 1/4SM FG OVC003 11/11 A3009 RMK AO2
     T01120112=
KK88 110255Z AUTO 29021G29KT 10SM SCT120 05/00 A2960 RMK AO1
     T00461001=
KL35 110255Z AUTO 00000KT 7SM CLR M03/M05 A3016 RMK AO2=
KLAM 110255Z AUTO 26013G18KT 10SM CLR M06/M21 A3007 RMK AO2
     T10611208=
KLCK 110255Z AUTO 16009KT 10SM OVC011 13/12 A2977 RMK AO2
     T01320120=
KLGC 110255Z AUTO 18006KT 10SM OVC008 20/20 A3004 RMK AO2
     T02030196=
KLOM 110255Z AUTO 00000KT 10SM OVC046 06/03 A3012 RMK AO2
     T00590034=
KLUL 110255Z AUTO 19010G19KT 10SM OVC015 23/21 A2994 RMK A02
     T02280208=
KLXN 110255Z AUTO 34016KT 10SM UP SCT027 SCT036 BKN065 M03/M05
     A2979 RMK AO2 T10261047=
KLYO 110255Z AUTO 30017G26KT 10SM BKN018 BKN120 M01/M04 A2977 RMK
     AO2 T10071043=
KMDQ 110255Z AUTO 17014G19KT 10SM OVC012 20/19 A2987 RMK A02
     T02020187=
KMEI 110258Z 19012KT 10SM BKN015 OVC022 23/20 A2993 RMK AO2 SLP131
     I1000 I3/// T02330200 50009=
KMEZ 110255Z AUTO 22009KT 184V254 10SM CLR 23/18 A2963 RMK AO2 LTG
     DSNT E=
KMGR 110255Z AUTO 20006KT 5SM BR OVC004 19/18 A3011 RMK AO2=
KMHP 110255Z AUTO 13004KT 4SM HZ CLR 16/ A3011 RMK AO2
     T0163////=
KMLE 110255Z AUTO 32012G18KT 3SM -SN OVC008 00/M01 A2958 RMK AO2
     T00031015=
KMQB 110255Z AUTO 19014G18KT 10SM CLR 15/14 A2933 RMK AO2
     T01520144=
KMQI 110255Z AUTO 18007KT 10SM OVC032 15/14 A3014 RMK AO2
     T01540138=
KMQS 110255Z AUTO 00000KT 10SM SCT036 06/02 A3009 RMK AO2=


495 
SAUS70 KWBC 110300 RRU
METAR
KJDD 110255Z AUTO 20012G17KT 10SM CLR 24/20 A2971 RMK AO2=
KLAM 110255Z AUTO 26013G18KT 10SM CLR M06/M21 A3007 RMK AO2
     T10611208=
KMYP 110255Z AUTO BKN003 OVC006 M20/M23 A2986 RMK AO2 PWINO=
KAAA 110255Z AUTO 22007G19KT 190V260 2 1/2SM /VCTSRA SCT011 BKN030
     OVC050 16/16 A2943 RMK AO2 LTG DSNT NE THRU S P0032 60033
     T01580156=
KAFK 110255Z AUTO 32013G20KT 10SM BKN010 OVC015 00/M02 A2955 RMK
     AO2 T00001016=
KAJG 110255Z AUTO 15016G21KT 10SM BKN008 BKN012 BKN046 19/17 A2953
     RMK AO2 LTG DSNT SE AND S T01850173=
KAUH 110255Z AUTO 34022G28KT 2 1/2SM -SN OVC009 M01/M03 A2972 RMK
     AO2 T10151031=
KBIE 110255Z AUTO 33020G26KT 10SM OVC013 00/M02 A2963 RMK AO2
     T00001016=
KJOT 110255Z AUTO 18010G16KT 3SM +RA OVC004 15/14 A2936 RMK AO2
     P0008 60014 T01470144=
KJYR 110255Z AUTO 33015KT 2SM -SN BR BKN003 OVC009 M02/M02 A2968
     RMK AO2=
KLCK 110255Z AUTO 16009KT 10SM OVC011 13/12 A2977 RMK AO2
     T01320120=
KLXN 110255Z AUTO 34016KT 10SM UP SCT027 SCT036 BKN065 M03/M05
     A2979 RMK AO2 T10261047=
KMLE 110255Z AUTO 32012G18KT 3SM -SN OVC008 00/M01 A2958 RMK AO2
     T00031015=
KMQB 110255Z AUTO 19014G18KT 10SM CLR 15/14 A2933 RMK AO2
     T01520144=
KMWA 110255Z AUTO 19012KT 10SM SCT025 BKN040 OVC050 20/19 A2953
     RMK AO2 T02020187=
KMWO 110255Z AUTO 21010G15KT 5SM HZ OVC005 15/ A2971 RMK AO2 LTG
     DSNT SW AND W P0001 T0146//// 60003=
KAPG 110258Z AUTO 00000KT 9SM R22/5500FT BKN029 OVC036 08/03 A3009
     RMK AO2 CIG 029V036 BKN V SCT SLP193 60000 T00750034 58001
     $=
KOAR 110255Z AUTO 00000KT 10SM CLR 04/00 A3023 RMK AO2=


496 
SAUS80 KWBC 110302
METAR
KM25 110315Z AUTO 10SM SCT095 21/19 A2961 RMK AO2 PWINO=


497 
SAXX60 KWBC 110300 RRH
METAR
KNEL 110300Z AUTO 00000KT OVC050 06/03 A3011 RMK AO2 SLP196
     T00560028 58009 $=


498 
SAUS80 KWBC 110300 CCB
METAR
KMHS 110256Z AUTO 00000KT 8SM CLR M01/M06 A3016 RMK AO2 SLP254
     T10111061 56002=
KP58 110255Z AUTO 11016KT 03/03 A2971 RMK AO1 PRESFR SLP070 P0001
     60001 T00330028 58052=
KP28 110256Z AUTO 32019G30KT 02/M04 A2982 RMK AO1 PK WND
     31032/0213 SLP103 T00171044 53069 $=
KSDB 110253Z AUTO 06016KT 10SM CLR 04/M04 A3017 RMK AO2 SLP209
     T00441039 53010=


500 
SAUS70 KWBC 110300 RRO
METAR
KBIJ 110255Z AUTO 19005KT 10SM OVC006 20/19 A3008 RMK AO2=
KBJI 110255Z AUTO 00000KT 10SM CLR M06/M09 A2973 RMK AO2
     T10621086=
KBMC 110255Z AUTO 00000KT 10SM OVC070 M02/M10 A3021 RMK AO1
     T10221102=
KBPG 110255Z AUTO 22009KT 10SM CLR 15/00 A2990 RMK AO2
     T01501002=
KBQK 110255Z AUTO 15005KT 7SM BR CLR 18/18 A3013 RMK AO2
     T01820180=
KBVN 110255Z AUTO 34017G21KT 4SM -SN SCT011 BKN016 OVC028 M02/M03
     A2974 RMK AO2 60001 T10201027=
KBVS 110255Z AUTO 13011G16KT 100V170 10SM OVC021 07/04 A2980 RMK
     A01=
KBWD 110255Z AUTO 00000KT 10SM FEW017 15/04 A2982 RMK AO1=
KC07 110255Z AUTO 29009G20KT 250V060 A2983 RMK AO2 PWINO=
KC65 110255Z AUTO 16017KT 4SM BR OVC004 13/13 A2942 RMK A01=
KCCO 110255Z AUTO 17004KT 2SM BR OVC006 18/17 A3005 RMK AO2 VIS 1
     3/4V3 T01780173=
KCCU 110255Z AUTO 29019G31KT OVC001 M18/M22 A2977 RMK AO2
     PWINO=
KCDD 110254Z AUTO 00000KT 10SM BKN110 M09/M11 A2977 RMK AO2
     TSNO=
KCEY 110255Z AUTO 16011G22KT 10SM SCT020 SCT029 BKN090 21/20 A2962
     RMK AO1=
KCMD 110255Z AUTO 19017G24KT 10SM BKN012 OVC018 21/20 A2990 RMK
     AO2=
KCNI 110255Z AUTO 00000KT 1/4SM FG OVC003 11/11 A3008 RMK AO2=
KCOM 110255Z AUTO 29008KT 10SM CLR 21/03 A2983 RMK AO2
     T02110031=
KCTJ 110255Z AUTO 18003KT 2SM BR OVC001 17/17 A3006 RMK AO2
     T01720172=
KDKB 110255Z AUTO 09004KT 1 3/4SM UP OVC001 07/07 A2934 RMK AO2
     LTG DSNT W P0017 60032 T00670066=
KDKR 110255Z AUTO 17009KT 10SM FEW020 BKN036 24/22 A2977 RMK
     AO2=
KDNN 110255Z AUTO 00000KT 7SM OVC007 14/13 A3001 RMK AO2=
KDRI 110255Z AUTO 18013KT 10SM OVC016 24/22 A2987 RMK AO2
     T02430216=
KDUA 110255Z AUTO 25007KT 7SM OVC039 22/07 A2968 RMK AO2=
KDUC 110255Z AUTO 32024G29KT 10SM SCT048 SCT120 20/01 A2974 RMK
     AO2 T01960010=
KDVO 110255Z AUTO 00000KT 10SM CLR 06/02 A3024 RMK AO2=
KDZJ 110255Z AUTO 16006KT 10SM OVC011 17/15 A3005 RMK AO2
     T01660150=
KE16 110255Z AUTO 30003KT 10SM CLR 07/00 A3026 RMK AO2 PWINO
     PNO=
KE38 110255Z AUTO 28007KT 10SM CLR 16/01 A3006 RMK AO2
     T01590011=
KE41 110255Z AUTO 28005KT 10SM CLR 17/01 A2991 RMK AO2
     T01660015=
KE42 110255Z AUTO 35017KT 3 1/2SM -SN SCT014 BKN020 OVC029 01/M02
     A2994 RMK AO2 T00141016=
KECS 110255Z AUTO 01007KT 10SM CLR M12/M15 A2989 RMK AO2=
KECU 110255Z AUTO 00000KT 10SM FEW120 20/05 A2991 RMK AO2=
KEHO 110255Z AUTO 00000KT 1/2SM FG OVC002 10/10 A3011 RMK AO2
     T00950095=
KEIK 110255Z AUTO 30003KT 10SM CLR M05/M18 A2994 RMK AO2
     T10461180=
KENL 110255Z AUTO 18013G22KT 10SM BKN028 OVC033 20/18 A2947 RMK
     AO2 T02030183=
KEQA 110255Z AUTO 30020G27KT 10SM CLR 02/M03 A2969 RMK AO2=
KERV 110255Z AUTO 00000KT 7SM CLR 16/15 A2984 RMK AO2
     T01620146=
KETC 110255Z AUTO 00000KT 1/2SM FG OVC002 10/10 A3013 RMK AO2
     T01010098=
KEXX 110255Z AUTO 15003KT 1/2SM FG OVC002 11/11 A3009 RMK AO2
     T01060106=
KEZM 110255Z AUTO 00000KT 1/4SM FG OVC002 17/17 A3010 RMK AO2
     T01710170=
KEZZ 110255Z AUTO 29020G32KT 10SM OVC014 04/02 A2944 RMK AO2
     T00420016=
KF00 110255Z AUTO 20009KT 10SM BKN037 BKN043 BKN120 22/17 A2969
     RMK AO2 T02180165=
KF17 110255Z AUTO 17012G16KT 10SM BKN020 OVC027 25/21 A2979 RMK
     AO2=
KFHB 110255Z AUTO 16008KT 7SM CLR 20/19 A3014 RMK AO2
     T01990189=
KFKR 110255Z AUTO 15023KT 2 1/2SM BR OVC003 14/14 A2946 RMK
     AO2=
KFMM 110255Z AUTO 34017KT 10SM CLR M05/M11 A2992 RMK AO2=
KFOA 110255Z AUTO 17014KT 10SM SCT011 SCT031 18/17 A2950 RMK
     AO2=
KFPY 110255Z AUTO 00000KT 1/4SM FG OVC003 18/17 A3013 RMK AO2
     T01770172=


501 
SAXX60 KWBC 110300 CCB
METAR
KNUW 110256Z 15024G35KT 10SM SCT020 BKN025 OVC040 08/04 A2980 RMK
     AO2 PK WND 15040/0205 SLP092 T00830044 56048 PNO=
KNMM 110256Z AUTO 18007KT 10SM SCT017 BKN022 OVC043 22/21 A2993
     RMK AO2 SLP141 T02220206 50000=
PHBK 110251Z AUTO 00000KT 5SM -RA OVC037 25/22 A3003 RMK AO2 RAB43
     SLP172 P0000 60000 T02500217 53001=
KNHK 110252Z 12004KT 10SM OVC036 11/08 A3008 RMK AO2 SLP186 60000
     T01060083 56007 $=
KNZY 110252Z 31003KT 10SM FEW035 12/09 A3013 RMK AO2 SLP202
     T01220089 50006=
KNMM 110256Z AUTO 18007KT 10SM SCT017 BKN022 OVC043 22/21 A2993
     RMK AO2 SLP141 T02220206 50000=
KNUW 110256Z 15024G35KT 10SM SCT020 BKN025 OVC040 08/04 A2980 RMK
     AO2 PK WND 15040/0205 SLP092 T00830044 56048 PNO=
KNXP 110256Z AUTO 28004KT 10SM CLR 07/M11 A3026 RMK AO2 SLP237
     T00671111 51013=


502 
SAUS70 KWBC 110302
METAR
KBRY 110315Z AUTO 19010G17KT 10SM OVC013 17/16 A2971 RMK AO1=


505 
SPXX60 KWBC 110302
SPECI
KNMM 110254Z AUTO 18009KT 10SM SCT017 BKN022 OVC043 22/21 A2993
     RMK AO2=
KTBN 110254Z AUTO 20003KT 10SM FEW025 17/14 A2946 RMK AO2
     DZB22E24RAB24E51DZB51E54 SLP973=
KVPS 110257Z 15010KT 5SM BR OVC005 22/21 A3004 RMK AO2A CIG
     005V007 SLP179 $=
KNMM 110254Z AUTO 18009KT 10SM SCT017 BKN022 OVC043 22/21 A2993
     RMK AO2=


506 
SAXX60 KWBC 110300 RRG
METAR
KNTU 110256Z 13003KT 9SM SCT025 BKN050 OVC190 12/09 A3010 RMK AO2
     SLP196 T01170089 58013=
KNYL 110257Z 35008KT 7SM FEW150 BKN200 16/M03 A3014 RMK AO2 SLP206
     T01611028 52018=
KOFF 110256Z 33012KT 3SM -SN BKN010 00/M02 A2957 RMK AO2A SNE0156
     SLP026 60002 T00001022 53017 PWINO PNO FZRANO TSNO VISNO
     RWY12 CHINO RWY12 $=
KSKA 110258Z 18010KT 10SM CLR 00/00 A2993 RMK AO2A SLP163 60000
     T00020001 58011 $=
KSKF 110256Z AUTO 34005KT 10SM CLR 20/18 A2976 RMK AO2 SLP072
     T02020176 52015 $=
KVBG 110258Z AUTO 36007KT 10SM CLR 10/06 A3017 RMK AO2 SLP221
     T00990057 53010 PNO $=
KVPS 110256Z 15010KT 5SM BR OVC007 22/21 A3004 RMK AO2A CIG 005
     RWY01 CIG 005 RWY12 CIG 005 RWY30 SLP179 T02180214 50007
     $=
KWRI 110256Z AUTO 00000KT 10SM OVC050 06/03 A3013 RMK AO2 SLP203
     T00610029 55005 $=
PHSF 110258Z AUTO 24004KT 10SM CLR 19/05 A3031 RMK AO2 PK WND
     12028/02 SLP146 T01930053 53008 $=
PAFR 110258Z AUTO 17006KT 10SM BKN019 OVC026 M06/M10 A2877 RMK AO2
     SLP753 T10611098 52028 PNO $=
PGUA 110256Z 10012KT 10SM FEW009 SCT016 BKN23 28/24 A2982 RMK AO2A
     RAE0159 SLP088 P0000 60001 T02760242 57021 $=
KNFL 110256Z VRB05KT 10SM CLR M01/M04 A3022 RMK AO2 SLP196
     T10111039 50004=
KNGP 110256Z AUTO 18011G21KT 7SM FEW009 BKN018 25/23 A2979 RMK AO2
     SLP087 T02500233 51019 $=
KNLC 110256Z 31007KT 10SM CLR 04/01 A3025 RMK AO2 SLP246 RH/79
     T00440011 53020=
KNRS 110256Z AUTO 00000KT 10SM CLR 09/08 A3014 RMK AO2 SLP205
     T00940078 50007 $=
KNUC 110256Z AUTO 07007KT 10SM CLR 11/06 A3015 RMK AO2 SLP209
     T01110061 51011 $=
KPOE 110258Z AUTO 19015G23KT 10SM OVC014 24/22 A2984 RMK AO2
     SLP104 50009=
KT70 110258Z AUTO 09005KT 5SM R13/5000FT HZ CLR 20/16 A2972 RMK
     AO2 SLP055 T01970155 52019 $=
KTIK 110256Z 33022G31KT 10SM SCT065 SCT250 08/M02 A2972 RMK AO2A
     PK WND 33032/50 PRESRR SLP069 T00811020 52058=
KWRB 110256Z 16005KT 5/8SM R15/3500FT BR OVC002 17/17 A3006 RMK
     AO2A SLP181 T01700170 58005=
KHLR 110258Z AUTO 23006KT 6SM HZ CLR 23/18 A2977 RMK AO2 SLP071
     T02290180 52022=
KNFL 110256Z VRB05KT 10SM CLR M01/M04 A3022 RMK AO2 SLP196
     T10111039 50004=
KNLC 110256Z 31007KT 10SM CLR 04/01 A3025 RMK AO2 SLP246 RH/79
     T00440011 53020=
KNRS 110256Z AUTO 00000KT 10SM CLR 09/08 A3014 RMK AO2 SLP205
     T00940078 50007 $=
KNRS 110256Z AUTO 00000KT 10SM CLR 09/08 A3014 RMK AO2 SLP205
     T00940078 50007 $=
KNUC 110256Z AUTO 07007KT 10SM CLR 11/06 A3015 RMK AO2 SLP209
     T01110061 51011 $=
KSEQ 110258Z AUTO 17005KT 9SM R13/5500FT CLR 22/21 A2982 RMK AO2
     SLP095 60000 T02180212 52022=
KT70 110258Z AUTO 09005KT 5SM R13/5000FT HZ CLR 20/16 A2972 RMK
     AO2 SLP055 T01970155 52019 $=
KCEF 110256Z 00000KT 10SM FEW060 SCT200 M02/M04 A3015 RMK AO2A
     SLP219 T10241041 50001=
KNUW 110256Z 15024G35KT 10SM SCT020 BKN025 OVC040 08/04 A2980 RMK
     AO2 PK WND 15040/0205 SLP092 T00830044 56048 PNO=
KCEF 110256Z 00000KT 10SM FEW060 SCT200 M02/M04 A3015 RMK AO2A
     SLP219 T10241041 50001=
KHLR 110258Z AUTO 23006KT 6SM HZ CLR 23/18 A2977 RMK AO2 SLP071
     T02290180 52022=
KNRS 110256Z AUTO 00000KT 10SM CLR 09/08 A3014 RMK AO2 SLP205
     T00940078 50007 $=
KNUC 110256Z AUTO 07007KT 10SM CLR 11/06 A3015 RMK AO2 SLP209
     T01110061 51011 $=
KNUW 110256Z 15024G35KT 10SM SCT020 BKN025 OVC040 08/04 A2980 RMK
     AO2 PK WND 15040/0205 SLP092 T00830044 56048 PNO=
KSZL 110256Z 27018G24KT 10SM CLR 16/08 A2936 RMK AO2A PRESRR
     SLP943 T01590084 53009 $=
PHSF 110258Z AUTO 24004KT 10SM CLR 19/05 A3031 RMK AO2 PK WND
     12028/02 SLP146 T01930053 53008 $=


509 
SAUS70 KWBC 110300 RRS
METAR
KTEX 110255Z AUTO 00000KT 10SM SCT025 BKN030 BKN036 M13/M15 A3006
     RMK AO2=
KTVL 110253Z AUTO 19003KT 10SM CLR M07/M09 A3015 RMK AO2 SLP267
     I1000 I3001 T10721094 53008=
KW43 110255Z AUTO 21010KT 10SM CLR M07/M11 A2984 RMK AO2=
KCDD 110254Z AUTO 00000KT 10SM BKN110 M09/M11 A2977 RMK AO2
     TSNO=
KDKB 110255Z AUTO 09004KT 1 3/4SM UP OVC001 07/07 A2934 RMK AO2
     LTG DSNT W P0017 60032 T00670066=
KENL 110255Z AUTO 18013G22KT 10SM BKN028 OVC033 20/18 A2947 RMK
     AO2 T02030183=
KFKR 110255Z AUTO 15023KT 2 1/2SM BR OVC003 14/14 A2946 RMK
     AO2=
KGGP 110255Z AUTO 16021G26KT 5SM HZ OVC004 13/05 A2946 RMK AO2=
KGHG 110255Z AUTO 00000KT 10SM BKN028 OVC060 03/03 A3017 RMK
     AO2=
KGWB 110255Z AUTO 14007KT 095V195 2SM BR OVC003 11/11 A2957 RMK
     AO2=
KHDE 110255Z AUTO 34018G22KT 7SM OVC014 M02/M04 A2977 RMK AO2
     T10231037=
KHJH 110255Z AUTO 33015G22KT 7SM -SN OVC012 M01/M02 A2968 RMK AO2
     T10071021=
KI63 110255Z AUTO 19010KT 10SM CLR 14/14 A2934 RMK AO2 LTG DSNT E
     60006 T01370137=
KIML 110253Z AUTO 32006KT 8SM -SN OVC012 M03/M05 A2988 RMK AO2
     SNB45 SLP146 P0000 60000 T10281050 53035=
KONL 110255Z AUTO 32017G22KT BKN007 BKN011 OVC022 M02/M04 A2981
     RMK AO2 T10251037 PWINO=
KPMV 110255Z AUTO 31017G20KT 10SM -SN BKN007 OVC013 00/M01 A2954
     RMK AO2 T00001008=
KTMA 110255Z AUTO 19003KT 20/19 A3010 RMK AO2 T01950188 PWINO=
KVWU 110255Z AUTO 00000KT 10SM CLR M06/M08 A2973 RMK AO2=
KW99 110255Z AUTO 00000KT 10SM SCT070 SCT095 BKN110 08/03 A3002
     RMK AO2 T00790025=
KXLL 110255Z AUTO 00000KT 10SM OVC048 06/01 A3013 RMK AO2=
KCOM 110255Z AUTO 29008KT 10SM CLR 21/03 A2983 RMK AO2
     T02110031=
KDKB 110255Z AUTO 09004KT 1 3/4SM UP OVC001 07/07 A2934 RMK AO2
     LTG DSNT W P0017 60032 T00670066=
KDKR 110255Z AUTO 17009KT 10SM FEW020 BKN036 24/22 A2977 RMK
     AO2=
KE16 110255Z AUTO 30003KT 10SM CLR 07/00 A3026 RMK AO2 PWINO
     PNO=
KE41 110255Z AUTO 28005KT 10SM CLR 17/01 A2991 RMK AO2
     T01660015=
KECS 110255Z AUTO 01007KT 10SM CLR M12/M15 A2989 RMK AO2=
KECU 110255Z AUTO 00000KT 10SM FEW120 20/05 A2991 RMK AO2=
KF00 110255Z AUTO 20009KT 10SM BKN037 BKN043 BKN120 22/17 A2969
     RMK AO2 T02180165=
KGVT 110255Z AUTO 22009KT 10SM SCT049 SCT055 SCT110 23/19 A2972
     RMK AO2 TSNO T02260188=
KHBV 110255Z AUTO 00000KT 7SM CLR 22/21 A2980 RMK AO2
     T02220210=
KJAS 110255Z AUTO 20014KT 10SM SCT020 BKN026 OVC065 24/23 A2982
     RMK AO2=
KOSA 110255Z AUTO 20014KT 10SM CLR 24/19 A2969 RMK AO2
     T02440194=
KPEQ 110255Z AUTO 28015KT CLR 17/02 A2996 RMK AO2 T01680018
     PWINO=
KRCV 110255Z AUTO 28010G16KT 10SM CLR M10/M21 A3000 RMK AO2
     T11031209=
KT35 110255Z AUTO 19010G17KT 10SM CLR 24/21 A2977 RMK AO2
     T02360211=
KTMA 110255Z AUTO 19003KT 20/19 A3010 RMK AO2 T01950188 PWINO=
KUVA 110255Z AUTO 03008KT 10SM CLR 19/16 A2981 RMK AO2
     T01860163=
KVHN 110255Z AUTO 29008KT 10SM CLR 13/03 A3008 RMK AO2
     T01290030=
KE38 110255Z AUTO 28007KT 10SM CLR 16/01 A3006 RMK AO2
     T01590011=
KERV 110255Z AUTO 00000KT 7SM CLR 16/15 A2984 RMK AO2
     T01620146=
KF17 110255Z AUTO 17012G16KT 10SM BKN020 OVC027 25/21 A2979 RMK
     AO2=
KGOP 110255Z AUTO 00000KT 10SM CLR 21/17 A2981 RMK AO2=
KHII 110255Z AUTO 34011KT 10SM CLR 12/M10 A3019 RMK AO2=
KONP 110255Z AUTO 18011G18KT 10SM SCT022 BKN033 OVC049 07/06 A3009
     RMK AO2=
KOZA 110255Z AUTO 32009KT 10SM CLR 19/02 A2992 RMK AO2=
KPLU 110255Z AUTO 18010KT 150V230 10SM FEW055 OVC070 08/03 A2990
     RMK AO2=
KPOY 110255Z AUTO 25011KT 10SM CLR M07/M19 A2981 RMK AO2=


510 
SPUS80 KWBC 110302
SPECI
KJBR 110259Z AUTO 23020G29KT 1 1/2SM +TSRA BR FEW020 BKN031 OVC100
     22/19 A2963 RMK AO2 PK WND 23029/0258 LTG DSNT ALQDS PRESRR
     P0001 T02170194 $=


511 
SAPQ50 KWBC 110300 RRA
METAR
PGWT 110254Z 08014KT 7SM FEW017 BKN150 29/24 A2981=
PTPN 110258Z 09010KT 15SM BKN018TCU OVC300 31/25 A2973 RMK TCU
     SE-S AND W LAST=
PGWT 110254Z 08014KT 7SM FEW017 BKN150 29/24 A2981=


514 
SAUS70 KWBC 110300 RRN
METAR
K04V 110255Z AUTO 29007G18KT 10SM CLR M10/M17 A2998 RMK AO2=
K0J6 110255Z AUTO 18012KT 9SM OVC007 21/21 A3007 RMK AO2=
K11R 110255Z AUTO 18009G14KT 10SM BKN019 25/23 A2979 RMK AO2
     T02470225=
K17J 110255Z AUTO 20006KT 10SM OVC008 21/20 A3008 RMK AO2
     T02120198=
K19S 110255Z AUTO 33023G29KT 10SM OVC070 02/M05 A2988 RMK AO2
     T00201054=
K1A6 110255Z AUTO 15005KT 10SM BKN013 OVC018 12/11 A2995 RMK AO2
     60002 T01150113=
K1F0 110255Z AUTO 25011G19KT 4SM HZ SCT025 OVC034 24/03 A2968 RMK
     AO2 T02380027=
K1H2 110255Z AUTO 13014G22KT 7SM OVC008 18/17 A2947 RMK AO2 LTG
     DSNT N 60001 T01760170=
K1R8 110255Z AUTO 17007G14KT 10SM BKN010 OVC016 23/22 A3001 RMK
     AO2=
K1V6 110255Z AUTO 29010KT 10SM CLR M02/M20 A2998 RMK AO2=
K20V 110255Z AUTO 25009KT 10SM BKN027 BKN034 BKN045 M10/M13 A3000
     RMK AO2=
K2G9 110255Z AUTO 15004KT 10SM SCT024 OVC110 07/02 A2995 RMK
     AO2=
K2IS 110255Z AUTO 11005KT 10SM CLR 20/19 A3014 RMK AO2
     T02030191=
K2J3 110255Z AUTO 12005KT 1 1/2SM BR BKN004 OVC027 14/ A3010 RMK
     AO2 T0143////=
K2J5 110255Z AUTO 4SM BR BKN090 15/15 A3010 RMK AO2 T01480146=
K2R9 110255Z AUTO 15006KT 7SM CLR 23/22 A2979 RMK AO2
     T02310216=
K33V 110255Z AUTO 25015KT 10SM CLR M12/M16 A2991 RMK AO1=
K3F3 110255Z AUTO 17010G18KT 10SM BKN022 24/21 A2981 RMK AO2
     T02360210=
K3R7 110255Z AUTO 18009G17KT 10SM OVC011 24/24 A2989 RMK AO2
     T02350235=
K4A9 110255Z AUTO 00000KT 10SM OVC005 17/16 A2995 RMK AO2
     T01660157=
K4O4 110255Z AUTO 21008KT 10SM SCT041 BKN049 BKN070 21/15 A2966
     RMK AO2=
K4S2 110255Z AUTO 00000KT 7SM -RA BKN042 OVC050 04/03 A3004 RMK
     AO2 P0001=
K6A1 110255Z AUTO 19007KT 5SM BR OVC003 19/19 A3007 RMK AO2
     T01940194=
K6A2 110255Z AUTO 00000KT 1/4SM OVC001 14/13 A3006 RMK AO2=
K6I2 110255Z AUTO 17014G21KT 10SM OVC014 17/17 A2975 RMK AO2=
K7W4 110255Z AUTO 00000KT 7SM OVC019 09/08 A3007 RMK AO1 60001
     T00850078=
K81R 110255Z AUTO 24004KT 10SM CLR 19/05 A2982 RMK AO2
     T01860050=
K9A5 110255Z AUTO 21004KT 1 1/4SM OVC001 12/12 A2999 RMK AO2
     T01220122=
KAAA 110255Z AUTO 22007G19KT 190V260 2 1/2SM +VCTSRA SCT011 BKN030
     OVC050 16/16 A2943 RMK AO2 LTG DSNT NE THRU S P0032 60033
     T01580156=
KACJ 110255Z AUTO 18005KT 7SM BKN012 21/20 A3009 RMK AO2=
KADH 110255Z AUTO 26012G20KT 7SM SCT030 SCT049 SCT065 22/03 A2966
     RMK AO2=
KADS 110255Z AUTO 23003KT 10SM CLR 24/07 A2974 RMK AO2
     T02360070=
KAFK 110255Z AUTO 32013G20KT 10SM BKN010 OVC015 00/M02 A2955 RMK
     AO2 T00001016=
KAGI 110255Z AUTO 17022KT 10SM -DZ CLR 25/22 A2992 RMK AO2
     T02460220=
KAJG 110255Z AUTO 15016G21KT 10SM BKN008 BKN012 BKN046 19/17 A2953
     RMK AO2 LTG DSNT SE AND S T01850173=
KAJR 110255Z AUTO 04003KT 3/4SM -SN OVC002 11/10 A3008 RMK AO2
     T01080100=
KAJZ 110255Z AUTO 20004KT 10SM CLR M03/M09 A3015 RMK AO2
     T10331087=
KAPS 110255Z AUTO 17008KT 10SM BKN011 23/22 A2995 RMK AO2
     T02290220=
KAQO 110255Z AUTO 31008G17KT 1 1/4SM -RA HZ FEW022 SCT055 20/16
     A2980 RMK AO2 VIS 1/4V5=
KASL 110255Z AUTO 20008G14KT 10SM OVC019 23/20 A2976 RMK AO1
     T02250200=
KAUH 110255Z AUTO 34022G28KT 2 1/2SM -SN OVC009 M01/M03 A2972 RMK
     AO2 T10151031=
KAUN 110255Z AUTO 00000KT 10SM 04/00 A3021 RMK A01=
KAXX 110255Z AUTO 28007G17KT 10SM BKN036 OVC046 M10/M16 A2999 RMK
     AO2 T11041165=
KBBD 110255Z AUTO 32005KT 10SM 20/04 RMK AO2=
KBDG 110255Z AUTO 30007KT 10SM M06/M11 A3024 RMK AO1 T10611115=
KBHC 110255Z AUTO 15004KT 7SM CLR 17/17 A3011 RMK AO2=
KBIE 110255Z AUTO 33020G26KT 10SM OVC013 00/M02 A2963 RMK AO2
     T00001016=


515 
SPIO31 KWBC 110302
SPECI
WBKK 110245Z 29003KT 240V350 7000 -RA FEW013 FEW016CB SCT035 25/25
Q1011 RERA NOSIG=


611 
SAEW KAWN 110300 RRC
METAR EBBE 110255Z AUTO 22007KT 4100 BR SCT004/// BKN006/// 03/02 Q1008
      YLO=
METAR EBBL 110255Z AUTO 19003KT 1600 -DZ SCT004/// OVC034/// 02/02
      Q1008 YLO=
METAR EBCV 110255Z AUTO 29009KT 9999 FEW015/// BKN120/// 04/03 Q1010
      BLU=
METAR EBDT 110255Z AUTO VRB01KT 1700 BR FEW004/// OVC017/// 03/03 Q1008
      YLO=
METAR EBFN 110255Z AUTO 32013KT 9999 SCT017/// 06/03 Q1011 WHT=
METAR EBFS 110255Z AUTO 31010KT 4100 RA SCT003/// BKN005/// BKN007///
      02/02 Q1008 YLO=
METAR EBLB 110255Z AUTO 30003KT 3100 BR OVC002/// M01/M01 Q1006 AMB=
METAR EHAM 110255Z 22005KT 7000 -RADZ SCT020 BKN032 04/03 Q1008 BECMG
      9999=
METAR EHBK 110255Z AUTO 24005KT 210V280 2200 BR OVC002 02/02 Q1008=
METAR EHEH 110255Z AUTO 09001KT 1800 BR BKN002 OVC003 01/01 Q1008 AMB=
METAR EHGG 110255Z AUTO VRB01KT 3300 BR NCD M05/M06 Q1007=
METAR EHKD 110255Z AUTO 14005KT 9999 FEW015CB BKN017 BKN025 OVC037
      03/02 Q1007 WHT=
METAR EHRD 110255Z AUTO 24004KT 4000 BR FEW020 SCT029 BKN034 03/03
      Q1008 NOSIG=
METAR ETAR 110256Z 26004KT 9999 OVC017 02/02 A2973 RMK AO2A CIG 015
      RWY08 SLP082 T00200020 52040 $=
METAR ETEB 110256Z AUTO 26004KT 8000 -SN BR OVC004 00/M00 A2964 RMK
      AO2 SNE31UPB31E34UPB34E34UPB36E53SNB53 SLP075 P0001 60003
      T00001001 52030 FZRANO $=
METAR ETOU 110256Z AUTO 31006KT 9999 SCT028 BKN041 02/M02 A2973 RMK
      AO2 SLP077 T00221021 52037 FZRANO $=


612 
SAPL31 EPWA 110300
METAR EPGD 110300Z 19006KT 2900 BR OVC002 M02/M02 Q1007 =
METAR EPKK 110300Z 31003KT 0450 R25/1700U FZFG BKN001 OVC002 M01/M02
     Q1007 =
METAR EPLL 110300Z VRB01KT 4000 BR OVC004 M05/M06 Q1007 =
METAR EPPO 110300Z 09005KT 2800 BR NSC M07/M08 Q1007 =
METAR EPRZ 110300Z 07005KT 0450 R27/1500D FZFG VV001 M02/M02 Q1007 =
METAR EPWA 110300Z 08003KT 040V110 0600 0500NW R11/0700N FZFG VV002
     M01/M01 Q1008 NOSIG=


615 
SARS18 KAWN 110300 RRA
METAR EETU 110250Z AUTO 11013KT 9999 -FZDZ OVC005/// M01/M02 Q1015
      REFZUP RESHUP REFZRA=
METAR LUKK 110300Z 17008KT 9999 FEW009 SCT014 BKN024 10/09 Q1007 NOSIG=
METAR UBBB 110300Z 15010KT 9999 SCT009 BKN039 11/10 Q1025 NOSIG=
METAR UKBB 110300Z 13007MPS 9999 SCT012 BKN020 08/07 Q1014 TEMPO 15010G15MPS=
METAR UKLL 110300Z 00000MPS 1700 1400NW R31/P2000D BR NSC M02/M03 Q1007
      NOSIG=
METAR UKOO 110300Z 16006MPS 6000 -SHRA FEW008 SCT015CB BKN043 10/10
      Q1010 NOSIG=


617 
SAPL32 EPWA 110300
METAR EPBY 110300Z 11004KT 0600 R26/1500N FZFG VV001 M03/M04 Q1007=
METAR EPKT 110300Z 10003KT 3000 -SN BR SCT001 BKN003 M03/M04 Q1006 =
METAR EPLB 110300Z 07002KT 3200 BR OVC020 01/01 Q1008 =
METAR EPMO 110300Z 09004KT 0200 R08/0225N FZFG VV000 M02/M02 Q1008 =
METAR EPRA 110300Z NIL=
METAR EPSC 110300Z 16007KT 2500 BR OVC003 M01/M01 Q1006 =
METAR EPSY 110300Z VRB02KT 9999 OVC010 M00/M02 Q1008=
METAR EPWR 110300Z 14007KT 9999 BKN031 M02/M04 Q1006 =
METAR EPZG 110300Z NIL=


618 
SAFR21 LFPW 110300
METAR LFPV 110300Z AUTO 28009KT CAVOK 02/01 Q1013 NOSIG=
METAR LFOA 110300Z NIL=


672 
SAFR22 LFPW 110300
METAR LFBC 110300Z AUTO 23004KT 9000 // FEW028 SCT036 OVC043 08/07
Q1020=
METAR LFBG 110300Z AUTO 26005KT CAVOK 06/04 Q1019=
METAR LFBM 110300Z AUTO 23002KT 9999 -DZ BKN034 BKN041 OVC050
08/07 Q1020 NOSIG=
METAR LFBY 110300Z AUTO 27003KT 240V300 8000 // NSC 10/08 Q1020=
METAR LFMO 110300Z AUTO 34017KT 9999 FEW046 05/01 Q1012 BECMG
35020G30KT=
METAR LFMY 110300Z AUTO 32023G36KT CAVOK 06/00 Q1009=
METAR LFKS 110300Z NIL=
METAR LFMC 110300Z NIL=


673 
SAMY20 FMCZ 110300
METAR FMCZ 110300Z AUTO 03006KT 9999 FEW029 OVC086 27/22 Q1013
TEMPO 04015G30KT 4000 SHRA SCT020TCU=

674 
SAFR32 LFPW 110300
METAR LFBI 110300Z AUTO 28005KT CAVOK 03/02 Q1017 NOSIG=
METAR LFBL 110300Z AUTO 30006KT CAVOK 02/01 Q1016 TEMPO 0500 FG
VV///=
METAR LFBO 110300Z AUTO 28011KT CAVOK 07/04 Q1018 NOSIG=
METAR LFBP 110300Z AUTO 25011KT 9999 SCT048/// BKN058/// BKN068///
///TCU 09/08 Q1020 TEMPO 4000 -RA BKN010=
METAR LFBZ 110300Z AUTO 30010KT 9999 BKN018 BKN024 BKN030 11/09
Q1021 TEMPO RA BKN014 BKN020TCU=
METAR LFKB 110300Z AUTO 29011KT 9999 SCT042 SCT054 OVC072 08/04
Q0999 TEMPO 32015G25KT SHRA BKN020 FEW030CB BKN040=
METAR LFLB 110300Z AUTO VRB02KT 9000 FEW016 BKN074 OVC130 01/01
Q1014 TEMPO 4000 -SNRA BKN014=
METAR LFML 110300Z AUTO 32025KT CAVOK 07/01 Q1008 BECMG 32025G35KT=
METAR LFBT 110300Z NIL=


675 
SAID32 WAMM 110300
METAR WAMM 110300Z 26011KT 220V290 9999 SCT020 33/26 Q1009 NOSIG=

677 
SAFR31 LFPW 110300
METAR LFBD 110300Z AUTO 29006KT 9999 FEW033 BKN054 BKN140 07/06
Q1019 NOSIG=
METAR LFBH 110300Z AUTO 31008KT CAVOK 07/05 Q1018 TEMPO 4000 BR=
METAR LFLL 110300Z 32005KT 9999 BKN026 03/01 Q1014 NOSIG=
METAR LFMN 110300Z 34008KT CAVOK 05/M01 Q1002 NOSIG=
METAR LFPG 110300Z 28004KT CAVOK 02/01 Q1013 NOSIG=
METAR LFPO 110300Z 27007KT CAVOK 03/01 Q1013 NOSIG=
METAR LFQQ 110300Z AUTO 28009KT 9999 BKN019 03/02 Q1011 NOSIG=
METAR LFRB 110300Z AUTO 21004KT 9999 FEW022 OVC050 07/06 Q1017
TEMPO 4000 -RADZ BR=
METAR LFRS 110300Z NIL=


678 
SAFR23 LFPW 110300
METAR LFOE 110300Z AUTO 28008KT CAVOK 03/01 Q1014 NOSIG=
METAR LFRL 110300Z AUTO 24004KT 9999 SCT022 SCT028 OVC050 09/06
Q1017=
METAR LFOC 110300Z NIL=
METAR LFOJ 110300Z NIL=
METAR LFRJ 110300Z NIL=


679 
SAFR24 LFPW 110300
METAR LFSI 110300Z AUTO 27012KT 9999 OVC023 04/02 Q1011=
METAR LFSO 110300Z AUTO 30005KT 3400 SN BR OVC004 00/00 Q1009=
METAR LFSX 110300Z AUTO 26011KT 9999 -RA ////// 03/02 Q1010=
METAR LFYR 110300Z NIL=


684 
SASC20 FSIA 110300
METAR FSIA 110300Z 19006KT 150V230 9999 SCT023 27/22 Q1012 NOSIG=

689 
SACA01 KMSC 110302
METAR MYNN 110300Z 09005KT 9999 FEW020 25/21 A3014=


779 
SAUS44 KMEG 110302
MTROQT
SPECI KOQT 110300Z AUTO 00000KT 2 1/2SM -RA BR OVC009 10/09 A2996 
RMK AO2 P0002 T01000094


266 
SAFR37 LFPW 110300
METAR LFBA 110300Z AUTO 27004KT CAVOK 07/05 Q1019=
METAR LFBX 110300Z AUTO VRB02KT 9000 FEW016 00/00 Q1018=
METAR LFMI 110300Z AUTO 33013KT CAVOK 04/01 Q1010 BECMG 33020G30KT=
METAR LFRZ 110300Z AUTO 27006KT CAVOK 07/05 Q1018 NOSIG=
METAR LFOV 110300Z NIL=
METAR LFRI 110300Z NIL=
METAR LFRM 110300Z NIL=
METAR LFRO 110300Z NIL=
METAR LFRV 110300Z NIL=
METAR LFSG 110300Z NIL=


267 
SABW31 VGHS 110300
METAR VGHS 110300Z 00000KT 1800 BR FEW012 22/18 Q1019
BECMG S/VIS 2000M=


269 
SAMC33 GMMC 110300
METAR GMFM 110300Z 17006KT 8000 BKN016 05/04 Q1025 NOSIG=
METAR GMML 110300Z 06012KT CAVOK 15/15 Q1020 NOSIG=
METAR GMAG 110300Z NIL=
METAR GMMB 110300Z NIL=
METAR GMMC 110300Z NIL=
METAR GMMD 110300Z NIL=
METAR GMMH 110300Z NIL=


270 
SAFR35 LFPW 110300
METAR LFBE 110300Z AUTO 29003KT CAVOK 04/03 Q1018=
METAR LFMD 110300Z AUTO 01003KT 340V040 CAVOK 02/M00 Q1003 NOSIG=
METAR LFOT 110300Z AUTO 00000KT CAVOK 03/02 Q1016 TEMPO 2000 BR
BKN003=
METAR LFST 110300Z AUTO 30004KT 9999 -DZ BKN025 BKN037 BKN047
03/01 Q1008 TEMPO BKN013=
METAR LFTH 110300Z AUTO 32011KT 290V350 CAVOK 08/M04 Q1004 TEMPO
33020G40KT=
METAR LFTW 110300Z AUTO 33010KT CAVOK 04/M02 Q1011 NOSIG=
METAR LFGJ 110300Z NIL=
METAR LFMH 110300Z NIL=
METAR LFRG 110300Z NIL=


271 
SAFR33 LFPW 110300
METAR LFCR 110300Z AUTO 31012KT 9999 OVC012 01/01 Q1015 TEMPO 4000
-SN BKN008=
METAR LFJL 110300Z AUTO 28010KT 9999 -RA OVC005 02/01 Q1009 TEMPO
4000 -RASN=
METAR LFKC 110300Z AUTO 03008KT 010V070 9999 -RA SCT028 BKN035
BKN046 08/05 Q1000 TEMPO 01015G25KT SHRA BKN020 FEW030CB BKN040=
METAR LFKF 110300Z AUTO 31013KT 280V350 CAVOK 10/03 Q0997 BECMG
30015G25KT=
METAR LFKJ 110300Z AUTO 09004KT 040V190 CAVOK 06/03 Q0999 NOSIG=
METAR LFLC 110300Z AUTO 35005KT 310V010 9999 FEW025 OVC050 04/01
Q1015 NOSIG=
METAR LFLS 110300Z AUTO 01005KT 9999 BKN020 BKN027 BKN035 02/00
Q1013 TEMPO BKN014=
METAR LFMP 110300Z AUTO 32017KT 280V340 9999 SCT043 BKN050 BKN110
09/02 Q1015 TEMPO 32020G35KT=
METAR LFSL 110300Z AUTO 28004KT CAVOK 02/02 Q1017 NOSIG=
METAR LFMV 110300Z NIL=


272 
SAMC35 GMMC 110300
METAR GMAZ 110300Z NIL=
METAR GMFB 110300Z NIL=


274 
SAFR34 LFPW 110300
METAR LFLY 110300Z AUTO 04004KT 9999 BKN027 OVC070 03/01 Q1014
NOSIG=
METAR LFMK 110300Z AUTO 28015KT 9999 FEW024 OVC110 07/04 Q1016
TEMPO 29017G27KT=
METAR LFMT 110300Z AUTO 34006KT CAVOK 04/M03 Q1013 NOSIG=
METAR LFMU 110300Z AUTO 35016KT CAVOK 07/M00 Q1014 TEMPO 32020G35KT=
METAR LFOB 110300Z AUTO 26003KT CAVOK 01/00 Q1013 NOSIG=
METAR LFOK 110300Z AUTO 29014KT 9999 FEW018 BKN092 OVC120 04/01
Q1011 NOSIG=
METAR LFPB 110300Z AUTO 27006KT CAVOK 04/01 Q1013 NOSIG=
METAR LFSB 110300Z AUTO 25016KT CAVOK 04/01 Q1009 TEMPO 26018G33KT
BKN012=
METAR LFRD 110300Z NIL=
METAR LFRN 110300Z NIL=


275 
SARH32 LDZM 110300
METAR LDLO 110300Z NIL=
METAR LDSB 110300Z NIL=


276 
SAPF20 NTAA 110300
METAR NTAA 110300Z 06009KT 9999 FEW026 SCT060 29/22 Q1013 NOSIG=


277 
SAMC32 GMMC 110300
METAR GMFK 110300Z 19005KT 160V330 CAVOK 08/M02 Q1023 NOSIG=
METAR GMMW 110300Z 15002KT CAVOK 09/05 Q1021 NOSIG=
METAR GMMZ 110300Z VRB02KT CAVOK 04/M07 Q1023 NOSIG=
METAR GMTA 110300Z 17003KT 140V210 9999 FEW020 SCT030 12/09 Q1021
NOSIG=
METAR GMTN 110300Z AUTO 25016G27KT 220V290 16/12 Q1022=
METAR GMAT 110300Z NIL=
METAR GMMI 110300Z NIL=


279 
SAHU41 LHBM 110300
METAR LHDC 110245Z AUTO 03006KT 3900 BR FEW013 OVC023 03/03 Q1007=
METAR LHKE 110245Z 08004KT 2000 BR OVC007 02/01 Q1007 NOSIG RMK YLO=
METAR LHPA 110245Z 04002KT 4000 BR OVC006 00/M01 Q1007 NOSIG RMK YLO=
METAR LHPP 110245Z AUTO 07007KT 0650 FG VV002 01/01 Q1005=
METAR LHPR 110245Z AUTO VRB02KT 5000 BR OVC016 M00/M00 Q1007=
METAR LHSM 110245Z AUTO 05003KT 1200 R16/P1500 BR VV002 01/01 Q1006=
METAR LHSN 110245Z 02004KT 1500 BR OVC009 02/02 Q1007 REFG NOSIG RMK
     AMB=


280 
SAFR36 LFPW 110300
METAR LFCK 110300Z AUTO 29012KT 9999 BKN015 BKN021 OVC054 05/04
Q1017=
METAR LFLP 110300Z AUTO 05003KT 3400 -SN BR FEW017 SCT031 BKN038
00/00 Q1013 TEMPO 2500 -SN BKN012=
METAR LFLX 110300Z AUTO 25006KT CAVOK 00/M00 Q1016 TEMPO 0600 FG
VV///=
METAR LFOH 110300Z AUTO 34010KT 9999 FEW028 07/02 Q1015=
METAR LFOP 110300Z AUTO 29009KT 9999 FEW027 SCT200 03/01 Q1014=
METAR LFQA 110300Z AUTO 30009KT 9999 BKN023 BKN034 OVC098 05/02
Q1011=
METAR LFQB 110300Z AUTO 28015KT CAVOK 04/01 Q1012=
METAR LFSN 110300Z AUTO 31004KT 9999 -SNRA OVC008/// ///TCU 02/01
Q1009=
METAR LFLU 110300Z NIL=


281 
SARH31 LDZM 110300
METAR LDDU 110300Z 10014KT 9999 -RA FEW025 BKN040 07/05 Q0996 NOSIG=
METAR LDOS 110300Z 03009KT 2000 BR BKN007 OVC023 02/02 Q1004=
METAR LDPL 110300Z 03009KT CAVOK 07/M00 Q0998=
METAR LDRI 110300Z 27008KT 230V340 CAVOK 07/M01 Q0999=
METAR LDSP 110300Z AUTO 05012KT 9999 -RA SCT030/// OVC042/// 07/04
Q0995 TEMPO 07015G25KT=
METAR LDZA 110300Z 07007KT 030V120 8000 OVC008 02/01 Q1004 NOSIG=
METAR LDZD 110300Z 06015KT 9999 SCT030 06/04 Q0996=


284 
SAMC31 GMMC 110300
METAR GMAD 110300Z 05007KT CAVOK 08/04 Q1019 NOSIG=
METAR GMFF 110300Z 18009KT 9999 BKN020 08/07 Q1025 NOSIG=
METAR GMME 110300Z 17003KT 5000 BKN026 13/10 Q1024 NOSIG=
METAR GMMN 110300Z 09003KT 9999 BKN026 10/10 Q1025 NOSIG=
METAR GMMX 110300Z 11006KT CAVOK 07/04 Q1023 NOSIG=
METAR GMTT 110300Z AUTO 29007KT 9999 SCT016 SCT025 BKN033 16/14
Q1024 NOSIG=
METAR GMFO 110300Z NIL=


560 
SABN31 OBBI 110300
METAR OBBI 110300Z 30011KT CAVOK 20/14 Q1021 NOSIG=
METAR OEDF 110300Z 29009KT CAVOK 13/04 Q1021 NOSIG=
METAR OEDR 110300Z 27010KT CAVOK 14/07 Q1020=
METAR OTBD 110300Z 28004KT 230V310 6000 NSC 20/17 Q1021 NOSIG=
METAR OTHH 110300Z 28006KT 6000 NSC 19/15 Q1021 NOSIG=
METAR OKBK 110300Z 30004KT CAVOK 12/05 Q1023 NOSIG=

565 
SAIN90 VOCL 110300
METAR VOCL 110300Z 08005KT 5000 HZ FEW015 26/20 Q1013 NOSIG=

567 
SAMT20 GQPP 110300
METAR GQPP 110300Z 03012KT 8000 NSC 17/11 Q1014 NOSIG=

571 
SAIN90 VANP 110300
METAR VANP 110300Z 01004KT 3000 HZ SCT100 20/11
Q1020 NOSIG=

572 
SAIN90 VEGY 110300
METAR VEGY 110300Z 00000KT 0900 FG NSC 16/14 Q1020 BECMG 1500 BR=

573 
SAIN90 VOTP 110300
METAR VOTP 110300Z 00000KT 4000 BR SCT015 SCT100 26/23 Q1015 NOSIG=

576 
SAIN90 VOBG 110300
METAR VOBG 110300Z 09006KT 4000 BR SCT008 SCT012 21/19 Q1019 NOSIG=

577 
SAIN90 VOHB 110300
METAR VOHB 110300Z 06007KT 8000 NSC 21/19 Q1018=

578 
SAIN90 VERC 110300
METAR VERC 110300Z 02004KT 1800 BR SCT100 18/12 Q1021 NOSIG=

579 
SAIN90 VOMM 110300
METAR VOMM 110300Z 01003KT 4000 BR SCT018 FEW025TCU SCT100 27/26
Q1015 NOSIG=

581 
SAIN90 VEJH 110300
METAR VEJH 110300Z 05001KT 2500 BR NSC 20/17 Q1020 =

582 
SAIN90 VIDP 110300
METAR VIDP 110300Z 24004KT 1500 R28/2000 R29/2000 BR NSC 12/09 Q1020
NOSIG=

583 
SAIN90 VEPT 110300
METAR VEPT 110300Z 27004KT 1600 HZ NSC 14/09 Q1019 NOSIG=

584 
SAIN90 VABB 110300
METAR VABB 110300Z 00000KT 2500 FU FEW020 SCT100 27/17 Q1015 NOSIG=

588 
SAIN90 VOTR 110300
METAR VOTR 110300Z 01006KT 3000 BR FEW016 SCT100 27/24 Q1015 BECMG
5000 BR=

589 
SAIN90 VORY 110300
METAR VORY 110300Z 04005KT 4000 BR FEW020 25/22 Q1017 NOSIG=

593 
SAIN90 VABP 110300
METAR VABP 110300Z 05005KT 3000 BR NSC 16/07 Q1021 NOSIG=

595 
SAIN90 VOTV 110300
METAR VOTV 110300Z 00000KT 4000 BR FEW015 30/24 Q1012 BECMG 5000 HZ=

637 
SAGG41 UGTB 110300
METAR UGMS 110300Z AUTO VRB02KT //// ////// M05/M05 Q1026=
METAR UGAM 110300Z AUTO 04003KT 020V150 //// ////// M01/M01 Q1025=


669 
SAAK41 KNKA 110302
METAR PAFS 110301Z AUTO 30006KT 9SM -SN OVC065 M15/M18 A2923 RMK AO2 
    SLP911 P0000 60000 T11501178 53031 FZRANO=


944 
SAUS42 KMOB 110302 COR
MTRNPA
METAR KNPA 110256Z 16008KT 5SM BR OVC004 22/21 A3002 RMK AO2 SLP168 
T02170206 51009 $


227 
SACY31 LCLK 110300
METAR LCLK 110300Z 30007KT CAVOK 14/12 Q1019 NOSIG=
METAR LCPH 110300Z AUTO 02007KT 010V080 9999 NCD 12/07 Q1018=
METAR LCNC 110300Z NIL=


820 
SANV20 NVVV 110301
METAR NVSC 110301Z NIL=
METAR NVSG 110301Z NIL=
METAR NVSS 110300Z 08007KT 9999 SCT020 FEW025CB BKN040
31/26 Q1006=
METAR NVSL 110301Z NIL=
METAR NVVV 110300Z 04007KT 9999 SCT020 32/25 Q1007=
METAR NVVW 110301Z NIL=
METAR NVVA 110301Z NIL=


991 
SAAU65 AMMC 110300
METAR YLRE 110300Z AUTO 23008KT 200V260 9999 // NCD 33/M04 Q1009=
METAR YMAV 110300Z AUTO 12014KT 9999 // SCT052 21/11 Q1018=
METAR YMAY 110300Z AUTO 16011KT 9999 // NCD 23/10 Q1015=
METAR YMDG 110300Z AUTO 09004KT 040V170 9999 // SCT048 OVC058 22/10 Q1013=
METAR YMEK 110300Z AUTO 23010KT 190V290 9999 // NCD 31/04 Q1013=
METAR YMEN 110300Z AUTO 12011KT 9999 // BKN045 OVC052 20/10 Q1017=
METAR YMER 110300Z AUTO 15012KT 9999 -SHRA SCT022 BKN028 BKN072 17/14 Q1017=
METAR YMIA 110300Z AUTO 19007KT 130V230 9999 // NCD 26/04 Q1015=
METAR YMML 110300Z 13007KT 9999 SCT042 BKN049 20/10 Q1017=
METAR YMOR 110300Z AUTO 21012KT 150V220 9999 // NCD 28/10 Q1011=



505 
SAUS44 KMOB 110303
MTR79J
METAR K79J 110256Z AUTO VRB04KT 10SM BKN014 OVC021 23/21 A3004 RMK 
AO2 SLP167 T02330206 51004


513 
SAUS44 KJAN 110303 COR
MTRNMM
METAR KNMM 110256Z AUTO 18007KT 10SM SCT017 BKN022 OVC043 22/21 
A2993 RMK AO2 SLP141 T02220206 50000


861 
SPUS81 KWBC 110303
SPECI
KOQT 110300Z AUTO 00000KT 2 1/2SM -RA BR OVC009 10/09 A2996=


867 
SAXX70 KAWN 110300 RRE
METAR KQEJ 110300Z AUTO 27002KT 6000 BKN007 BKN022 05/03 A3029 RMK
      A02 TSNO=
METAR KQEV 110300Z AUTO 04001KT 4000 HZ BKN027 08/06 A3030 RMK A02
      TSNO=
METAR KQEX 110300Z AUTO 04003KT 4800 HZ FEW180 10/03 A3022 RMK A02
      TSNO=
METAR KQEY 110300Z AUTO 16003KT 4800 SCT003 OVC020 05/05 A3002 RMK
      A02 TSNO=
METAR KQFB 110300Z AUTO 26002KT 8000 HZ CLR 11/03 A3034 RMK A02 TSNO=
METAR KQFT 110300Z AUTO 02002KT 9000 HZ CLR 07/03 A3031 RMK A02 TSNO=


869 
SPUS81 KWBC 110303
SPECI
KJBR 110259Z AUTO 23020G29KT 1 1/2SM +TSRA BR FEW020 BKN031 OVC100
22/19 A2963=


871 
SPCN48 CWAO 110302
SPECI CYAH 110302Z AUTO 24018G25KT 4SM -SN BKN024 OVC029 M08/M12 A2975 RMK SLP102=


872 
SPCN45 CWAO 110302
SPECI CYTE 110302Z AUTO VRB05KT 1 3/4SM -SN OVC003 M15/M16 A2970 RMK SLP064=


876 
SPCN48 CWAO 110302
SPECI CYPX 110302Z AUTO 10018G23KT 6SM -SN SCT050 OVC071 M16/M18 A2951 RMK SLP998=


964 
SASQ41 LZIB 110300
METAR LZPP 110300Z AUTO 15005KT 9999 OVC014/// 01/M01 Q1007=
METAR LZZI 110300Z VRB02KT 5000 BR BKN010 OVC030 M03/M03 Q1007=


965 
SATR31 UTAA 110300
METAR UTAA 110300Z 17002KT 4500 BR SCT050 BKN100 04/03 Q1025
R88/CLRD70 NOSIG=
METAR UTAK 110300Z NIL=
METAR UTAM 110300Z 00000KT CAVOK 04/02 Q1027 R88/CLRD70 NOSIG=
METAR UTAT 110300Z 24006KT 9999 OVC021 06/04 Q1024 R26/CLRD70
NOSIG=
METAR UTAV 110300Z NIL=


967 
SAYG31 LYYN 110300
METAR LYBE 110300Z 07007KT 3500 BR OVC002 03/02 Q1004 NOSIG=
METAR LYBT 110300Z 06007KT 020V080 2500 BR OVC002 03/03 Q1004 NOSIG=
METAR LYKV 110300Z VRB02KT 0300 R31/0650D R13/0500N FG VV001 02/02
Q1003 NOSIG=
METAR LYNI 110300Z 11005KT CAVOK 04/01 Q1005 NOSIG=
METAR LYPG 110300Z 31004KT 9999 -RA FEW026 SCT040 OVC080 06/06 Q1000
NOSIG=
METAR LYPR 110300Z NIL=
METAR LYTV 110300Z NIL=
METAR LYVR 110300Z AUTO VRB01KT CAVOK 03/02 Q1004=


970 
SAIL31 BICC 110300
METAR BIAR 110300Z 17004KT 140V200 CAVOK M08/M09 Q0990=
METAR BIEG 110300Z 00000KT 9999 BKN036 M05/M07 Q0993=
METAR BIKF 110300Z 11032G43KT 5000 -RA OVC009 04/02 Q0977=
METAR BIRK 110300Z 10019G29KT 9999 -RA OVC033 03/M01 Q0978=


976 
SACZ31 LKPW 110300
METAR LKKV 110300Z 11003KT 9999 -SN BKN008 OVC018 M02/M03 Q1003=
METAR LKMT 110300Z VRB02KT 9000 OVC030 M01/M02 Q1007 NOSIG=
METAR LKPR 110300Z 15005KT 9999 BKN016 M02/M03 Q1004 NOSIG=
METAR LKTB 110300Z 14005KT 7000 OVC010 M01/M02 Q1007 NOSIG=


132 
SAUS14 KAWN 110300 RRX
METAR K04V 110255Z AUTO 29007G18KT 10SM CLR M10/M17 A2998 RMK AO2=
METAR K11R 110255Z AUTO 18009G14KT 10SM BKN019 25/23 A2979 RMK AO2
      T02470225=
METAR K1V6 110255Z AUTO 29010KT 10SM CLR M02/M20 A2998 RMK AO2=
METAR K33V 110255Z AUTO 25015KT 10SM CLR M12/M16 A2991 RMK AO1=
METAR KL35 110255Z AUTO 00000KT 7SM CLR M03/M05 A3016 RMK AO2=
METAR KLMO 110255Z AUTO 30010G16KT 10SM CLR M02/M18 A2996 RMK AO2 T10191185=
METAR KMMH 110258Z AUTO 36003KT 10SM CLR M08/M13 A3018 RMK AO2=
METAR KMNH 110255Z AUTO 30009KT 10SM CLR M11/M20 A2990 RMK AO2=
METAR KNOW 110255Z AUTO 00000KT 10SM RA OVC047 05/04 A2975 RMK AO2
      P0001 60002 T00530043=
METAR KNOZ 110259Z AUTO 36010KT 10SM CLR 16/M01 A3014 RMK AO2 SLP156
      T01561006 53015 $=
METAR KORG 110255Z AUTO 19010KT 7SM SCT010 BKN019 OVC044 25/24 A2988
      RMK AO2 T02510235=
METAR KPNA 110250Z AUTO 33005KT 10SM CLR M12/M15 A3000 RMK AO2=
METAR KSLR 110255Z AUTO 17010G14KT 10SM SCT050 BKN070 BKN080 24/18
      A2969 RMK AO2 T02400183=
METAR KSWW 110255Z AUTO 25015KT 10SM CLR 19/00 A2988 RMK AO2 T01870002=
METAR KT82 110255Z AUTO 00000KT 7SM CLR 16/15 A2984 RMK AO2 T01640146=
METAR KTMK 110250Z AUTO 16012G18KT 5SM -RA BKN021 OVC026 08/06 A3002
      RMK AO2 P0001=
METAR KTMT 110250Z AUTO 22003KT 10SM CLR M14/M16 A3022 RMK AO2 T11371159=
METAR KTOA 110258Z 00000KT 10SM FEW040 09/06 A3016=
METAR KTRK 110258Z AUTO 00000KT 1 3/4SM BR VV007 M08/M08 A3017 RMK
      AO2=
METAR KTXW 110255Z AUTO 18012G18KT 5SM BR BKN014 BKN055 OVC110 25/23
      A2979 RMK AO2 T02460225=
METAR KU68 110255Z AUTO 03007KT 10SM CLR M08/M12 A2987 RMK AO2=
METAR KXBP 110255Z AUTO 26008KT 7SM SCT120 23/04 A2975 RMK AO2 T02330035=


270 
SPCN44 CWAO 110302
SPECI CYEK 110302Z AUTO 10012KT 9SM OVC040 M08/M11 A2912 RMK SLP864=


280 
SARW20 HRYR 110300
METAR HRYR 110300Z 16003KT 130V190 8000 SCT025 BKN100 17/17 Q1017
NOSIG=

282 
SASR31 WSSL 110300
METAR WSSL 110300Z 03010KT 9999 SCT018 FEW020TCU BKN300 30/24 Q1012=

513 
SAEW KAWN 110300 RRD
METAR LFAT 110300Z AUTO 33009KT 9999 SCT019 05/03 Q1013=
METAR LFBC 110300Z AUTO 23004KT 9000 // FEW028 SCT036 OVC043 08/07
      Q1020=
METAR LFBE 110300Z AUTO 29003KT CAVOK 04/03 Q1018=
METAR LFBG 110300Z AUTO 26005KT CAVOK 06/04 Q1019=
METAR LFBM 110300Z AUTO 23002KT 9999 -DZ BKN034 BKN041 OVC050 08/07
      Q1020 NOSIG=
METAR LFBY 110300Z AUTO 27003KT 240V300 8000 // NSC 10/08 Q1020=
METAR LFCR 110300Z AUTO 31012KT 9999 OVC012 01/01 Q1015 TEMPO 4000
      -SN BKN008=
METAR LFJL 110300Z AUTO 28010KT 9999 -RA OVC005 02/01 Q1009 TEMPO 4000
      -RASN=
METAR LFKC 110300Z AUTO 03008KT 010V070 9999 -RA SCT028 BKN035 BKN046
      08/05 Q1000 TEMPO 01015G25KT SHRA BKN020 FEW030CB BKN040=
METAR LFKF 110300Z AUTO 31013KT 280V350 CAVOK 10/03 Q0997 BECMG 30015G25KT=
METAR LFLN 110300Z AUTO 30009KT 9999 OVC010 03/02 Q1015=
METAR LFLS 110300Z AUTO 01005KT 9999 BKN020 BKN027 BKN035 02/00 Q1013
      TEMPO BKN014=
METAR LFMD 110300Z AUTO 01003KT 340V040 CAVOK 02/M00 Q1003 NOSIG=
METAR LFMO 110300Z AUTO 34017KT 9999 FEW046 05/01 Q1012 BECMG 35020G30KT=
METAR LFMP 110300Z AUTO 32017KT 280V340 9999 SCT043 BKN050 BKN110 09/02
      Q1015 TEMPO 32020G35KT=
METAR LFMY 110300Z AUTO 32023G36KT CAVOK 06/00 Q1009=
METAR LFOT 110300Z AUTO 00000KT CAVOK 03/02 Q1016 TEMPO 2000 BR BKN003=
METAR LFRL 110300Z AUTO 24004KT 9999 SCT022 SCT028 OVC050 09/06 Q1017=
METAR LFSD 110300Z AUTO 27007KT 9999 BKN026 BKN032 OVC100 04/00 Q1012=
METAR LFST 110300Z AUTO 30004KT 9999 -DZ BKN025 BKN037 BKN047 03/01
      Q1008 TEMPO BKN013=
METAR LFTH 110300Z AUTO 32011KT 290V350 CAVOK 08/M04 Q1004 TEMPO 33020G40KT=
METAR LFTW 110300Z AUTO 33010KT CAVOK 04/M02 Q1011 NOSIG=


517 
SANA14 KAWN 110300 RRD
METAR KNFL 110256Z VRB05KT 10SM CLR M01/M04 A3022 RMK AO2 SLP196 T10111039
      50004=
METAR KNGU 110259Z 00000KT 5SM BR SCT009 BKN023 OVC029 12/10 A3012
      RMK AO2 RAB43E51 SLP198 P0000 60000 T01170100 58009 $=
METAR KNLC 110256Z 31007KT 10SM CLR 04/01 A3025 RMK AO2 SLP246 RH/79
      T00440011 53020=
METAR KNUC 110256Z AUTO 07007KT 10SM CLR 11/06 A3015 RMK AO2 SLP209
      T01110061 51011 $=
METAR KNUC 110256Z AUTO 07007KT 10SM CLR 11/06 A3015 RMK AO2 SLP209
      T01110061 51011 $=
METAR KNUW 110256Z 15024G35KT 10SM SCT020 BKN025 OVC040 08/04 A2980
      RMK AO2 PK WND 15040/0205 SLP092 T00830044 56048 PNO=
METAR KNXP 110256Z AUTO 28004KT 10SM CLR 07/M11 A3026 RMK AO2 SLP237
      T00671111 51013=
METAR KPOE 110258Z AUTO 19015G23KT 10SM OVC014 24/22 A2984 RMK AO2
      SLP104 50009=
METAR KRCA 110256Z 30006KT 10SM CLR M10/M13 A2981 RMK AO2A SLP146 T11051127
      50007 $=
METAR KSZL 110256Z 27018G24KT 10SM CLR 16/08 A2936 RMK AO2A PRESRR
      SLP943 T01590084 53009 $=
METAR KTIK 110256Z 33022G31KT 10SM SCT065 SCT250 08/M02 A2972 RMK AO2A
      PK WND 33032/50 PRESRR SLP069 T00811020 52058=
METAR KWRB 110256Z 16005KT 5/8SM R15/3500FT BR OVC002 17/17 A3006 RMK
      AO2A SLP181 T01700170 58005=
METAR SEGU 110300Z 21011KT 9999 FEW010 BKN023 OVC100 25/20 Q1012 NOSIG
      RMK A2988=
METAR SKRG 110300Z 32003KT 9999 SCT010 BKN200 15/14 Q1023 NOSIG RMK
      A3023=
METAR SKSP 110300Z 08008KT 050V120 9999 FEW015 BKN200 27/23 Q1012 RMK
      A2990=


988 
SAEW KAWN 110300 RRE
METAR LFBD 110300Z AUTO 29006KT 9999 FEW033 BKN054 BKN140 07/06 Q1019
      NOSIG=
METAR LFBP 110300Z AUTO 25011KT 9999 SCT048/// BKN058/// BKN068///
      ///TCU 09/08 Q1020 TEMPO 4000 -RA BKN010=
METAR LFKB 110300Z AUTO 29011KT 9999 SCT042 SCT054 OVC072 08/04 Q0999
      TEMPO 32015G25KT SHRA BKN020 FEW030CB BKN040=
METAR LFKJ 110300Z AUTO 09004KT 040V190 CAVOK 06/03 Q0999 NOSIG=
METAR LFLB 110300Z AUTO VRB02KT 9000 FEW016 BKN074 OVC130 01/01 Q1014
      TEMPO 4000 -SNRA BKN014=
METAR LFLC 110300Z AUTO 35005KT 310V010 9999 FEW025 OVC050 04/01 Q1015
      NOSIG=
METAR LFLL 110300Z 32005KT 9999 BKN026 03/01 Q1014 NOSIG=
METAR LFLY 110300Z AUTO 04004KT 9999 BKN027 OVC070 03/01 Q1014 NOSIG=
METAR LFMK 110300Z AUTO 28015KT 9999 FEW024 OVC110 07/04 Q1016 TEMPO
      29017G27KT=
METAR LFML 110300Z AUTO 32025KT CAVOK 07/01 Q1008 BECMG 32025G35KT=
METAR LFMT 110300Z AUTO 34006KT CAVOK 04/M03 Q1013 NOSIG=
METAR LFMU 110300Z AUTO 35016KT CAVOK 07/M00 Q1014 TEMPO 32020G35KT=
METAR LFOB 110300Z AUTO 26003KT CAVOK 01/00 Q1013 NOSIG=
METAR LFOE 110300Z AUTO 28008KT CAVOK 03/01 Q1014 NOSIG=
METAR LFPB 110300Z AUTO 27006KT CAVOK 04/01 Q1013 NOSIG=
METAR LFPG 110300Z 28004KT CAVOK 02/01 Q1013 NOSIG=
METAR LFPN 110300Z AUTO 30010KT CAVOK 02/00 Q1013=
METAR LFQQ 110300Z AUTO 28009KT 9999 BKN019 03/02 Q1011 NOSIG=
METAR LFSB 110300Z AUTO 25016KT CAVOK 04/01 Q1009 TEMPO 26018G33KT
      BKN012=
METAR LFSL 110300Z AUTO 28004KT CAVOK 02/02 Q1017 NOSIG=
METAR LFSO 110300Z AUTO 30005KT 3400 SN BR OVC004 00/00 Q1009=
METAR LFSX 110300Z AUTO 26011KT 9999 -RA ////// 03/02 Q1010=


993 
SAIE31 EIDB 110300
METAR EIDW 110300Z 20005KT 9999 FEW014 BKN060 06/03 Q1011 NOSIG=
METAR EINN 110300Z 14009KT 5000 -RADZ FEW014 BKN020 07/05 Q1010 BECMG
     BKN012=
METAR EICK 110300Z 18006KT 0400 R16/0650 R34/0750 FG BKN001 OVC002
     08/08 Q1011 NOSIG=
METAR EIKN 110300Z NIL=


994 
SAUS14 KAWN 110300 RRX
METAR K5C1 110255Z AUTO 00000KT 7SM CLR 16/16 A2982 RMK AO1=
METAR KC99 110255Z AUTO 29014KT 1 1/4SM OVC008 M19/M21 A2972 RMK AO2=
METAR KDUB 110255Z AUTO 29020G27KT 10SM SCT041 BKN050 M10/M17 A2988
      RMK AO2=
METAR KDUX 110255Z AUTO 34026G30KT 10SM CLR 02/M06 A2995 RMK AO2 T00241058=
METAR KDWX 110255Z AUTO 17010KT 10SM SCT022 M13/M16 A3006 RMK AO2 T11291161=
METAR KEAN 110250Z AUTO 23006KT 10SM M10/M14 A2992 RMK AO2 T10981144=
METAR KEHY 110255Z AUTO 4SM BKN008 BKN018 BKN050 M10/M14 A2985 RMK
      AO2 PWINO=
METAR KEMM 110250Z AUTO 10SM SCT031 SCT043 M12/M14 A3004 RMK AO2=
METAR KETN 110255Z AUTO 28006KT 10SM CLR 20/03 A2979 RMK AO2 T02050034=
METAR KFLY 110255Z AUTO 31010G16KT 10SM CLR A2990 RMK AO2=
METAR KGNB 110255Z AUTO 26018G28KT 10SM SCT014 BKN021 OVC026 M12/M16
      A2993 RMK AO2 T11161157=
METAR KHEQ 110255Z AUTO 32011G16KT 5SM -SN BKN009 BKN014 BKN030 M01/M04
      A2989 RMK AO2=
METAR KHSG 110250Z AUTO 24006KT 10SM CLR M13/M18 A2988 RMK AO2 T11331180=
METAR KLLN 110255Z AUTO 30011KT 10SM FEW036 SCT044 BKN050 11/M08 A2992
      RMK AO2=
METAR KNXP 110256Z AUTO 28004KT 10SM CLR 07/M11 A3026 RMK AO2 SLP237
      T00671111 51013=
METAR KNZY 110252Z 31003KT 10SM FEW035 12/09 A3013 RMK AO2 SLP202 T01220089
      50006=
METAR KOAR 110255Z AUTO 00000KT 10SM CLR 04/00 A3023 RMK AO2=
METAR KSDB 110253Z AUTO 06016KT 10SM CLR 04/M04 A3017 RMK AO2 SLP209
      T00441039 53010=
METAR KTCM 110256Z 19014KT 7SM FEW020 SCT036 BKN044 07/04 A2989 RMK
      AO2A RAB14E23RAB23E23 SLP127 P0000 60000 T00690037 57032
      RVRNO $=


006 
SAQB31 LQBK 110300
METAR LQBK 110300Z 36004KT 2000 BR OVC004 02/02 Q1003 NOSIG=
METAR LQMO 110300Z 30007KT 260V320 9999 FEW030 BKN055 09/03 Q0996=
METAR LQSA 110300Z 25002KT 7000 SCT020 BKN030 OVC045 01/01 Q0999=
METAR LQTZ 110300Z 32003KT 0100 R09/0400N FZFG VV001 M00/M00 Q1001=


011 
SAAK41 KNKA 110303
SPECI PABA 110302Z AUTO 28028KT 1/4SM +SN FZFG OVC021 M19/M21 A2936 
    RMK AO2 PK WND 28030/0301 PRESFR P0000 FZRANO=
SPECI PAEG 110301Z AUTO 00000KT 1 3/4SM -SN BR OVC021 M13/M15 A2886 
    RMK AO2 P0000 T11281150 TSNO=


016 
SAZZ40 KAWN 110300 RRN
METAR KNEL 110300Z AUTO 00000KT OVC050 06/03 A3011 RMK AO2 SLP196 T00560028
      58009 $=
METAR KNGU 110259Z 00000KT 5SM BR SCT009 BKN023 OVC029 12/10 A3012
      RMK AO2 RAB43E51 SLP198 P0000 60000 T01170100 58009 $=
METAR KNHK 110252Z 12004KT 10SM OVC036 11/08 A3008 RMK AO2 SLP186 60000
      T01060083 56007 $=
METAR KNXP 110256Z AUTO 28004KT 10SM CLR 07/M11 A3026 RMK AO2 SLP237
      T00671111 51013=
METAR KNXP 110256Z AUTO 28004KT 10SM CLR 07/M11 A3026 RMK AO2 SLP237
      T00671111 51013=
METAR KNZY 110252Z 31003KT 10SM FEW035 12/09 A3013 RMK AO2 SLP202 T01220089
      50006=
METAR KRCA 110256Z 30006KT 10SM CLR M10/M13 A2981 RMK AO2A SLP146 T11051127
      50007 $=
METAR KTCM 110256Z 19014KT 7SM FEW020 SCT036 BKN044 07/04 A2989 RMK
      AO2A RAB14E23RAB23E23 SLP127 P0000 60000 T00690037 57032
      RVRNO $=
METAR NTAA 110300Z 06009KT 9999 FEW026 SCT060 29/22 Q1013 NOSIG=
METAR OKBK 110300Z 30004KT CAVOK 12/05 Q1023 NOSIG=
METAR PAFB 110258Z 24009KT 2 1/2SM BR SCT005 OVC034 M13/M15 A2902 RMK
      AO2A SLP839 WND DATA ESTMD ALSTG/SLP ESTMD P0000 60000
      T11341152 52023 $=
METAR TNCB 110255Z AUTO 07008KT 9999 FEW033/// SCT048/// 25/23 Q1012=
METAR TNCE 110255Z AUTO 06018KT 360V090 //// // ///////// 26/22 Q1014
      RE//=
METAR UGSB 110300Z 13022KT CAVOK 14/01 Q1018 NOSIG=
METAR WSAP 110300Z 04013KT 9999 SCT018 FEW020TCU BKN300 30/24 Q1012=
METAR WSSS 110300Z 35010KT 9000 FEW018 FEW020TCU BKN300 30/25 Q1012
      NOSIG=


039 
SAAG01 SABM 110300
METAR SAAR 110300Z 04001KT CAVOK 19/17 Q1009 RMK PP000=
METAR SABE 110300Z 10006KT CAVOK 22/17 Q1009 NOSIG RMK PP000=
METAR SACO 110300Z VRB02KT 9999 OVC032 18/17 Q1010 NOSIG RMK PP000=
METAR SADF 110300Z 07006KT CAVOK 21/18 Q1009 RMK PP000=
METAR SAEZ 110300Z 10004KT CAVOK 20/17 Q1009 NOSIG RMK PP000=
METAR SAME 110300Z NIL=
METAR SANT 110300Z  27005KT 5000 TS BR SCT045
FEW050CB BKN060  21/20 Q1010=
METAR SAOC 110300Z NIL=
METAR SARC 110300Z NIL=
METAR SARE 110300Z  14009KT CAVOK 25/15 Q1007 RMK PP///=
METAR SARF 110300Z  16007KT CAVOK 26/19 Q1006=
METAR SARI 110300Z  00000KT CAVOK 23/16 Q1007=
METAR SARL 110300Z  25002KT CAVOK 21/19 Q1007=
METAR SARP 110300Z  14008KT CAVOK 27/18 Q1007=
METAR SASA 110300Z  00000KT 9000 -RA SCT012 OVC040
19/18 Q1013=
METAR SASJ 110300Z  32006KT 9999  FEW050 OVC120
21/19 Q1012=
METAR SAVC 110300Z 17009KT 8000 SCT006 BKN008 14/12 Q1003 RMK PP000=
METAR SAWE 110300Z NIL=
METAR SAWG 110300Z  VRB04KT CAVOK 11/07 Q1008=
METAR SAWH 110300Z  09013KT 9999  FEW015 BKN025
08/06 Q1010=
METAR SAZM 110300Z NIL=
METAR SAZN 110300Z  05008KT CAVOK 26/14 Q1004=
METAR SAZS 110300Z  30016KT CAVOK 17/07 Q1008 RMK PP///=


222 
SAUS43 KMQT 110303 COR
MTRP53
METAR KP53 110256Z AUTO 07006KT 00/M02 A2976 RMK AO1 PRESFR SLP084 
P0001 60001 T00001017 56027


319 
SAIR37 OIII 110300
METAR OIBL 110300Z 01004KT 8000 NSC 18/15 Q1019=
METAR OIBQ 110300Z 34014KT 7000 NSC 20/15 Q1020 A3015=
METAR OIIK 110300Z 01002KT CAVOK M00/M04 Q1023=
METAR OIMD 110300Z AUTO 24004KT //// // ////// 02/M09 Q1022=
METAR OIMQ 110300Z AUTO 04002KT //// // ////// 04/M05 Q1024=
METAR OINE 110300Z 00000KT 9999 SCT035 BKN100 06/05 Q1026=
METAR OITK 110300Z NIL=
METAR OITM 110300Z 11006KT CAVOK 00/M04 Q1025=


325 
SAIR38 OIII 110300
METAR OIAH 110300Z 00000KT CAVOK 06/04 Q1023=
METAR OIBH 110300Z 00000KT CAVOK 11/09 Q1019 A3012=
METAR OICM 110300Z NIL=
METAR OIIS 110300Z NIL=
METAR OIMJ 110300Z NIL=
METAR OISF 110300Z 34006KT CAVOK 02/M10 Q1024 A3025=
METAR OISR 110300Z 00000KT 7000 NSC 09/04 Q1021 A3017=
METAR OITP 110300Z 29006KT 9999 OVC010 03/02 Q1024=
METAR OITU 110300Z NIL=


330 
SAIR34 OIII 110300
METAR OIAG 110300Z 29004KT 6000 NSC 11/08 Q1022=
METAR OIAM 110300Z 29008KT CAVOK 10/06 Q1021=
METAR OICI 110300Z 11004KT CAVOK 02/M04 Q1026 A3030=
METAR OIKQ 110300Z 00000KT 6000 NSC 14/12 Q1018 NOSIG=
METAR OINN 110300Z 20004KT 9999 BKN030 10/07 Q1024=
METAR OINR 110300Z 21002KT 9999 FEW023CB BKN027 12/10 Q1024=
METAR OISL 110300Z 00000KT CAVOK 07/M03 Q1020 A3015=
METAR OISY 110300Z 00000KT CAVOK 00/M06 Q1026=
METAR OITZ 110300Z 08006KT CAVOK M04/M05 Q1022 A3019=


332 
SAIR33 OIII 110300
METAR OIBB 110300Z 36004KT 6000 NSC 18/11 Q1020 A3013=
METAR OIBP 110300Z 14006KT 7000 NSC 14/12 Q1018 A3008=
METAR OICK 110300Z 16002KT CAVOK 02/00 Q1024=
METAR OICS 110300Z NIL=
METAR OIHH 110300Z NIL=
METAR OITL 110300Z NIL=
METAR OIZC 110300Z NIL=


334 
SAIR32 OIII 110300
METAR OIAA 110300Z 28004KT 6000 NSC 09/05 Q1022=
METAR OIBK 110300Z NIL=
METAR OICC 110300Z NIL=
METAR OIGG 110300Z 00000KT 0100 R27/0500D FG BKN004
08/08 Q1025=
METAR OIIE 110300Z 28010KT CAVOK 04/M02 Q1024=
METAR OINZ 110300Z NIL=
METAR OITR 110300Z 27006KT CAVOK M02/M05 Q1026=
METAR OIYY 110300Z 17002KT 9999 FEW100 04/M05 Q1026=


336 
SAIR31 OIII 110300
METAR OIAW 110300Z 27004KT 6000 NSC 11/06 Q1021=
METAR OIFM 110300Z 30004KT 5000 HZ FEW040 SCT200 M02/M07 Q1026
A3032=
METAR OIII 110300Z 31004KT CAVOK 05/M10 Q1024 A3024=
METAR OIKB 110300Z 02004KT 3000 BR NSC 13/11 Q1019 A3010 NOSIG=
METAR OIKK 110300Z 10004KT CAVOK M01/M14 Q1026 A3030=
METAR OIMM 110300Z 19004KT CAVOK 03/M00 Q1025 A3028=
METAR OISS 110300Z 00000KT CAVOK 01/M07 Q1024 A3027=
METAR OITT 110300Z 06006KT CAVOK M01/M03 Q1027 A3034=
METAR OIZH 110300Z 00000KT CAVOK 00/M14 Q1024 A3025 NOSIG=


341 
SAIR35 OIII 110300
METAR OIAD 110300Z NIL=
METAR OIBJ 110300Z 00000KT CAVOK 09/02 Q1022=
METAR OIBS 110300Z 30006KT 4000 HZ SCT025 23/14 Q1019=
METAR OIHR 110300Z NIL=
METAR OIKM 110300Z NIL=
METAR OIKR 110300Z NIL=
METAR OING 110300Z 00000KT 0100 R13/M0050N FG VV003 08/08 Q1027=
METAR OIZB 110300Z 36006KT CAVOK 01/M12 Q1024=
METAR OIZI 110300Z 00000KT CAVOK 08/M11 Q1022=


343 
SAIR36 OIII 110300
METAR OIBA 110300Z 27006KT 4000 HZ FEW030 BKN100 24/13 Q1019=
METAR OIBV 110300Z 28006KT 3500 HZ NSC 21/16 Q1018=
METAR OIFS 110300Z 20002KT CAVOK M07/M11 Q1027=
METAR OIIP 110300Z 32010KT 7000 NSC 01/M03 Q1023 A3023=
METAR OIMB 110300Z 11006KT CAVOK M01/M14 Q1024 A3024=
METAR OIMN 110300Z VRB02KT 6000 NSC M01/M03 Q1026=
METAR OIMS 110300Z 06008KT CAVOK 03/M03 Q1026=
METAR OIMT 110300Z NIL=
METAR OIZJ 110300Z 04006KT CAVOK 19/14 Q1019=


347 
SAMC31 GMMC 110300 CCA
METAR COR GMFO 110300Z 20010KT 9999 BKN035 10/06 Q1022 NOSIG=


519 
SAHK31 VHHH 110300
METAR VHHH 110300Z 33007KT 280V030 9999 FEW035 23/15 Q1022 NOSIG=


606 
SAUS41 RODE 110303
RR7XXG
.A RODE 1211 DH0300/PPH 0.00


607 
SAUS44 KLCH 110303 COR
MTRAQV
METAR KAQV 110257Z AUTO VRB06KT 9SM SCT018 BKN027 OVC065 24/21 A2982 
RMK AO2 SLP095 T02390206 53009


755 
SPCN47 CWAO 110303
SPECI CYNA 110303Z AUTO 19008KT 2 1/2SM -FZRA BR FEW014 OVC029 M05/M07 A3013 RMK ICE PAST HR SLP205=


024 
SAUS46 KPQR 110303 COR
MTRNUW
METAR KNUW 110256Z 15024G35KT 10SM SCT020 BKN025 OVC040 08/04 A2980 
RMK AO2 PK WND 15040/0205 SLP092 T00830044 56048 PNO


498 
SAUS70 KWBC 110300 RRX
METAR
KTXW 110255Z AUTO 18012G18KT 5SM BR BKN014 BKN055 OVC110 25/23
     A2979 RMK AO2 T02460225=
KU68 110255Z AUTO 03007KT 10SM CLR M08/M12 A2987 RMK AO2=
KULS 110255Z AUTO 32013G19KT 10SM CLR 02/M06 A2990 RMK AO2=
KUYF 110255Z AUTO 16007KT 2SM BR OVC002 11/10 A2974 RMK AO2 LTG
     DSNT SW P0002=
KVDI 110255Z AUTO 16005KT 7SM SCT033 18/17 A3011 RMK AO2=
KVES 110250Z AUTO 16012KT 1 3/4SM BR OVC002 12/12 A2967 RMK
     AO2=
KVVS 110250Z AUTO 14007KT 10SM BKN027 OVC032 14/09 A2991 RMK AO2
     T01440095=
KVYS 110255Z AUTO 17022G28KT 3SM RA SCT010 BKN015 OVC020 15/15
     A2931 RMK AO2 LTG DSNT SE AND S P0016 60027 T01520151=
KW22 110255Z AUTO 10004KT 10SM BKN022 OVC032 13/10 A2990 RMK
     AO2=
KXBP 110255Z AUTO 26008KT 7SM SCT120 23/04 A2975 RMK AO2
     T02330035=
KGOV 110258Z AUTO 09012KT 6SM -RA BR OVC006 01/00 A2964 RMK AO2
     SNE21RAB21 SLP054 P0006 60006 T00050002 57058 $=
KEOE 110255Z AUTO 17003KT 1/2SM FG OVC002 11/11 A3014 RMK AO2=
KHNZ 110255Z AUTO 19004KT 10SM OVC014 10/08 A3010 RMK AO2
     T01030082=
KMPO 110253Z AUTO 11004KT 10SM OVC041 02/M01 A3005 RMK AO2 SLP194
     T00221011 56013=
KOCW 110255Z AUTO 00000KT 4SM BR OVC002 12/12 A3013 RMK AO2
     T01230115=
K1H2 110255Z AUTO 13014G22KT 7SM OVC008 18/17 A2947 RMK AO2 LTG
     DSNT N 60001 T01760170=
K2G9 110255Z AUTO 15004KT 10SM SCT024 OVC110 07/02 A2995 RMK
     AO2=
KBJI 110255Z AUTO 00000KT 10SM CLR M06/M09 A2973 RMK AO2
     T10621086=
KBVN 110255Z AUTO 34017G21KT 4SM -SN SCT011 BKN016 OVC028 M02/M03
     A2974 RMK AO2 60001 T10201027=
KC65 110255Z AUTO 16017KT 4SM BR OVC004 13/13 A2942 RMK A01=
KLOM 110255Z AUTO 00000KT 10SM OVC046 06/03 A3012 RMK AO2
     T00590034=
KMIV 110254Z AUTO 15004KT 9SM OVC027 08/06 A3011 RMK AO2 SLP194
     60000 T00780056 56006=
KMQS 110255Z AUTO 00000KT 10SM SCT036 06/02 A3009 RMK AO2=
KOGA 110255Z AUTO 32009KT 4SM UP BKN016 BKN023 OVC039 M02/M03
     A2988 RMK AO2 T10201035=
KOGS 110255Z AUTO 06004KT 8SM BKN041 BKN110 M01/M02 A3004 RMK
     AO2=
KPEO 110253Z AUTO 14006KT 10SM FEW047 03/M01 A2997 RMK AO2 SLP157
     T00281006 58015=
KUYF 110255Z AUTO 16007KT 2SM BR OVC002 11/10 A2974 RMK AO2 LTG
     DSNT SW P0002=
KVES 110250Z AUTO 16012KT 1 3/4SM BR OVC002 12/12 A2967 RMK
     AO2=
KVYS 110255Z AUTO 17022G28KT 3SM RA SCT010 BKN015 OVC020 15/15
     A2931 RMK AO2 LTG DSNT SE AND S P0016 60027 T01520151=
KW22 110255Z AUTO 10004KT 10SM BKN022 OVC032 13/10 A2990 RMK
     AO2=
K04V 110255Z AUTO 29007G18KT 10SM CLR M10/M17 A2998 RMK AO2=
K11R 110255Z AUTO 18009G14KT 10SM BKN019 25/23 A2979 RMK AO2
     T02470225=
K1V6 110255Z AUTO 29010KT 10SM CLR M02/M20 A2998 RMK AO2=
K33V 110255Z AUTO 25015KT 10SM CLR M12/M16 A2991 RMK AO1=
KL35 110255Z AUTO 00000KT 7SM CLR M03/M05 A3016 RMK AO2=
KLMO 110255Z AUTO 30010G16KT 10SM CLR M02/M18 A2996 RMK AO2
     T10191185=
KMMH 110258Z AUTO 36003KT 10SM CLR M08/M13 A3018 RMK AO2=
KMNH 110255Z AUTO 30009KT 10SM CLR M11/M20 A2990 RMK AO2=
KNOW 110255Z AUTO 00000KT 10SM RA OVC047 05/04 A2975 RMK AO2 P0001
     60002 T00530043=
KORG 110255Z AUTO 19010KT 7SM SCT010 BKN019 OVC044 25/24 A2988 RMK
     AO2 T02510235=
KPNA 110250Z AUTO 33005KT 10SM CLR M12/M15 A3000 RMK AO2=
KSLR 110255Z AUTO 17010G14KT 10SM SCT050 BKN070 BKN080 24/18 A2969
     RMK AO2 T02400183=
KSWW 110255Z AUTO 25015KT 10SM CLR 19/00 A2988 RMK AO2
     T01870002=
KT82 110255Z AUTO 00000KT 7SM CLR 16/15 A2984 RMK AO2
     T01640146=
KTMK 110250Z AUTO 16012G18KT 5SM -RA BKN021 OVC026 08/06 A3002 RMK
     AO2 P0001=
KTOA 110258Z 00000KT 10SM FEW040 09/06 A3016=


499 
SAUS80 KWBC 110300 CCC
METAR
KP53 110256Z AUTO 07006KT 00/M02 A2976 RMK AO1 PRESFR SLP084 P0001
     60001 T00001017 56027=


501 
SAXX60 KWBC 110300 CCC
METAR
KNSI 110253Z AUTO 32007KT 10SM CLR 08/07 A3015 RMK AO2 SLP208
     T00780067 51016 $=
KNPA 110256Z 16008KT 5SM BR OVC004 22/21 A3002 RMK AO2 SLP168
     T02170206 51009 $=
KNMM 110256Z AUTO 18007KT 10SM SCT017 BKN022 OVC043 22/21 A2993
     RMK AO2 SLP141 T02220206 50000=
KNUW 110256Z 15024G35KT 10SM SCT020 BKN025 OVC040 08/04 A2980 RMK
     AO2 PK WND 15040/0205 SLP092 T00830044 56048 PNO=
KAQV 110257Z AUTO VRB06KT 9SM SCT018 BKN027 OVC065 24/21 A2982 RMK
     AO2 SLP095 T02390206 53009=


502 
SAUS70 KWBC 110304
METAR
KW63 110315Z AUTO 00000KT 10SM OVC017 12/09 A3010 RMK AO1=
PAFS 110301Z AUTO 30006KT 9SM -SN OVC065 M15/M18 A2923 RMK AO2
     SLP911 P0000 60000 T11501178 53031 FZRANO=
KFFA 110315Z AUTO 17005KT 10SM SCT033 BKN043 BKN095 17/15 A3012
     RMK AO2 T01660147=
KMDS 110235Z AUTO 35013KT 10SM UP OVC024 M03/M03 A2975 RMK AO2
     P0012=
PAHX 110302Z AUTO 32006KT CLR M18/M21 A2952 RMK AO2 SLP999
     T11781206 53037 PWINO FZRANO $=
KGZN 110240Z AUTO 28008G14KT 10SM BKN019 OVC055 21/02 A2978 RMK
     AO2=
KMHV 110240Z AUTO 36004KT 10SM FEW044 04/M06 A3020 RMK A01=


503 
SAUS70 KWBC 110300 RRW
METAR
KFWC 110255Z AUTO 16012G16KT 7SM SCT008 SCT030 OVC037 19/18 A2951
     RMK AO1 LTG DSNT E AND SE T01850175=
KFZG 110250Z AUTO 19003KT 10SM CLR 20/19 A3010 RMK AO2
     T01970190=
KGBG 110255Z AUTO 19012G17KT 7SM CLR 16/16 A2930 RMK AO2 LTG DSNT
     E 60005 T01630163=
KGCM 110255Z AUTO 31011G16KT 10SM BKN050 12/M01 A2963 RMK AO2=
KGNB 110255Z AUTO 26018G28KT 10SM SCT014 BKN021 OVC026 M12/M16
     A2993 RMK AO2 T11161157=
KHEQ 110255Z AUTO 32011G16KT 5SM -SN BKN009 BKN014 BKN030 M01/M04
     A2989 RMK AO2=
KHHG 110255Z AUTO 16011G18KT 5SM -DZ OVC003 13/12 A2954 RMK AO2
     T01300122=
KHMZ 110250Z AUTO 00000KT 10SM SCT110 05/M01 A3001 RMK AO2
     T00511006=
KHOE 110255Z AUTO 14003KT 7SM CLR 17/16 A3012 RMK AO2
     T01750168=
KHSG 110250Z AUTO 24006KT 10SM CLR M13/M18 A2988 RMK AO2
     T11331180=
KHTO 110255Z AUTO 00000KT 10SM CLR 00/M01 A3013 RMK AO2
     T10021007=
KIDP 110255Z AUTO 31020G26KT 10SM SCT110 06/M01 A2966 RMK AO2
     T00641008=
KIKK 110256Z AUTO 19016G21KT 4SM RA OVC003 15/15 A2941 RMK AO2 LTG
     DSNT SW AND W=
KJES 110255Z AUTO 00000KT 18/17 A3015 RMK AO2 PWINO=
KJVY 110255Z AUTO 19010G17KT 10SM VCTS BKN013 17/17 A2966 RMK AO2
     LTG DSNT NE=
KLCQ 110258Z AUTO 00000KT 3SM BR CLR 18/18 A3012 RMK AO2=
KLLN 110255Z AUTO 30011KT 10SM FEW036 SCT044 BKN050 11/M08 A2992
     RMK AO2=
K06C 110255Z AUTO 12005KT 1 1/4SM OVC003 07/07 A2933 RMK AO2 P0009
     60044 T00730067=
K18A 110250Z AUTO 00000KT 1SM BR OVC003 10/10 A3009 RMK AO2
     T01000099 60001=
K2V6 110254Z AUTO 30014KT 10SM CLR M05/M08 A2989 RMK AO2=
K3AU 110250Z AUTO 31015G22KT 10SM CLR 02/M06 A2971 RMK AO2=
K3K3 110255Z AUTO 32010G16KT 10SM CLR 00/M06 A2993 RMK AO2=
K49A 110255Z AUTO 18009G15KT 7SM OVC002 15/14 A3006 RMK AO2
     T01460140=
K5C1 110255Z AUTO 00000KT 7SM CLR 16/16 A2982 RMK AO1=
K5SM 110255Z AUTO OVC002 A2995 RMK AO2 PWINO=
K6P9 110255Z AUTO 28004KT 10SM SCT120 21/04 A2980 RMK AO2
     T02050037=
K7BM 110255Z AUTO 26016G30KT 220V290 10SM SCT028 SCT036 OVC060
     M13/M21 A2984 RMK AO2=
K8A0 110255Z AUTO 18008KT 4SM OVC003 17/17 A2994 RMK AO2=
KADT 110250Z AUTO 32008KT 10SM SCT024 BKN034 BKN042 M01/M05 A2993
     RMK AO2 T10141048=
KAFO 110250Z AUTO 16003KT OVC031 M10/M12 A3008 RMK AO2 PWINO=
KAZE 110255Z AUTO 15003KT 10SM CLR 19/18 A3010 RMK AO2
     T01940184=
KBEC 110255Z AUTO 31016G26KT 10SM CLR 02/M05 A2971 RMK AO2
     T00181046=
KBMT 110250Z AUTO 17008KT 7SM OVC010 25/23 A2985 RMK AO2
     T02470234=
KC75 110255Z AUTO 18014G25KT 7SM RA SCT011 SCT060 OVC090 16/14
     A2928 RMK AO2 LTG DSNT NE THRU SE P0031 60041 T01570140=
KC99 110255Z AUTO 29014KT 1 1/4SM OVC008 M19/M21 A2972 RMK AO2=
KCFD 110255Z AUTO 17010KT 10SM OVC014 24/23 A2979 RMK AO2
     T02370225=
KCHK 110255Z AUTO 33017KT 10SM BKN060 OVC070 09/M01 A2976 RMK AO2
     T00931011=
KCKF 110255Z AUTO 17004KT 7SM SCT002 18/18 A3009 RMK AO2
     T01840178=
KCLK 110255Z AUTO 33015G21KT 10SM CLR 06/M03 A2985 RMK AO2=
KCPW 110251Z AUTO 24006KT M21/M22 A2993 RMK AO2 PWINO=
KCQB 110255Z AUTO 31018G27KT 10SM SCT070 08/M01 A2974 RMK AO2
     T00831008=
KCUH 110255Z AUTO 32016G25KT 10SM CLR 08/M01 A2972 RMK AO2
     T00801010=
KCVB 110254Z AUTO 31006KT 5SM HZ CLR 20/17 A2980 RMK AO2=
KCVC 110258Z AUTO 00000KT 1/2SM FG OVC003 11/11 A3007 RMK AO2=
KCWV 110255Z AUTO 00000KT 7SM BKN042 18/17 A3013 RMK AO2
     T01780167=
KCZT 110250Z AUTO 00000KT 10SM CLR 21/13 A2977 RMK AO2=
KD73 110255Z AUTO 06003KT 1/4SM FG OVC003 11/ A3008 RMK AO2
     T0109//// 60001=
KTRK 110258Z AUTO 00000KT 1 3/4SM BR VV007 M08/M08 A3017 RMK
     AO2=


504 
SACN98 KWBC 110304
METAR CXWB 110200Z AUTO 06019KT M13/M16 RMK AO1 PK WND 04026/0107
SLP036 T11261157 58008=


506 
SPUS80 KWBC 110304
SPECI
KOQT 110300Z AUTO 00000KT 2 1/2SM -RA BR OVC009 10/09 A2996 RMK
     AO2 P0002 T01000094=
KFNT 110301Z 11014KT 3SM RA BR BKN007 BKN025 OVC041 05/04 A2961
     RMK AO2 PRESFR P0001 T00500044=


508 
SPUS70 KWBC 110304
SPECI
KHKY 110300Z AUTO 20003KT 1/2SM FG VV002 10/10 A3009 RMK AO2
     T01000100=
KIEN 110259Z AUTO 25007KT 1 3/4SM BR FEW027 M10/M11 A2988 RMK AO2
     VIS 3/4V5 T11001106 $=
KAGS 110300Z 13003KT 3SM BR OVC003 13/13 A3010 RMK AO2
     T01330128=
KFHR 110300Z AUTO 16020G34KT 10SM OVC014 07/04 A2975 RMK AO2 PK
     WND 14032/0254 T00670044 TSNO=
KHQM 110300Z AUTO 21021G30KT 3SM RA BKN015 OVC022 10/07 A2987 RMK
     AO2 PK WND 19030/0259 P0002 T01000072=
KPAE 110300Z 16018G26KT 9SM -RA SCT023 BKN032 OVC043 06/03 A2984
     RMK AO2 PK WND 16026/0300 P0000 T00610033=
KYIP 110300Z 12007KT 4SM -RA BKN007 OVC011 10/07 A2966 RMK AO2 CIG
     004V008 P0000 T01000072 $=
KARB 110301Z AUTO 13007KT 3SM -RA BR OVC004 08/07 A2964 RMK AO2
     P0000 T00780067=
KBFM 110301Z 18004KT 1/4SM FG VV002 21/21 A3003 RMK AO2
     T02110206=
KCEU 110301Z AUTO 00000KT 1SM BR VV003 10/10 A3010 RMK AO2
     T01000100=
KDPA 110301Z 13006KT 2 1/2SM RA BR OVC002 08/08 A2932 RMK AO2
     P0003 T00830078=
KISW 110301Z AUTO 06009G19KT 2SM -SN BR OVC011 M01/M02 A2949 RMK
     AO2 P0000 T10061017=
KLSE 110301Z AUTO 35009KT 4SM BR OVC015 00/M02 A2947 RMK AO2
     UPB0256E0257SNE0256 P0000 T00001017=
KMCW 110301Z AUTO 02019G28KT 1 1/4SM BR OVC010 M02/M04 A2943 RMK
     AO2 PK WND 01028/0254 T10221039 PWINO FZRANO $=
PABA 110302Z AUTO 28028KT 1/4SM +SN FZFG OVC021 M19/M21 A2936 RMK
     AO2 PK WND 28030/0301 PRESFR P0000 FZRANO=
PAEG 110301Z AUTO 00000KT 1 3/4SM -SN BR OVC021 M13/M15 A2886 RMK
     AO2 P0000 T11281150 TSNO=
KIWD 110303Z AUTO 07005KT 1SM -SN BR OVC014 M03/M05 A2972 RMK AO2
     P0000 FZRANO RVRNO=


511 
SAXX60 KWBC 110300 RRI
METAR
KGTB 110256Z AUTO 14010KT 10SM OVC040 02/M02 A3003 RMK AO2 SLP176
     T00191017 55000=
KNXP 110256Z AUTO 28004KT 10SM CLR 07/M11 A3026 RMK AO2 SLP237
     T00671111 51013=
KWRB 110256Z 16005KT 5/8SM R15/3500FT BR OVC002 17/17 A3006 RMK
     AO2A SLP181 T01700170 58005=
KNOZ 110259Z AUTO 36010KT 10SM CLR 16/M01 A3014 RMK AO2 SLP156
     T01561006 53015 $=
K79J 110256Z AUTO VRB04KT 10SM BKN014 OVC021 23/21 A3004 RMK AO2
     SLP167 T02330206 51004=
KNFL 110256Z VRB05KT 10SM CLR M01/M04 A3022 RMK AO2 SLP196
     T10111039 50004=
KNGU 110259Z 00000KT 5SM BR SCT009 BKN023 OVC029 12/10 A3012 RMK
     AO2 RAB43E51 SLP198 P0000 60000 T01170100 58009 $=
KNLC 110256Z 31007KT 10SM CLR 04/01 A3025 RMK AO2 SLP246 RH/79
     T00440011 53020=
KNUC 110256Z AUTO 07007KT 10SM CLR 11/06 A3015 RMK AO2 SLP209
     T01110061 51011 $=
KNUC 110256Z AUTO 07007KT 10SM CLR 11/06 A3015 RMK AO2 SLP209
     T01110061 51011 $=
KNUW 110256Z 15024G35KT 10SM SCT020 BKN025 OVC040 08/04 A2980 RMK
     AO2 PK WND 15040/0205 SLP092 T00830044 56048 PNO=
KNXP 110256Z AUTO 28004KT 10SM CLR 07/M11 A3026 RMK AO2 SLP237
     T00671111 51013=
KPOE 110258Z AUTO 19015G23KT 10SM OVC014 24/22 A2984 RMK AO2
     SLP104 50009=
KRCA 110256Z 30006KT 10SM CLR M10/M13 A2981 RMK AO2A SLP146
     T11051127 50007 $=
KSZL 110256Z 27018G24KT 10SM CLR 16/08 A2936 RMK AO2A PRESRR
     SLP943 T01590084 53009 $=
KTIK 110256Z 33022G31KT 10SM SCT065 SCT250 08/M02 A2972 RMK AO2A
     PK WND 33032/50 PRESRR SLP069 T00811020 52058=
KWRB 110256Z 16005KT 5/8SM R15/3500FT BR OVC002 17/17 A3006 RMK
     AO2A SLP181 T01700170 58005=
KNXP 110256Z AUTO 28004KT 10SM CLR 07/M11 A3026 RMK AO2 SLP237
     T00671111 51013=
KNZY 110252Z 31003KT 10SM FEW035 12/09 A3013 RMK AO2 SLP202
     T01220089 50006=
KTCM 110256Z 19014KT 7SM FEW020 SCT036 BKN044 07/04 A2989 RMK AO2A
     RAB14E23RAB23E23 SLP127 P0000 60000 T00690037 57032 RVRNO
     $=
KNEL 110300Z AUTO 00000KT OVC050 06/03 A3011 RMK AO2 SLP196
     T00560028 58009 $=
KNGU 110259Z 00000KT 5SM BR SCT009 BKN023 OVC029 12/10 A3012 RMK
     AO2 RAB43E51 SLP198 P0000 60000 T01170100 58009 $=
KNHK 110252Z 12004KT 10SM OVC036 11/08 A3008 RMK AO2 SLP186 60000
     T01060083 56007 $=
KNXP 110256Z AUTO 28004KT 10SM CLR 07/M11 A3026 RMK AO2 SLP237
     T00671111 51013=
KNXP 110256Z AUTO 28004KT 10SM CLR 07/M11 A3026 RMK AO2 SLP237
     T00671111 51013=
KNZY 110252Z 31003KT 10SM FEW035 12/09 A3013 RMK AO2 SLP202
     T01220089 50006=
KRCA 110256Z 30006KT 10SM CLR M10/M13 A2981 RMK AO2A SLP146
     T11051127 50007 $=
KTCM 110256Z 19014KT 7SM FEW020 SCT036 BKN044 07/04 A2989 RMK AO2A
     RAB14E23RAB23E23 SLP127 P0000 60000 T00690037 57032 RVRNO
     $=
PAFB 110258Z 24009KT 2 1/2SM BR SCT005 OVC034 M13/M15 A2902 RMK
     AO2A SLP839 WND DATA ESTMD ALSTG/SLP ESTMD P0000 60000
     T11341152 52023 $=
KNLC 110256Z 31007KT 10SM CLR 04/01 A3025 RMK AO2 SLP246 RH/79
     T00440011 53020=


512 
SAUS70 KWBC 110300 RRV
METAR
KLMO 110255Z AUTO 30010G16KT 10SM CLR M02/M18 A2996 RMK AO2
     T10191185=
KLNN 110255Z AUTO 17008G17KT 10SM SCT100 SCT120 12/07 A2973 RMK
     AO1 T01240069=
KLOT 110255Z AUTO 19014KT 2 1/2SM +RA OVC002 13/13 A2935 RMK AO2
     LTG DSNT SW P0008 60018 T01300130=
KLUA 110255Z AUTO 00000KT 10SM OVC028 07/07 A3002 RMK AO2=
KLWB 110255Z AUTO 00000KT 5SM BR SCT030 OVC043 07/07 A3001 RMK AO2
     60002 T00670065=
KMMH 110258Z AUTO 36003KT 10SM CLR M08/M13 A3018 RMK AO2=
KMNE 110300Z AUTO 18010G16KT 10SM OVC020 24/21 A2976 RMK AO2=
KMNH 110255Z AUTO 30009KT 10SM CLR M11/M20 A2990 RMK AO2=
KMYZ 110255Z AUTO 32018G24KT 10SM OVC014 00/M02 A2961 RMK AO2=
KMZZ 110255Z AUTO 16016G21KT 3SM -RA OVC003 13/13 A2954 RMK AO2
     T01320132=
KNOW 110255Z AUTO 00000KT 10SM RA OVC047 05/04 A2975 RMK AO2 P0001
     60002 T00530043=
KOLY 110255Z AUTO 17013G18KT 10SM BKN008 OVC015 18/18 A2952 RMK
     AO2 LTG DSNT N SE AND S T01830177=
KOPL 110255Z AUTO 19008KT 10SM BKN016 OVC030 24/22 A2990 RMK AO2
     T02380218=
KORG 110255Z AUTO 19010KT 7SM SCT010 BKN019 OVC044 25/24 A2988 RMK
     AO2 T02510235=
KPNA 110250Z AUTO 33005KT 10SM CLR M12/M15 A3000 RMK AO2=
KPPO 110255Z AUTO 16010KT 2SM BR OVC002 12/12 A2940 RMK AO2 60002
     T01210121=
KPPQ 110255Z AUTO 20009G17KT 10SM CLR 16/16 A2936 RMK AO2 60053
     T01550155=
KPTT 110255Z AUTO 31021G29KT 10SM SCT090 BKN120 00/M06 A2983 RMK
     AO2 T00001058=
KPXE 110255Z AUTO 16005KT M1/4SM FG OVC003 18/ A3008 RMK AO2
     T0184////=
KRKR 110300Z AUTO 24008G22KT 10SM VCTS SCT065 BKN085 BKN110 18/15
     A2960 RMK AO2 LTG DSNT E=
KRPJ 110255Z AUTO 11012KT 2SM -VCTSRA BKN005 OVC009 08/08 A2931
     RMK AO2 VIS 3/4V5 LTG DSNT NE AND SE P0027 60045
     T00830080=
KSBO 110255Z AUTO 13005KT 4SM BR SCT035 SCT041 16/16 A3011 RMK
     AO2=
KSLR 110255Z AUTO 17010G14KT 10SM SCT050 BKN070 BKN080 24/18 A2969
     RMK AO2 T02400183=
KSNL 110255Z AUTO 32014G20KT 10SM SCT060 SCT110 09/M02 A2972 RMK
     AO2 T00901025=
KSWW 110255Z AUTO 25015KT 10SM CLR 19/00 A2988 RMK AO2
     T01870002=
KT82 110255Z AUTO 00000KT 7SM CLR 16/15 A2984 RMK AO2
     T01640146=
KTAZ 110255Z AUTO 19013KT 4SM TSRA OVC010 17/16 A2942 RMK AO2 LTG
     DSNT ALQS P0014=
KTBR 110255Z AUTO 00000KT 7SM BKN040 15/14 A3013 RMK AO2
     T01520143=
KTIP 110255Z AUTO 2 1/2SM -RA OVC003 15/15 A2940 RMK AO2 LTG DSNT
     SW THRU NE P0001 60001 T01500150=
KTMK 110250Z AUTO 16012G18KT 5SM -RA BKN021 OVC026 08/06 A3002 RMK
     AO2 P0001=
KTNB 110250Z AUTO 00000KT 10SM 06/04 A3007 RMK AO2 T00550042=
KDCY 110255Z AUTO 17016G19KT 10SM OVC007 17/17 A2955 RMK AO2 LTG
     DSNT NE THRU S T01720170=
KDED 110250Z AUTO 13003KT 10SM CLR 20/19 A3015 RMK AO2
     T01990189=
KDPL 110255Z 2SM BR BKN038 OVC046 12/11 A3014 RMK AO2=
KDQH 110255Z AUTO 00000KT 5SM BR CLR 18/18 A3012 RMK AO2
     T01840180=
KDUB 110255Z AUTO 29020G27KT 10SM SCT041 BKN050 M10/M17 A2988 RMK
     AO2=
KDUX 110255Z AUTO 34026G30KT 10SM CLR 02/M06 A2995 RMK AO2
     T00241058=
KDWX 110255Z AUTO 17010KT 10SM SCT022 M13/M16 A3006 RMK AO2
     T11291161=
KEAN 110250Z AUTO 23006KT 10SM M10/M14 A2992 RMK AO2 T10981144=
KEHY 110255Z AUTO 4SM BKN008 BKN018 BKN050 M10/M14 A2985 RMK AO2
     PWINO=
KEMM 110250Z AUTO 10SM SCT031 SCT043 M12/M14 A3004 RMK AO2=
KETN 110255Z AUTO 28006KT 10SM CLR 20/03 A2979 RMK AO2
     T02050034=
KFEP 110250Z AUTO 08006KT 2 1/2SM BR OVC002 05/05 A2935 RMK AO2
     LTG DSNT SW P0030 60051 T00520051=
KFLY 110255Z AUTO 31010G16KT 10SM CLR A2990 RMK AO2=


513 
SAUS80 KWBC 110300 RRC
METAR
KDVK 110255Z AUTO 19007KT 10SM OVC010 15/13 A2980 RMK AO2=
KAYS 110255Z AUTO 16005KT 10SM CLR 20/19 A3012 RMK AO2
     T01980191=
KCIR 110255Z AUTO 21015G19KT 5SM SCT035 SCT060 OVC100 21/19 A2955
     RMK AO2 T02080185=
KCUL 110255Z AUTO 10SM BKN039 18/17 A2954 RMK AO2 LTG DSNT E AND
     SE=
KDBN 110255Z AUTO 00000KT 1/4SM FG OVC002 18/16 A3012 RMK AO2=
K8D3 110256Z AUTO 28004KT M01/M04 A2976 RMK AO1 SLP099 T10111039
     58002=
K9V9 110255Z AUTO 29005KT 10SM SCT027 BKN036 OVC055 M02/M02 A2983
     RMK AO2 T10171017=
KSDB 110253Z AUTO 06016KT 10SM CLR 04/M04 A3017 RMK AO2 SLP209
     T00441039 53010=


514 
SPCN31 KWBC 110304
SPECI
CYTE 110302Z AUTO VRB05KT 1 3/4SM -SN OVC003 M15/M16 A2970 RMK
SLP064=


515 
SAXX60 KWBC 110304
METAR
RJOI 1211 DH0300/PPH 0.00=


517 
SAUS70 KWBC 110300 RRX
METAR
KTRK 110258Z AUTO 00000KT 1 3/4SM BR VV007 M08/M08 A3017 RMK
     AO2=
KTXW 110255Z AUTO 18012G18KT 5SM BR BKN014 BKN055 OVC110 25/23
     A2979 RMK AO2 T02460225=
KU68 110255Z AUTO 03007KT 10SM CLR M08/M12 A2987 RMK AO2=
KXBP 110255Z AUTO 26008KT 7SM SCT120 23/04 A2975 RMK AO2
     T02330035=
KDCY 110255Z AUTO 17016G19KT 10SM OVC007 17/17 A2955 RMK AO2 LTG
     DSNT NE THRU S T01720170=
KFEP 110250Z AUTO 08006KT 2 1/2SM BR OVC002 05/05 A2935 RMK AO2
     LTG DSNT SW P0030 60051 T00520051=
KGBG 110255Z AUTO 19012G17KT 7SM CLR 16/16 A2930 RMK AO2 LTG DSNT
     E 60005 T01630163=
KHHG 110255Z AUTO 16011G18KT 5SM -DZ OVC003 13/12 A2954 RMK AO2
     T01300122=
KLNN 110255Z AUTO 17008G17KT 10SM SCT100 SCT120 12/07 A2973 RMK
     AO1 T01240069=
KLOT 110255Z AUTO 19014KT 2 1/2SM +RA OVC002 13/13 A2935 RMK AO2
     LTG DSNT SW P0008 60018 T01300130=
KLWB 110255Z AUTO 00000KT 5SM BR SCT030 OVC043 07/07 A3001 RMK AO2
     60002 T00670065=
KMZZ 110255Z AUTO 16016G21KT 3SM -RA OVC003 13/13 A2954 RMK AO2
     T01320132=
KOLY 110255Z AUTO 17013G18KT 10SM BKN008 OVC015 18/18 A2952 RMK
     AO2 LTG DSNT N SE AND S T01830177=
KPPO 110255Z AUTO 16010KT 2SM BR OVC002 12/12 A2940 RMK AO2 60002
     T01210121=
KPPQ 110255Z AUTO 20009G17KT 10SM CLR 16/16 A2936 RMK AO2 60053
     T01550155=
KRPJ 110255Z AUTO 11012KT 2SM -VCTSRA BKN005 OVC009 08/08 A2931
     RMK AO2 VIS 3/4V5 LTG DSNT NE AND SE P0027 60045
     T00830080=
KTAZ 110255Z AUTO 19013KT 4SM TSRA OVC010 17/16 A2942 RMK AO2 LTG
     DSNT ALQS P0014=
KTIP 110255Z AUTO 2 1/2SM -RA OVC003 15/15 A2940 RMK AO2 LTG DSNT
     SW THRU NE P0001 60001 T01500150=
KVVS 110250Z AUTO 14007KT 10SM BKN027 OVC032 14/09 A2991 RMK AO2
     T01440095=
K5C1 110255Z AUTO 00000KT 7SM CLR 16/16 A2982 RMK AO1=
KC99 110255Z AUTO 29014KT 1 1/4SM OVC008 M19/M21 A2972 RMK AO2=
KDUB 110255Z AUTO 29020G27KT 10SM SCT041 BKN050 M10/M17 A2988 RMK
     AO2=
KDUX 110255Z AUTO 34026G30KT 10SM CLR 02/M06 A2995 RMK AO2
     T00241058=
KDWX 110255Z AUTO 17010KT 10SM SCT022 M13/M16 A3006 RMK AO2
     T11291161=
KEAN 110250Z AUTO 23006KT 10SM M10/M14 A2992 RMK AO2 T10981144=
KEHY 110255Z AUTO 4SM BKN008 BKN018 BKN050 M10/M14 A2985 RMK AO2
     PWINO=
KEMM 110250Z AUTO 10SM SCT031 SCT043 M12/M14 A3004 RMK AO2=
KETN 110255Z AUTO 28006KT 10SM CLR 20/03 A2979 RMK AO2
     T02050034=
KFLY 110255Z AUTO 31010G16KT 10SM CLR A2990 RMK AO2=
KGNB 110255Z AUTO 26018G28KT 10SM SCT014 BKN021 OVC026 M12/M16
     A2993 RMK AO2 T11161157=
KHEQ 110255Z AUTO 32011G16KT 5SM -SN BKN009 BKN014 BKN030 M01/M04
     A2989 RMK AO2=
KHSG 110250Z AUTO 24006KT 10SM CLR M13/M18 A2988 RMK AO2
     T11331180=
KLLN 110255Z AUTO 30011KT 10SM FEW036 SCT044 BKN050 11/M08 A2992
     RMK AO2=
KOAR 110255Z AUTO 00000KT 10SM CLR 04/00 A3023 RMK AO2=


629 
SAAU60 AMMC 110300
METAR YABA 110300Z AUTO 25013KT 9999 // SCT037 OVC049 20/10 Q1013=
METAR YAMB 110300Z AUTO 33006KT 9999 // NCD 30/06 Q1009=
METAR YARG 110300Z AUTO 32006KT 270V010 9999 // NCD 37/18 Q1008=
METAR YAYE 110300Z AUTO 36005KT 9999 // NCD 34/03 Q1011=
METAR YBAS 110300Z AUTO 14007KT 9999 // ////// 31/M01 Q1012=
METAR YBBN 110300Z 10009KT 9999 FEW030 27/19 Q1010=
METAR YBCG 110300Z AUTO 13017KT 9999 // SCT033 27/18 Q1010=
METAR YBCS 110300Z AUTO 02007KT 9999 // NCD 31/24 Q1006=
METAR YBCV 110300Z AUTO 12005KT 090V160 9999 // NCD 29/06 Q1011=
METAR YBDV 110300Z AUTO 09007KT 070V180 9999 // NCD 33/04 Q1010=



692 
SAPS32 NFFN 110300
METAR NLWW 110300Z AUTO 08009KT 9999 NCD 30/23 Q1009 NOSIG=
METAR NWWW 110300Z AUTO 02007KT 330V080 9999 FEW052 33/21 Q1008
TEMPO SHRA=


694 
SAFR21 LFPW 110300 RRA
METAR LFOA 110300Z AUTO 23004KT 9999 FEW007 BKN032 M00/M00 Q1015=


696 
SAFR31 LFPW 110300 RRA
METAR LFRS 110300Z AUTO 29004KT CAVOK 06/04 Q1018 NOSIG=


697 
SAFR23 LFPW 110300 RRA
METAR LFOJ 110300Z AUTO 26009KT 9999 // NSC 00/M01 Q1014=
METAR LFRJ 110300Z AUTO 22007KT 9999 FEW024 SCT029 BKN042 07/06
Q1017=


698 
SARO31 LROM 110300
METAR LRBS 110300Z 21005KT 170V250 3000 BR OVC002 05/05 Q1009 BECMG
1500 BR OVC001=
METAR LRCK 110300Z 24006KT 9999 SCT019 BKN045 06/05 Q1010 NOSIG=
METAR LROP 110300Z 22008KT 2000 BR OVC002 05/05 Q1009 BECMG 0600 FG
OVC001=
METAR COR LRSB 110300Z 17003KT 0350 R27/0450N FG VV001 M00/M00
Q1007=
METAR LRTR 110300Z 07009KT 0900 R11/1000U -DZ FG VV002 03/03 Q1006=


700 
SAFR34 LFPW 110300 RRA
METAR LFRD 110300Z AUTO 25005KT 230V290 9999 FEW034 BKN040 BKN050
06/04 Q1017 TEMPO 4000 SHRA BKN020TCU=
METAR LFRN 110300Z AUTO 25005KT 9999 BKN036/// BKN043/// OVC130///
///TCU 05/04 Q1017 TEMPO 4000 BR BECMG SCT040=


701 
SAPO61 LPAM 110300
METAR LPMR 110300Z 32002KT 6000 SCT006 BKN020 12/11 Q1026=
METAR LPMT 110300Z 34007KT 9999 BKN018 14/12 Q1025=


702 
SAFR32 LFPW 110300 RRA
METAR LFBT 110300Z AUTO 35006KT 250V060 5000 RA BR FEW008///
BKN019/// OVC025/// ///CB 06/05 Q1020 TEMPO NSW BKN025=


703 
SAFR24 LFPW 110300 RRA
METAR LFYR 110300Z AUTO 25001KT 9000 NSC 00/M00 Q1016=


704 
SAUS17 KAWN 110300 RRE
METAR KAPG 110258Z AUTO 00000KT 9SM R22/5500FT BKN029 OVC036 08/03
      A3009 RMK AO2 CIG 029V036 BKN V SCT SLP193 60000 T00750034
      58001 $=
METAR KCEF 110256Z 00000KT 10SM FEW060 SCT200 M02/M04 A3015 RMK AO2A
      SLP219 T10241041 50001=
METAR KHLR 110258Z AUTO 23006KT 6SM HZ CLR 23/18 A2977 RMK AO2 SLP071
      T02290180 52022=
METAR KHUA 110258Z AUTO 20016G20KT 10SM BKN013 BKN021 21/20 A2986 RMK
      AO2 RAB14E25 SLP110 P0000 60000 T02100201 58013=
METAR KIWA 110255Z VRB04KT 10SM CLR 13/07 A3012=
METAR KNJM 110257Z AUTO 20003KT 8SM BKN013 BKN065 OVC080 18/15 A3015
      RMK AO2 SLP211 60000 T01780150 50001 $=
METAR KNRS 110256Z AUTO 00000KT 10SM CLR 09/08 A3014 RMK AO2 SLP205
      T00940078 50007 $=
METAR KNRS 110256Z AUTO 00000KT 10SM CLR 09/08 A3014 RMK AO2 SLP205
      T00940078 50007 $=


705 
SAFR33 LFPW 110300 RRA
METAR LFMV 110300Z AUTO 34024KT CAVOK 05/00 Q1010 BECMG 34015G30KT=


706 
SAFR35 LFPW 110300 RRA
METAR LFGJ 110300Z AUTO 23008KT 9999 BKN030 BKN044 OVC100 02/01
Q1013=
METAR LFMH 110300Z AUTO VRB01KT 9999 SCT020 BKN027 OVC042 02/M00
Q1014=
METAR LFRG 110300Z AUTO 31004KT 280V350 9999 BKN028 BKN130 06/02
Q1015=


707 
SAFR22 LFPW 110300 RRA
METAR LFKS 110300Z AUTO 35008KT 9999 SCT064/// OVC076/// ///TCU
09/01 Q0998=
METAR LFMC 110300Z AUTO 30013KT 280V340 9999 ////// 07/M04 Q1004=


979 
SPZZ40 KAWN 110304
SPECI CYAH 110302Z AUTO 24018G25KT 4SM -SN BKN024 OVC029 M08/M12 A2975
      RMK SLP102=
SPECI CYEK 110302Z AUTO 10012KT 9SM OVC040 M08/M11 A2912 RMK SLP864=
SPECI CYGV 110259Z AUTO 21007KT 2 1/4SM -SN BKN013 OVC019 M05/M06 A3008
      RMK VIS VRB 1 1/4-3 SLP191=
SPECI CYPX 110302Z AUTO 10018G23KT 6SM -SN SCT050 OVC071 M16/M18 A2951
      RMK SLP998=
SPECI CYQG 110301Z AUTO 09008KT 310V120 1 1/4SM RA BR OVC016 07/07
      A2969 RMK VIS VRB 3/4-1 1/2 SLP061=
SPECI CYWA 110301Z AUTO 11004KT 080V140 9SM BKN010 OVC017 M02/M04 A3002
      RMK SLP174=
SPECI CYXS 110301Z AUTO 18028G36KT 5SM -SN CLR M02/M07 A2912 RMK PRESFR
      SLP893=
SPECI EHWO 110256Z AUTO VRB02KT 9999 SCT023 OVC031 05/05 Q1008 WHT=
SPECI ETOU 110301Z AUTO 31006KT 9999 BKN028 OVC041 02/M02 A2973 RMK
      AO2 CIG 028V041 BKN V SCT SLP077 FZRANO $=
SPECI KFRI 110252Z AUTO 30014G24KT 10SM OVC021 01/M04 A2967 RMK AO2
      PRESRR SLP052=
SPECI KGUS 110301Z 16019G24KT 2 3/4SM BR OVC002 14/13 A2945 RMK AO2A
      VIS 2 3/4V4 SLP977 $=
SPECI KNMM 110254Z AUTO 18009KT 10SM SCT017 BKN022 OVC043 22/21 A2993
      RMK AO2=
SPECI KTCM 110257Z 19018G25KT 7M -RA FEW020 SCT036 BKN044 07/04 A2988
      RMK AO2A RAB57 SLP124 RVRNO $=
METAR OEPS 110256Z 25004KT 9000 HZ SCT280 10/M00 A3034 RMK AO2A SLP259
      WND DATA ESTMD T00991003 52012=
SPECI WBKK 110245Z 29003KT 240V350 7000 -RA FEW013 FEW016CB SCT035
      25/25 Q1011 RERA NOSIG=
SPECI YSNF 110300Z AUTO 04015KT 9999 // BKN010 25/22 Q1012 RF00/0/000/0=


388 
SARO33 LROM 110300
METAR LRBC 110300Z 01003KT 5000 BR FEW014 BKN017 03/03 Q1007=
METAR LRCV 110300Z 03008KT 0500 R27/0600N FG VV001 04/03 Q1006=
METAR LRIA 110300Z 31010KT 8000 -RA BKN004 06/05 Q1006=
METAR LRSV 110300Z 34009KT 9999 -RA BKN050 04/04 Q1005=
METAR LRTC 110300Z AUTO 21017KT 9999 SCT028/// 08/05 Q1009=


393 
SAMX52 MMGL 110300
METAR MMAS 110303Z RTD 35005KT 10SM  FEW200 14/M06 A3024 
      RMK SLP/// 5//// 9// 6//// 8/002=





TX_OPMET


439 
SALJ31 LJLJ 110300
METAR LJLJ 110300Z 29006KT 4000 BR SCT002 OVC010 M02/M02 Q1003 NOSIG=
METAR LJMB 110300Z AUTO 05007KT 4900 BR NCD M03/M04 Q1005=
METAR LJPZ 110300Z AUTO 02007KT 9999 NCD 06/M00 Q1000=


451 
SALJ32 LJLJ 110300
METAR LJCE 110300Z AUTO 18002KT 1700 FG OVC012/// M00/M00 Q1004=


476 
SARO32 LROM 110300
METAR LRAR 110300Z 08005KT 4300 BR FEW002 OVC010 04/03 Q1006=
METAR LRBM 110300Z AUTO 00000KT 0400 R09/0450N FG BKN003/// 03/03
Q1007=
METAR LRCL 110300Z VRB02KT 3000 BR OVC002 03/03 Q1007=
METAR LROD 110300Z 07001KT 5000 BR BKN015 04/04 Q1007=
METAR LRSM 110300Z AUTO 00000KT 0750 R19/0900U FG VV002 04/03 Q1008=
METAR LRTM 110300Z AUTO 00000KT 0450 R07/0500N FG VV001 03/03 Q1007=


479 
SAFR37 LFPW 110300 RRA
METAR LFOV 110300Z AUTO VRB03KT CAVOK 03/02 Q1016=
METAR LFRI 110300Z AUTO 27003KT CAVOK 05/04 Q1018=
METAR LFRM 110300Z AUTO VRB01KT CAVOK 02/02 Q1016=
METAR LFRO 110300Z AUTO 27004KT CAVOK 08/05 Q1018=
METAR LFRV 110300Z AUTO 30005KT CAVOK 07/04 Q1017=
METAR LFSG 110300Z AUTO 28009KT 9999 -SNRA OVC010 02/01 Q1009=


482 
SAAU60 AMMC 110300 CCA
METAR YBBN 110300Z 10009KT 9999 FEW035 27/19 Q1010=




506 
SAPO33 LPMG 110300
METAR LPBJ 110300Z 31008KT 6000 BCFG SCT005 10/10 Q1025=
METAR LPCS 110300Z NIL=


507 
SAHW31 KMSC 110304
SPECI PHNY 110303Z AUTO 03011KT 10SM BKN026 22/21 A3008 RMK AO2=


508 
SAPO31 LPMG 110300
METAR LPFR 110300Z 29007KT 9999 FEW025 15/11 Q1024=
METAR LPMA 110300Z 03012KT 9999 BKN015 SCT030 18/10 Q1027=
METAR LPPR 110300Z 12005KT 9999 FEW008 BKN030 10/10 Q1027=
METAR LPPS 110300Z 05008KT 9999 SCT014 18/12 Q1027=
METAR LPPT 110300Z 36005KT 280V050 9999 FEW009 BKN012 14/13 Q1026=


509 
SAPO32 LPMG 110300
METAR LPAZ 110300Z 16008KT 9999 FEW020 16/14 Q1028=
METAR LPPD 110300Z 19008KT 9999 FEW012 17/15 Q1028=


538 
SAUS46 KSGX 110304 COR
MTRNRS
METAR KNRS 110256Z AUTO 00000KT 10SM CLR 09/08 A3014 RMK AO2 SLP205 
T00940078 50007 $


376 
SAIN90 VIAR 110300
METAR VIAR 110300Z 00000KT 0800 R34/2000 MIFG FEW100 09/09 Q1019
NOSIG=

377 
SAIN90 VAUD 110300
METAR VAUD 110300Z 00000KT 2500 BR NSC 11/07 Q1021 NOSIG=

382 
SAIN90 VOCI 110300
METAR VOCI 110300Z 10003KT 4500 HZ NSC 25/21 Q1012 BECMG 5000 HZ=

383 
SAIN90 VEBS 110300
METAR VEBS 110300Z 02003KT 3500 HZ NSC 24/18 Q1018 NOSIG=

384 
SAIN90 VEGT 110300
METAR VEGT 110300Z 00000KT 3000 HZ FEW020 21/15 Q1019 NOSIG=

385 
SARA39 UUUJ 110300
METAR UERP 110300Z VRB01MPS CAVOK M36/M40 Q1015 R35/850245 NOSIG RMK
QFE718=
METAR UERR 110300Z 25003MPS 9999 -SN SCT013 M28/M31 Q1018 R25/390332
NOSIG RMK QFE732/0977=
METAR UOOO 110300Z 07003MPS 8000 NSC M25/M28 Q1019 R01/39//45 NOSIG
RMK QFE749/0999=


387 
SARS35 UUUJ 110300
METAR USPP 110300Z 26002MPS 9999 SCT009 M17/M19 Q1036 R21/490150
NOSIG RMK QFE766=
METAR UWKD 110300Z 36005MPS CAVOK M15/M18 Q1035 R11/420345 NOSIG RMK
QFE766/1021=
METAR UWKE 110300Z 04008MPS 9999 SCT006 M14/M16 Q1033 R03/320055
NOSIG RMK OBST OBSC QFE758/1011=
METAR UWKS 110300Z 03003MPS CAVOK M19/M21 Q1036 R06/850342 NOSIG RMK
QFE761=
METAR UWLW 110300Z 01006MPS 4500 -SN OVC009 M10/M12 Q1033 R02/550348
NOSIG RMK QFE768=
METAR UWOR 110300Z 03007MPS CAVOK M11/M14 Q1021 R07/990229 NOSIG RMK
QFE741/0988=
METAR UWOO 110300Z 05004MPS 9999 BKN049 M04/M08 Q1023 R08/820550
NOSIG RMK QFE756/1008=
METAR UWSG 110300Z 03005MPS 9999 OVC011 M03/M05 Q1029 R08/CLRD70
NOSIG RMK QFE770/1026=
METAR UWWW 110300Z 01007MPS 9999 BKN009 M08/M11 Q1030 R33/CLRD60
NOSIG RMK QFE761/1015=

388 
SAIN90 VASU 110300
METAR VASU 110300Z 06006KT 2500 BR NSC 21/17 Q1016 NOSIG=

389 
SAIN90 VOSM 110300
METAR VOSM 110300Z 00000KT 5000 BR SCT020 SCT100 25/21 Q1015 NOSIG=

390 
SAIN90 VEJS 110300
METAR VEJS 110300Z 00000KT 1500 BR NSC 20/17 Q1019 =

391 
SAIN31 VOMM 110300
METAR VOBL 110300Z 09008KT 5000 BR SCT008 SCT012 21/19 Q1019 BECMG
    6000=
METAR VOCB 110300Z 05005KT 2000 BR FEW008 SCT012 24/22 Q1017 NOSIG=
METAR VOCI 110300Z 10003KT 4500 HZ NSC 25/21 Q1012 BECMG 5000 HZ=
METAR VOCL 110300Z 08005KT 5000 HZ FEW015 26/20 Q1013 NOSIG=
METAR VOHS 110300Z NIL=
METAR VOML 110300Z 09004KT 6000 NSC 26/20 Q1013 NOSIG=
METAR VOMM 110300Z 01003KT 4000 BR SCT018 FEW025TCU SCT100 27/26
    Q1015 NOSIG=
METAR VOTR 110300Z 01006KT 3000 BR FEW016 SCT100 27/24 Q1015 BECMG
    5000 BR=
METAR VOTV 110300Z 00000KT 4000 BR FEW015 30/24 Q1012 BECMG 5000 HZ=

392 
SAIN90 VOBZ 110300
METAR VOBZ 110300Z 06010G20KT 4500 HZ FEW015 26/22 Q1016 NOSIG=

393 
SARA31 UUUJ 110300
METAR UEEE 110300Z 04001MPS 9999 -SN NSC M30/M34 Q1027 R23L/490150
NOSIG RMK QFE761=
METAR USDA 110300Z 11005MPS 9999 -SN FEW007 M21/M22 Q1019 R04/420350
NOSIG RMK QFE763/1018=

394 
SAIN90 VOBL 110300
METAR VOBL 110300Z 09008KT 5000 BR SCT008 SCT012 21/19 Q1019 BECMG
6000=

396 
SAIN90 VEAT 110300
METAR VEAT 110300Z 00000KT 2500 BR NSC 20/18 Q1020 BECMG 3000 BR=

400 
SAIN90 VAID 110300
METAR VAID 110300Z 07004KT 2000 HZ NSC 15/09 Q1020 NOSIG=

402 
SAIN90 VAAH 110300
METAR VAAH 110300Z 05006KT 3000 HZ NSC 17/09 Q1018 NOSIG=

403 
SARA33 UUUJ 110300
METAR UIAA 110300Z 29005G11MPS 250V330 9999 NSC M12/M18 Q1024
R29/410160 NOSIG RMK QFE709/0946=
METAR UIBB 110300Z 25004MPS 210V270 9999 BKN018CB M18/M20 Q1033
R30/450340 NOSIG RMK QFE731/0974=
METAR UIII 110300Z 29003MPS 5000 -SHSN BKN010CB M11/M15 Q1038
R30/820550 NOSIG RMK QFE733/0977=
METAR UIUU 110300Z 30006MPS 9999 -SHSN BKN030CB M11/M17 Q1035
R26/450550 NOSIG RMK MT OBSC QFE731/0975=

406 
SARS32 UUUJ 110300
METAR URKA 110300Z 10004MPS CAVOK 09/04 Q1017 R04/010070 NOSIG RMK
QFE759/1012=
METAR URKK 110300Z 07004MPS CAVOK 04/03 Q1021 R05R/CLRD70 TEMPO
SCT006 RMK QFE762=
METAR URMG 110300Z 07003MPS 020V080 1800 R26/P2000D BR OVC003 04/04
Q1025 R26/090070 NOSIG RMK QBB090 MT OBSC OBST OBSC QFE754/1005=
METAR URML 110300Z 30002MPS 5000 BR BKN007 07/06 Q1025 R32/01//70
TEMPO 1500 BR BKN004 RMK MT OBSC QFE768/1025=
METAR URMM 110300Z 09005MPS 0300 0250NW R12/0750N -DZ FG VV002 04/03
Q1024 R12/090070 NOSIG RMK QBB070 MT OBSC OBST OBSC QFE739/0986=
METAR URMN 110300Z 25001MPS 0300 R24/0350 FG VV001 01/01 Q1023
R24/////// NOSIG RMK QBB030 MT OBSC OBST OBSC QFE730=
METAR URMO 110300Z AUTO 10002MPS 8000 ///////// M03/M03 Q1023 RMK
QFE724/0965=
METAR URMT 110300Z 14003MPS 0100 R25/0300N -DZ FG VV001 02/01 Q1023
R25/190060 NOSIG RMK QBB050 OBST OBSC QFE728=
METAR URRP 110300Z 10008MPS 9999 SCT011 01/M01 Q1026 R05/CLRD70 TEMPO
2000 BR SCT002 RMK QFE765/1020=
METAR URSS 110300Z 08006MPS 9999 NSC 08/01 Q1019 R06/010070
R02/010070 NOSIG RMK R02/04007G10MPS QFE763=
METAR URWA 110300Z 31004MPS 9999 BKN012 01/M01 Q1025 R27/010070 NOSIG
RMK QFE770/1027=
METAR URWI 110300Z AUTO 03004MPS 9999 // ///011/// M00/M02 Q1026=
METAR URWW 110300Z 07005MPS 9999 OVC010 M01/M03 Q1027 R06/010070
TEMPO 1000 -FZDZ BR OVC002=


409 
SAMN31 TNCM 110300
METAR TNCM 110300Z 05017KT 9999 SCT018 27/22 Q1016


410 
SARS31 UUUJ 110300
METAR ULWC 110300Z 00000MPS CAVOK M24/M26 Q1036 NOSIG RMK
QFE767/1023=
METAR UUBC 110300Z 11005MPS 9000 OVC004 M09/M10 Q1029 R31/820150
NOSIG RMK QBB140 QFE753/1004=
METAR UUBP 110300Z 10006MPS 9999 OVC005 00/M00 Q1023 R34/620255 NOSIG
RMK QFE750/1000=
METAR UUOB 110300Z 11006MPS 9999 OVC010 00/M01 Q1025 R11/190065
NOSIG=
METAR UUOK 110300Z 13006MPS 9000 OVC005 M00/M01 Q1025 R12///////
NOSIG RMK QBB170 QFE751/1001=
METAR UWGG 110300Z 32001MPS CAVOK M23/M26 Q1037 R36R/420045 NOSIG=
METAR UWLL 110300Z 36005MPS 9999 OVC007 M11/M12 Q1033 R02/920145
NOSIG RMK QFE762/1016=
METAR UWPS 110300Z 04003MPS CAVOK M14/M16 Q1032 R02/690345 NOSIG RMK
QFE753=


414 
SARA35 UUUJ 110300
METAR USCM 110300Z 03010G15MPS 7000 -SN OVC010 M08/M09 Q1025
R36/090060 TEMPO 02017MPS 2000 SN VV005 RMK QFE730=


416 
SAIN90 VOHY 110300
METAR VOHY 110300Z 08005KT 4000 BR FEW020 22/19 Q1021 BECMG 5000 HZ=

418 
SABY31 UMMN 110300
METAR UMBB 110300Z NIL=
METAR UMGG 110300Z 12010G14MPS 3200 -SHRA BR OVC004CB 06/05 Q1016
NOSIG RMK QBB120=
METAR UMII 110300Z NIL=
METAR UMMG 110300Z 28001MPS 4200 BR OVC003 01/00 Q1008 NOSIG RMK
QBB090=
METAR UMMS 110300Z 12008MPS 5000 -DZ OVC004 04/04 Q1010 NOSIG RMK
QBB120=
METAR UMOO 110300Z NIL=


569 
SPCN47 CWAO 110304
SPECI CYNA 110304Z AUTO 19007KT 2 1/2SM -RA -UP BR FEW014 OVC029 M05/M07 A3013 RMK ICE PAST HR SLP205=


640 
SARA34 UUUJ 110300
METAR UNAA 110300Z 26002MPS 9000 NSC M13/M16 Q1038 R20/CLRD65 NOSIG
RMK QFE756=
METAR UNBB 110300Z 19005MPS 9999 BKN039 M10/M15 Q1036 R24/450255
NOSIG RMK QFE755=
METAR UNEE 110300Z 15005MPS 9999 SCT033 M10/M13 Q1034 R23/820550
NOSIG RMK QFE753=
METAR UNKL 110300Z 19004MPS 9999 SCT038 M09/M14 Q1034 R29/410150
NOSIG RMK QFE750=
METAR UNNT 110300Z 17006MPS 9999 OVC047 M07/M12 Q1034 R25/810250
R16/810260 NOSIG RMK QFE765/1020=
METAR UNOO 110300Z 17002MPS 6000 NSC M13/M17 Q1027 R25/810555 NOSIG
RMK QFE762=
METAR UNTT 110300Z 19008MPS CAVOK M09/M12 Q1031 R21/420240 NOSIG RMK
QFE758=
METAR UNWW 110300Z 14003MPS 9999 BKN047 M10/M13 Q1037 R01/420545
NOSIG RMK QFE750=
METAR USTR 110300Z 31004MPS CAVOK M11/M14 Q1030 R30/350055 R21/350055
NOSIG=
METAR USHH 110300Z 27006MPS CAVOK M15/M17 Q1021 R24/390045 NOSIG=


648 
SARS39 UUUJ 110300
METAR UUBW 110300Z 09002MPS CAVOK M18/M20 Q1034 R30/820340 NOSIG=
METAR UUOL 110300Z 05004MPS 8000 BKN006 OVC015 M07/M08 Q1030
R15/090060 NOSIG=


653 
SARA36 UUUJ 110300
METAR UWUU 110300Z 01009MPS 9999 OVC013 M05/M08 Q1028 R32L/1///50
NOSIG=
METAR USCC 110300Z 36004MPS CAVOK M08/M10 Q1029 R27/390042 NOSIG RMK
QFE752=
METAR USNN 110300Z 29005MPS 9999 -SN OVC035 M09/M12 Q1014 R21/410834
NOSIG RMK QFE756=
METAR USRR 110300Z 26008MPS 9999 DRSN SCT011 BKN023 M13/M15 Q1016
R25/95//32 NOSIG RMK QFE756=
METAR USSS 110300Z 33001MPS CAVOK M12/M14 Q1032 R26R/820250
R26L/410250 NOSIG RMK QFE753/1004=


655 
SARA32 UUUJ 110300
METAR UHBB 110300Z 00000MPS 9000 -SN BKN033 M13/M14 Q1021 R36/490340
NOSIG RMK QFE748/0997=
METAR UHHH 110300Z 26005MPS 7000 -SHSN BKN019CB M06/M08 Q1020
R23R/490540 NOSIG RMK QFE759/1012=
METAR UHPP 110300Z 34002MPS CAVOK 01/M05 Q1022 R34L/310050 NOSIG RMK
QFE763/1017=
METAR UHWW 110300Z 36004MPS 9000 NSC 03/M06 Q1024 R25L/0///70 NOSIG
RMK QFE767=
METAR UHMA 110300Z 31009MPS 9999 DRSN VCFG BKN003 M26/M29 Q1025
R01/////// TEMPO 1500 BR BKN002 RMK TDZ R01/31009G10MPS END
R01/32007G09MPS QFE765/1020=
METAR UHMD 110300Z NIL=
METAR UHMM 110300Z 10001MPS 9999 NSC M24/M28 Q1025 R10/85//45 NOSIG
RMK QFE754 R28/10002MPS=
METAR UHSS 110300Z 17003MPS 9999 BKN006 BKN030CB 06/05 Q1015
R19/250255 NOSIG RMK MT OBSC QFE760/1013=


657 
SARS36 UUUJ 110300
METAR ULAA 110300Z 17002MPS 130V210 9999 FEW020 M15/M17 Q1033
R08/950550 NOSIG RMK QFE774/1032=
METAR ULMM 110300Z 21003MPS 9999 -SHSN BKN030CB M07/M09 Q1018
R13/490138 NOSIG RMK QFE757=
METAR ULOO 110300Z 09003MPS 050V150 9999 OVC008 M01/M02 Q1017
R01/790529 NOSIG RMK QFE759=
METAR ULPB 110300Z AUTO 08002MPS 9999 // ///////// M13/M15 Q1031 RMK
QFE770/1026=
METAR UMKK 110300Z 21002MPS 4700 BR OVC014 01/01 Q1008 R24/290095
NOSIG RMK QFE755/1007=
METAR UUOO 110300Z 08003MPS 9999 OVC010 M02/M05 Q1028 R12/010070
NOSIG RMK QFE757=
METAR UUYY 110300Z 22003MPS 9999 FEW005 M19/M21 Q1038 R18/420345
NOSIG RMK QBB150 QFE770/1027=


660 
SARS33 UUUJ 110300
METAR ULLI 110300Z 11007MPS 9999 BKN046 M07/M10 Q1024 R10R/410550
NOSIG=
METAR UUDD 110300Z 08003MPS CAVOK M20/M22 Q1032 R14R/450242 NOSIG=
METAR UUDL 110300Z 09001MPS 9999 SCT003 M21/M24 Q1037 R23/850345
NOSIG RMK QBB090 QFE770=
METAR UUEE 110300Z 09006MPS 9999 SCT004 M17/M19 Q1032 R06R/420245
R06C/410245 R06L/410245 NOSIG=
METAR UUWW 110300Z 11004MPS CAVOK M16/M19 Q1031 R06/410250 TEMPO
FEW004=
METAR UUMO 110300Z 11004MPS CAVOK M17/M19 Q1032 R07/810350 NOSIG RMK
QFE759/1012=


032 
SAAO21 DRRN 110300
METAR DNAA 110300Z NIL=
METAR DNCA 110300Z NIL=
METAR DNEN 110300Z NIL=
METAR DNMM 110300Z 00000KT 5000 HZ NSC 26/25 Q1008 NOSIG=
METAR DNAK 110300Z NIL=
METAR DNKN 110300Z 03003KT 5000 HZ NSC 14/04 Q1014 NOSIG=
METAR DNBE 110300Z NIL=
METAR DNGO 110300Z NIL=


037 
SAKO31 RKSI 110300
METAR RKSI 110300Z 04004KT 6000 FEW014 BKN130 06/04 Q1027 NOSIG=
METAR RKSS 110300Z 26002KT 1700 1000SE R32L/1100N R32R/1800N BR
          BKN005 05/05 Q1027 BECMG 3500=
METAR RKPC 110300Z 33006KT 300V360 8000 BKN025 12/08 Q1027
          NOSIG=
METAR RKPK 110300Z 29005KT CAVOK 14/02 Q1025=
METAR RKTU 110300Z 15001KT 1800 BR FEW000 SCT004 BKN025 06/06
          Q1027=
METAR RKTN 110300Z 27003KT 8000 NSC 12/03 Q1026=
METAR RKJB 110300Z 30003KT 270V330 3500 BR BKN030 11/06 Q1027
          NOSIG=
METAR RKNY 110300Z 31007KT CAVOK 12/M00 Q1024 NOSIG=


139 
SANA35 KAWN 110300 RRD
METAR KNGP 110256Z AUTO 18011G21KT 7SM FEW009 BKN018 25/23 A2979 RMK
      AO2 SLP087 T02500233 51019 $=
METAR KNGU 110259Z 00000KT 5SM BR SCT009 BKN023 OVC029 12/10 A3012
      RMK AO2 RAB43E51 SLP198 P0000 60000 T01170100 58009 $=
METAR KNHK 110252Z 12004KT 10SM OVC036 11/08 A3008 RMK AO2 SLP186 60000
      T01060083 56007 $=
METAR KNJM 110257Z AUTO 20003KT 8SM BKN013 BKN065 OVC080 18/15 A3015
      RMK AO2 SLP211 60000 T01780150 50001 $=
METAR KNPA 110256Z 16008KT 5SM BR OVC004 22/21 A3002 RMK AO2 SLP168
      T02170206 51009 $=
METAR MKJS 110300Z 10008KT 9999 FEW022 26/21 Q1015=
METAR MMVR 110248Z 00000KT 4SM OVC012 24/24 A2989 RMK SLP093 52022
      987 8/6// HZ=
METAR MTPP 110259Z AUTO 11006KT 8000 ////// 25/21 Q1014 A2996 NOSIG=
METAR MYGF 110300Z AUTO 06003KT //// R06///// // NCD 21/20 A3014=
METAR MYNN 110300Z 09005KT 9999 FEW020 25/21 A3014=
METAR SAWH 110300Z 09013KT 9999 FEW015 BKN025 08/06 Q1010=
METAR SAZS 110300Z 30016KT CAVOK 17/07 Q1008 RMK PP///=
METAR SKBQ 110300Z 03010KT CAVOK 27/22 Q1008 NOSIG RMK A2977=
METAR SKSP 110300Z 08008KT 050V120 9999 FEW015 BKN200 27/23 Q1012 RMK
      A2990=
METAR SPQU 110300Z VRB02KT 9999 SCT007 SCT015 11/09 Q1027 NOSIG RMK
      PP000=
METAR SPRU 110300Z 14006KT 8000 VCFG OVC050 19/15 Q1014 RMK PP000=
METAR SPSO 110300Z 21012KT 9999 BKN080 19/16 Q1014 RMK PP000=
METAR TBPB 110300Z 06014KT 9999 FEW022 26/22 Q1011 NOSIG=
METAR TFFF 110300Z AUTO 09007KT 9999 FEW022 SCT062 25/22 Q1013 TEMPO
      4000 SHRA SCT018TCU=
METAR TFFR 110300Z AUTO 08007KT 9999 FEW024 26/22 Q1013 TEMPO 4000
      SHRA SCT018TCU SCT025=


291 
SAIQ01 ORBI 110303
METAR ORER 110300Z 32003KT 8000 NSC 03/00 Q1025=


301 
SPAK32 KWBC 110305
SPECI
PABA 110302Z AUTO 28028KT 1/4SM +SN FZFG OVC021 M19/M21 A2936=


304 
SPNL31 KWBC 110305
SPECI
EHWO 110256Z AUTO VRB02KT 9999 SCT023 OVC031 05/05 Q1008 WHT=


315 
SAIR32 OIII 110300 RRA
METAR OINZ 110300Z 06002KT 1500 BR NSC 11/10 Q1025=


316 
SPUS81 KWBC 110305
SPECI
KFNT 110301Z 11014KT 3SM RA BR BKN007 BKN025 OVC041 05/04 A2961=


319 
SPAU31 KWBC 110305
SPECI
YSNF 110300Z AUTO 04015KT 9999 // BKN010 25/22 Q1012 RF00/0/000/0=


323 
SPAW31 KWBC 110305
SPECI
OEPS 110256Z 25004KT 9000 HZ SCT280 10/M00 A3034 RMK AO2A SLP259
WND DATA ESTMD T00991003 52012=


327 
SPCN31 CWAO 110303
SPECI CYQM 110303Z 18009KT 10SM -SN OVC026 M02/M04 A3018 RMK SC8 SLP228=


495 
SAAO23 DRRN 110300
METAR DNSU 110300Z NIL=
METAR DNPO 110300Z NIL=
METAR DNSO 110300Z NIL=
METAR DNYO 110300Z NIL=
METAR DNZA 110300Z NIL=
METAR DXXX 110300Z NIL=
METAR DXNG 110230Z NIL=
METAR DXSK 110300Z NIL=


497 
SAAP32 FAPR 110300
METAR FALA 110300Z AUTO 10008KT //// // ////// 19/13 Q1021=
METAR FAPP 110300Z 18001KT 8000 NSC 18/15 Q1018 NOSIG=


498 
SAAP36 FAPR 110300
METAR FQBR 110300Z 35003KT 9999 SCT018 25/23 Q1011=
METAR FQIN 110300Z 00000KT 9999 FEW020 SCT025 24/23 Q1012=
METAR FQLC 110300Z 06008KT 9999 FEW017 18/14 Q1019=
METAR FQMA 110300Z 10006KT 9999 SCT025 25/24 Q1011 NOSIG=
METAR FQNP 110300Z 02008KT CAVOK 22/19 Q1014=
METAR FQTT 110300Z 13004KT CAVOK 29/17 Q1011=


500 
SAIY36 LIIB 110300
METAR LIPF 110300Z NIL=
METAR LIQN 110300Z NIL=
METAR LIQW 110300Z NIL=
METAR LIRG 110300Z NIL=
METAR LIRH 110300Z NIL=
METAR LIRL 110300Z NIL=
METAR LIRM 110255Z /////KT 9999 SCT025 SCT040 09/06 Q0992=
METAR LIRS 110255Z 35007KT 9999 FEW020 06/02 Q0996=
METAR LIRV 110300Z NIL=


501 
SAAP33 FAPR 110300
METAR FAPE 110300Z 25007KT 9999 FEW005 BKN008 20/19 Q1007 TEMPO
     SCT009=
METAR FAUP 110300Z 25005KT CAVOK 16/05 Q1013 NOSIG=


505 
SAIY35 LIIB 110300
METAR LICG 110300Z NIL=
METAR LICT 110255Z 27026KT 9999 SCT016 13/05 Q1002=
METAR LIMG 110300Z NIL=
METAR LIMP 110300Z NIL=
METAR LIRJ 110300Z NIL=
METAR LIRU 110300Z NIL=


506 
SAAP31 FAPR 110300
METAR FACT 110300Z 32004KT 300V360 9999 SCT005 BKN012 16/15 Q1011
     BECMG BKN025=
METAR FAEL 110300Z 34007KT 310V010 CAVOK 22/18 Q1006=
METAR FAGG 110300Z 26010KT 5000 -RA SCT004 BKN011 OVC018 17/17 Q1009=
METAR FAHS 110300Z AUTO 18004KT //// // ////// 22/19 Q1015=
METAR FAKM 110300Z 06006KT 9999 TS FEW050CB SCT080 16/14 Q1016=
METAR FAKN 110300Z AUTO 19004KT //// // ////// 17/15 Q1018=
METAR FALE 110300Z 20009KT 9999 SCT014 BKN020 22/19 Q1011 NOSIG=
METAR FAOR 110300Z 11005KT 9999 SCT040 16/13 Q1023 NOSIG RMK CB TO
     S/E=


507 
SAAO24 DRRN 110300
METAR DBBB 110300Z 23008KT 9999 FEW011 28/25 Q1007 NOSIG=
METAR FTTJ 110300Z NIL=
METAR FTTC 110300Z NIL=
METAR FTTY 110300Z NIL=
METAR FTTD 110300Z NIL=
METAR FTTA 110300Z 00000KT CAVOK 18/14 Q1008=
METAR DFOO 110300Z 01004KT 8000 NSC 21/05 Q1010=
METAR DFFD 110300Z 03005KT CAVOK 21/00 Q1010 NOSIG=


508 
SATS32 DTTA 110300
METAR DTKA 110300Z AUTO 30015KT CAVOK 10/09 Q1009=
METAR DTTF 110300Z 24012KT CAVOK 09/02 Q1011 NOSIG=
METAR DTTG 110300Z 23015KT 5000 NSC 10/01 Q1011 NOSIG=
METAR DTTX 110300Z 23007KT 8000 NSC 12/03 Q1008=
METAR DTTZ 110300Z 26009KT CAVOK 10/02 Q1011=


509 
SACZ43 LKPW 110300
METAR LKCV 110300Z 23005KT 9999 OVC020 M00/M03 Q1006 NOSIG=
METAR LKKB 110300Z 14006KT 9999 OVC014 M01/M03 Q1005=
METAR LKLN 110300Z AUTO VRB02KT 3500 -SN OVC014 M01/M02 Q1004=
METAR LKNA 110300Z 14005KT 0100 R12/0400 FZFG VV001 M02/M02 Q1005=
METAR LKPD 110300Z 28002KT 9999 OVC018 M00/M02 Q1006=


510 
SAAO20 DRRN 110300
METAR DRRM 110300Z NIL=
METAR DRRN 110300Z 07005KT 8000 NSC 21/M05 Q1009 NOSIG=
METAR DRRT 110300Z NIL=
METAR DRZA 110300Z NIL=
METAR DRZR 110300Z NIL=
METAR DGAA 110300Z NIL=
METAR DGTK 110300Z NIL=
METAR DGSI 110300Z NIL=
METAR DGLE 110300Z NIL=


512 
SAMC33 GMMC 110300 RRA
METAR GMMB 110300Z AUTO 08006KT 9999NDV ////// 12/09 Q1025 NOSIG=


625 
SAUS44 KLIX 110305 COR
MTRNBG
METAR KNBG 110255Z 17009KT 9SM FEW015 SCT030 SCT045 23/22 A2996 RMK 
AO2 SLP145 T02330222 50008 $


711 
SAZZ40 KAWN 110300 RRO
METAR BIAR 110300Z 17004KT 140V200 CAVOK M08/M09 Q0990=
METAR BIEG 110300Z 00000KT 9999 BKN036 M05/M07 Q0993=
METAR BIKF 110300Z 11032G43KT 5000 -RA OVC009 04/02 Q0977=
METAR BIRK 110300Z 10019G29KT 9999 -RA OVC033 03/M01 Q0978=
METAR CYBR 110300Z 24009KT 15SM FEW250 M15/M17 A2967 RMK CI2 SLP091=
METAR K79J 110256Z AUTO VRB04KT 10SM BKN014 OVC021 23/21 A3004 RMK
      AO2 SLP167 T02330206 51004=
METAR KFFO 110256Z 16010KT 3SM BR OVC004 14/14 A2971 RMK AO2A CIG 003
      RWY05L SLP064 60001 T01380136 57035=
METAR KNHK 110252Z 12004KT 10SM OVC036 11/08 A3008 RMK AO2 SLP186 60000
      T01060083 56007 $=
METAR KNPA 110256Z 16008KT 5SM BR OVC004 22/21 A3002 RMK AO2 SLP168
      T02170206 51009 $=
METAR KNUW 110256Z 15024G35KT 10SM SCT020 BKN025 OVC040 08/04 A2980
      RMK AO2 PK WND 15040/0205 SLP092 T00830044 56048 PNO=
METAR KNZY 110252Z 31003KT 10SM FEW035 12/09 A3013 RMK AO2 SLP202 T01220089
      50006=
METAR LKKV 110300Z 11003KT 9999 -SN BKN008 OVC018 M02/M03 Q1003=
METAR LQBK 110300Z 36004KT 2000 BR OVC004 02/02 Q1003 NOSIG=
METAR LQTZ 110300Z 32003KT 0100 R09/0400N FZFG VV001 M00/M00 Q1001=
METAR OIAW 110300Z 27004KT 6000 NSC 11/06 Q1021=
METAR OIFM 110300Z 30004KT 5000 HZ FEW040 SCT200 M02/M07 Q1026 A3032=
METAR OIII 110300Z 31004KT CAVOK 05/M10 Q1024 A3024=
METAR OIKB 110300Z 02004KT 3000 BR NSC 13/11 Q1019 A3010 NOSIG=
METAR OIKK 110300Z 10004KT CAVOK M01/M14 Q1026 A3030=
METAR OIMM 110300Z 19004KT CAVOK 03/M00 Q1025 A3028=
METAR OISS 110300Z 00000KT CAVOK 01/M07 Q1024 A3027=
METAR OITT 110300Z 06006KT CAVOK M01/M03 Q1027 A3034=
METAR OIZH 110300Z 00000KT CAVOK 00/M14 Q1024 A3025 NOSIG=
METAR OJAI 110300Z 05005KT 6000 NSC 08/01 Q1021 NOSIG=


714 
SAEW KAWN 110300 RRF
METAR LFBA 110300Z AUTO 27004KT CAVOK 07/05 Q1019=
METAR LFBI 110300Z AUTO 28005KT CAVOK 03/02 Q1017 NOSIG=
METAR LFBL 110300Z AUTO 30006KT CAVOK 02/01 Q1016 TEMPO 0500 FG VV///=
METAR LFBO 110300Z AUTO 28011KT CAVOK 07/04 Q1018 NOSIG=
METAR LFBT 110300Z AUTO 35006KT 250V060 5000 RA BR FEW008/// BKN019///
      OVC025/// ///CB 06/05 Q1020 TEMPO NSW BKN025=
METAR LFBX 110300Z AUTO VRB02KT 9000 FEW016 00/00 Q1018=
METAR LFBZ 110300Z AUTO 30010KT 9999 BKN018 BKN024 BKN030 11/09 Q1021
      TEMPO RA BKN014 BKN020TCU=
METAR LFGJ 110300Z AUTO 23008KT 9999 BKN030 BKN044 OVC100 02/01 Q1013=
METAR LFKS 110300Z AUTO 35008KT 9999 SCT064/// OVC076/// ///TCU 09/01
      Q0998=
METAR LFLW 110300Z AUTO 28004KT 250V310 9999 ////// 01/00 Q1015=
METAR LFLX 110300Z AUTO 25006KT CAVOK 00/M00 Q1016 TEMPO 0600 FG VV///=
METAR LFMC 110300Z AUTO 30013KT 280V340 9999 ////// 07/M04 Q1004=
METAR LFMH 110300Z AUTO VRB01KT 9999 SCT020 BKN027 OVC042 02/M00 Q1014=
METAR LFMI 110300Z AUTO 33013KT CAVOK 04/01 Q1010 BECMG 33020G30KT=
METAR LFMN 110300Z 34008KT CAVOK 05/M01 Q1002 NOSIG=
METAR LFOH 110300Z AUTO 34010KT 9999 FEW028 07/02 Q1015=
METAR LFOP 110300Z AUTO 29009KT 9999 FEW027 SCT200 03/01 Q1014=
METAR LFPO 110300Z 27007KT CAVOK 03/01 Q1013 NOSIG=
METAR LFPV 110300Z AUTO 28009KT CAVOK 02/01 Q1013 NOSIG=
METAR LFQB 110300Z AUTO 28015KT CAVOK 04/01 Q1012=
METAR LFRB 110300Z AUTO 21004KT 9999 FEW022 OVC050 07/06 Q1017 TEMPO
      4000 -RADZ BR=
METAR LFRC 110300Z AUTO 30006KT 280V340 9999 BKN030 BKN140 07/01 Q1015=
METAR LFRJ 110300Z AUTO 22007KT 9999 FEW024 SCT029 BKN042 07/06 Q1017=
METAR LFRZ 110300Z AUTO 27006KT CAVOK 07/05 Q1018 NOSIG=
METAR LFSI 110300Z AUTO 27012KT 9999 OVC023 04/02 Q1011=
METAR LFSN 110300Z AUTO 31004KT 9999 -SNRA OVC008/// ///TCU 02/01 Q1009=


715 
SAAU31 AMMC 110300
METAR YBAS 110300Z AUTO 14007KT 9999 // ////// 31/M01 Q1012=
METAR YBBN 110300Z 10009KT 9999 FEW035 27/19 Q1010=
METAR YBCS 110300Z AUTO 02007KT 9999 // NCD 31/24 Q1006=
METAR YBTL 110300Z AUTO 05013KT 9999 // NCD 33/23 Q1006=
METAR YMML 110300Z 13007KT 9999 SCT042 BKN049 20/10 Q1017=
METAR YPAD 110300Z 24012KT CAVOK 22/12 Q1015=
METAR YPCC 110300Z AUTO 23005KT 9999 // NCD 28/21 Q1012=
METAR YPDN 110300Z 01004KT 330V060 9999 FEW035 BKN240 32/23 Q1008=
METAR YPKU 110300Z AUTO 02005KT 300V040 9999 // SCT061 36/21 Q1007=
METAR YPLM 110300Z AUTO 16016KT 9999 // NCD 36/08 Q1010=
METAR YPPH 110300Z 25012KT 9999 SCT044 SCT065 24/12 Q1013=
METAR YPTN 110300Z AUTO 11004KT 9999 // NCD 36/19 Q1007=
METAR YPXM 110300Z AUTO 14006KT 9999 // BKN021 BKN032 28/23 Q1013=
METAR YSSY 110300Z 18026KT 9999 FEW035 SCT055 20/13 Q1014=



953 
SAAU36 YBBN 110300
METAR YAMB 110300Z AUTO 33006KT 9999 // NCD 30/06 Q1009=
METAR YPEA 110300Z AUTO 28012KT 230V290 9999 // SCT040 SCT046 OVC060
23/11 Q1014=
METAR YPTN 110300Z AUTO 11004KT 9999 // NCD 36/19 Q1007
RF00.0/000.0=
METAR YBTL 110300Z AUTO 05013KT 9999 // NCD 33/23 Q1006=
METAR YWLM 110300Z AUTO 20015G25KT 9999 // BKN036 OVC055 20/12 Q1014=


954 
SAAU32 YBBN 110300
METAR YBAS 110300Z AUTO 14007KT 9999 // ////// 31/M01 Q1012
RF00.0/000.0=
METAR YMAV 110300Z AUTO 12014KT 9999 // SCT052 21/11 Q1018
RF00.0/000.0=
METAR YBWW 110300Z AUTO 23005KT 170V270 9999 // NCD 27/08 Q1011
RF00.0/000.0=
METAR YBRM 110300Z AUTO 33010KT 9999 // SCT018 33/27 Q1007
RF00.0/000.0=
METAR YBLN 110300Z AUTO 19008KT 9999 // SCT038 OVC062 21/11 Q1014=
METAR YPXM 110300Z AUTO 14006KT 9999 // BKN021 BKN032 28/23 Q1013=
METAR YPCC 110300Z AUTO 23005KT 9999 // NCD 28/21 Q1012
RF00.0////./=
METAR YCFS 110300Z AUTO 14010KT 9999 // BKN058 OVC069 23/14 Q1012=
METAR YPKG 110300Z AUTO 13005KT 060V200 9999 // NCD 27/10 Q1011
RF00.0/000.0=
METAR YMLT 110300Z AUTO 14017KT 9999 // SCT033 OVC060 16/06 Q1022=
METAR YPLM 110300Z AUTO 16016KT 9999 // NCD 36/08 Q1010
RF00.0/000.0=
METAR YLHI 110300Z AUTO 26012KT 9999 // SCT027 25/19 Q1009
RF00.0/000.2=
METAR YSNF 110300Z AUTO 04015KT 9999 // BKN010 25/22 Q1012
RF00.0/000.0=
METAR YPPD 110300Z AUTO 36008KT 9999 // NCD 34/23 Q1006
RF00.0/000.0=
METAR YBRK 110300Z AUTO 14008KT 9999 // SCT040 SCT047 BKN069 32/22
Q1007=


955 
SACI31 ZBBB 110300
METAR ZBAA 110300Z VRB02G07MPS CAVOK 07/M02 Q1030 BECMG TL0420
33006MPS=
METAR ZBAD 110300Z VRB01MPS 1400 R35R/1700U R35L/2000U
R01L/1800U
R11L/1900U BR FEW006 04/04 Q1030 BECMG TL0340 2700=
METAR ZBSJ 110300Z 30002MPS 0500 R33/0650N FG VV020 03/03
Q1030
BECMG TL0430
0800=
METAR ZBTJ 110300Z 26002MPS 220V290 4000 HZ NSC 08/M02 Q1029 NOSIG=
METAR ZBYN 110300Z 19002MPS 1500 R31/1400N BR NSC 03/00 Q1030
NOSIG=
METAR ZGGG 110300Z VRB01MPS 8000 BKN060 22/14 Q1023 NOSIG=
METAR ZSHC 110300Z 07002MPS 350V140 1600 HZ NSC 14/09 Q1027 NOSIG=
METAR ZSPD 110300Z 06005MPS 020V090 CAVOK 16/09 Q1027 NOSIG=
METAR ZSSS 110300Z 11004MPS 080V150 7000 FEW026 15/08 Q1027 NOSIG=
METAR ZWSH 110300Z 32004MPS 9999 FEW040 M05/M14 Q1036 NOSIG=
METAR ZWWW 110300Z 27002MPS 2800 -SN BR BKN014 M13/M15 Q1040
BECMG
TL0350 3500 BR SCT020=
METAR ZYTL 110300Z 27004MPS CAVOK 08/M02 Q1028 NOSIG=
METAR ZYTX 110300Z 23003MPS 190V250 5000 BR NSC 02/M02 Q1026 NOSIG=


957 
SANG31 YBBN 110300
METAR AYPY 110300Z 32015KT 9999 SHRA SCT025 BKN045 29/24 Q1006==
METAR AYWK 110300Z NIL=
METAR AYVN 110300Z NIL=
METAR AYNZ 110300Z 13010KT 9999 HZ FEW035 SCT050 35/24 Q1003==
METAR AYMH 110300Z NIL=
METAR AYGN 110300Z NIL=
METAR AYMO 110300Z NIL=
METAR ANYN 110300Z VRB03KT 9999 FEW020 SCT040 BKN300 28/24 Q1008=
METAR AGGH 110300Z NIL=


958 
SAKZ32 UUUJ 110300
METAR UAAA 110300Z 20002MPS 2400 BR FEW200 M07/M08 Q1025 NOSIG=
METAR UACC 110300Z 07003MPS CAVOK M15/M20 Q1027 NOSIG RMK
QFE738/0985=
METAR UAII 110300Z 23006MPS 7000 NSC 06/M05 Q1023 NOSIG RMK
QFE732/0976=
METAR UAKK 110300Z 07004MPS CAVOK M14/M18 Q1026 NOSIG RMK
QFE722/0963=
METAR UATE 110300Z 30006MPS 270V340 9999 OVC013 06/03 Q1023 NOSIG RMK
QFE766/1021=
METAR UATG 110300Z 32006MPS 2900 RASN BR BKN005 OVC015 00/00 Q1020
NOSIG RMK QBB150 QFE767/1023=
METAR UATT 110300Z 05004MPS CAVOK M06/M10 Q1019 NOSIG RMK
QFE745/0993=


959 
SAAE31 VTBB 110300
METAR VTCT 110300Z VRB01KT 8000 FEW007 22/20 Q1020 NOSIG=
METAR VTSG 110300Z 01005KT 320V050 9999 FEW020 28/23 Q1014 NOSIG=
METAR VTBD 110300Z VRB03KT CAVOK 28/19 Q1016 NOSIG=
METAR VTBS 110300Z 07005KT 030V100 CAVOK 28/20 Q1016 NOSIG=
METAR VTCC 110300Z VRB02KT 9999 FEW035 24/18 Q1019 NOSIG=
METAR VTSP 110300Z 09009KT 050V110 9999 FEW020 29/23 Q1013 NOSIG=
METAR VTSS 110300Z 07010KT 040V100 9999 SCT020 BKN100 28/24 Q1014
      NOSIG=
METAR VTBU 110300Z 02008KT 9999 FEW025 30/19 Q1015 NOSIG=


960 
SAKZ31 UUUJ 110300
METAR UAAH 110300Z 07007MPS CAVOK M10/M19 Q1028 NOSIG RMK
QFE734/0978=
METAR UAAT 110300Z 04002MPS 360V070 9999 NSC M11/M15 Q1025 NOSIG RMK
QFE717/0956=
METAR UADD 110300Z 22004MPS 210V270 9999 NSC 05/M09 Q1020 NOSIG RMK
QFE707/0943=
METAR UACK 110300Z 12002MPS 070V180 CAVOK M11/M15 Q1026 NOSIG RMK
QFE745/0994=
METAR UACP 110300Z 28002MPS 9000 NSC M16/M18 Q1027 NOSIG RMK
QFE758/1010=
METAR UAIT 110300Z 12004MPS 9999 SCT030 M01/M07 Q1023 NOSIG RMK
QFE742/0990=
METAR UAOO 110300Z 24003MPS CAVOK M06/M08 Q1021 NOSIG RMK
QFE754/1006=
METAR UASK 110300Z 30002MPS 9999 FEW010 M20/M22 Q1038 NOSIG RMK
QFE752/1003=
METAR UASP 110300Z 15005MPS CAVOK M11/M15 Q1032 NOSIG RMK
QFE763/1017=
METAR UASS 110300Z 10004MPS CAVOK M15/M19 Q1037 NOSIG RMK
QFE759/1013=
METAR UARR 110300Z 01007MPS CAVOK M04/M06 Q1024 NOSIG RMK
QFE765/1020=
METAR UAUU 110300Z 03003MPS CAVOK M13/M16 Q1025 NOSIG RMK
QFE753/1004=
METAR UAKD 110300Z 08005MPS CAVOK M12/M16 Q1022 NOSIG RMK
QFE732/0977=


963 
SAPS33 NTAA 110300
METAR NTAA 110300Z 06009KT 9999 FEW026 SCT060 29/22 Q1013 NOSIG=


964 
SASD31 OEJD 110300 RRA
METAR OEJN 110300Z 11003KT 8000 NSC 25/00 Q1013 NOSIG=


965 
SAAU33 YBBN 110300
METAR YSDU 110300Z AUTO 20006KT 170V260 9999 // NCD 25/11 Q1013
RF00.0/000.0=
METAR YGEL 110300Z AUTO 24013KT 9999 // SCT037 SCT043 24/12 Q1015=
METAR YGLA 110300Z AUTO 07012KT 9999 // NCD 31/21 Q1008
RF00.0/000.0=
METAR YHID 110300Z AUTO 32010KT 9999 // SCT022 SCT034 BKN090 31/25
Q1006=
METAR YPJT 110300Z AUTO 21013KT 9999 // SCT030 SCT036 BKN050 22/13
Q1014=
METAR YSRI 110300Z AUTO 18008KT 9999 // OVC055 20/11 Q1014
RF00.0/000.0=
METAR YSTW 110300Z AUTO 23007KT 9999 // SCT049 OVC061 25/15 Q1012=
METAR YPWR 110300Z AUTO 36013KT 280V030 9999 // NCD 30/02 Q1013
RF00.0/000.0=


966 
SAIY37 LIIB 110300
METAR LIBC 110300Z NIL=
METAR LIBF 110300Z NIL=
METAR LIBG 110300Z NIL=
METAR LIMA 110300Z NIL=
METAR LIMS 110300Z NIL=
METAR LIPC 110255Z 31016KT 9999 BKN035 04/02 Q0999=
METAR LIRI 110300Z NIL=


967 
SAUR31 UKMS 110300
METAR UKLR 110300Z NIL=
METAR UKLI 110300Z NIL=
METAR UKON 110300Z NIL=
METAR UKLU 110300Z NIL=
METAR UKKK 110300Z 12005G10MPS 090V150 9000 -RA
         SCT006  OVC027 08/07 Q1013 TEMPO BKN004=
METAR UKKM 110300Z AUTO 11005MPS 8000 -SHRA OVC008CB
         08/06  Q1013=
METAR UKLN 110300Z NIL=
METAR UKOH 110300Z NIL=
METAR UKWW 110300Z NIL=


968 
SAAE33 VTBB 110300
METAR VLLB 110300Z 18002KT 9999 FEW010 FEW060 22/17 Q1019 NOSIG=
METAR VLLN 110300Z 27002KT 1000 BR OVC010 18/17 Q1021 NOSIG=
METAR VLPS 110300Z 22002KT 8000 NSC 26/17 Q1017 NOSIG=
METAR VLSK 110300Z 27008KT 6000 NSC 23/16 Q1021 NOSIG=


969 
SAAU35 YBBN 110300
METAR YCIN 110300Z AUTO 30007KT 250V350 9999 // NCD 36/24 Q1006
RF00.0/000.0=
METAR YFRT 110300Z AUTO 01016KT 9999 // NCD 39/04 Q1005
RF00.0/000.0=
METAR YPKU 110300Z AUTO 02005KT 300V040 9999 // SCT061 36/21 Q1007=
METAR YPGV 110300Z AUTO 15009KT 9999 // NCD 35/21 Q1007
RF00.0/000.0=


971 
SATD31 TTPP 110300
METAR TTCP 110300Z 06004KT 9999 FEW017 26/22 Q1010 NOSIG=
METAR TTPP 110300Z 00000KT 9999 FEW016 25/23 Q1010 NOSIG=


972 
SAAU31 YBBN 110300
METAR YPAD 110300Z 24012KT CAVOK 22/12 Q1015=
METAR YBBN 110300Z 10009KT 9999 FEW035 27/19 Q1010=
METAR YBCS 110300Z AUTO 02007KT 9999 // NCD 31/24 Q1006=
METAR YSCB 110300Z AUTO 20011KT 160V220 9999 // OVC053 19/08 Q1016=
METAR YPDN 110300Z 01004KT 330V060 9999 FEW035 BKN240 32/23 Q1008=
METAR YBCG 110300Z AUTO 13017KT 9999 // SCT033 27/18 Q1010
RF00.0/000.0=
METAR YMHB 110300Z NIL=
METAR YMML 110300Z 13007KT 9999 SCT042 BKN049 20/10 Q1017
RF00.0/000.0=
METAR YPPH 110300Z NIL=
METAR YSSY 110300Z 18026KT 9999 FEW035 SCT055 20/13 Q1014=


975 
SAAU34 YBBN 110300
METAR YBHM 110300Z AUTO 11010KT 9999 // BKN026 30/25 Q1007
RF00.0/000.0=
METAR YBMA 110300Z AUTO 17006KT 110V190 9999 // NCD 33/M06 Q1009
RF00.0/000.0=


054 
SAUS44 KJAN 110305
MTRNJW
METAR KNJW 110257Z AUTO 19011G19KT 10SM BKN011 BKN017 OVC047 22/20 
A2987 RMK AO2 SLP919 T02220200 50004


324 
SATH32 VTBB 110300
METAR VTSB 110300Z 04007KT 9999 FEW020 SCT100 29/24 Q1014 NOSIG=
METAR VTSC 110300Z 09009KT 060V120 9999 FEW020 29/23 Q1014 NOSIG =
METAR VTSE 110300Z 04007G19KT 310V110 9000 FEW020 SCT100 30/23 Q1014
      NOSIG=
METAR VTSF 110300Z 02003KT 9999 SCT018 30/24 Q1014 NOSIG=
METAR VTSM 110300Z 11003KT 9999 FEW020 29/23 Q1015=
METAR VTSR 110300Z VRB01KT 9999 BKN020 28/22 Q1013 NOSIG=
METAR VTST 110300Z 04007KT 010V080 9999 SCT030 28/23 Q1013 NOSIG=


327 
SAAE34 VTBB 110300
METAR VVCI 110300Z NIL=
METAR VVCR 110300Z 03013KT 9999 FEW015 28/19 Q1016 NOSIG=
METAR VVCT 110300Z 01004KT 9999 FEW015 BKN050 25/22 Q1014 NOSIG=
METAR VVDN 110300Z 31002KT 6000 SCT013 BKN050 22/21 Q1020 NOSIG=
METAR VVNB 110300Z NIL=
METAR VVPB 110300Z 25006KT 7000 SCT015 BKN050 22/20 Q1021 NOSIG=
METAR VVPQ 110300Z 03008KT 360V070 9999 FEW017 27/16 Q1014 NOSIG=
METAR VVTS 110300Z VRB02KT 7000 FEW017 BKN050 27/19 Q1014 NOSIG =


328 
SACI32 ZBBB 110300
METAR ZGKL 110300Z VRB01MPS 5000 HZ FEW030 BKN050 20/10 Q1024
NOSIG=
METAR ZGNN 110300Z 06003MPS 8000 NSC 20/16 Q1022 NOSIG=
METAR ZGOW 110300Z 06003G08MPS 010V120 CAVOK 23/13 Q1023 NOSIG=
METAR ZGSZ 110300Z 01003MPS 340V050 CAVOK 24/15 Q1022 NOSIG=
METAR ZLXY 110300Z 22003MPS 190V250 1700 BR FEW060 07/06 Q1034
BECMG
TL0440 3000=
METAR ZMCK 110300Z 00000MPS CAVOK M19/M23 Q1030 NOSIG RMK QFE655.8
73=
METAR ZMUB 110300Z VRB02MPS CAVOK M17/M21 Q1031 NOSIG RMK QFE664.6
70=
METAR ZPPP 110300Z 21006MPS 9999 FEW020 BKN040 14/10 Q1027 NOSIG=
METAR ZSAM 110300Z 04003MPS 010V090 9999 BKN033 21/12 Q1024 NOSIG=
METAR ZSFZ 110300Z 01003MPS 330V030 9999 BKN040 19/09 Q1025 NOSIG=
METAR ZSNB 110300Z VRB01MPS 2500 HZ NSC 15/08 Q1027 BECMG TL0430
3000=
METAR ZSQD 110300Z 33003MPS 2000 BR NSC 07/05 Q1030 NOSIG=
METAR ZUGY 110300Z 36003MPS 5000 -RA BR FEW004 BKN015 OVC023
08/07
Q1027 NOSIG=
METAR ZUTF 110300Z VRB01MPS 7000 BKN050 11/09 Q1029 NOSIG=
METAR ZUUU 110300Z 26002MPS 230V300 9999 SCT050 11/07 Q1030 NOSIG=


330 
SARS37 UUUJ 110300
METAR URFF 110300Z 22006MPS CAVOK 12/06 Q1015 R19/090095 NOSIG=

332 
SATH33 VTBB 110300
METAR VTUD 110300Z 10005KT 070V130 CAVOK 25/17 Q1019 NOSIG=
METAR VTUI 110300Z 10004KT 080V160 CAVOK 24/15 Q1019 NOSIG=
METAR VTUK 110300Z 06008KT 030V120 CAVOK 25/15 Q1019 NOSIG=
METAR VTUL 110300Z VRB02KT 9000 FEW025 24/19 Q1019 NOSIG=
METAR VTUO 110300Z 07010KT CAVOK 24/19 Q1018 NOSIG=
METAR VTUQ 110300Z 06007KT 340V100 CAVOK 24/18 Q1019 NOSIG=
METAR VTUU 110300Z 04006KT 350V090 CAVOK 26/17 Q1017 NOSIG =
METAR VTUV 110300Z 07010KT 040V110 CAVOK 26/17 Q1018 NOSIG=
METAR VTUW 110300Z 08006KT 020V120 CAVOK 25/16 Q1019 NOSIG=


335 
SATH31 VTBB 110300
METAR VTCH 110300Z 00000KT 9999 FEW020 23/18 Q1019 NOSIG=
METAR VTCL 110300Z VRB01KT CAVOK 26/18 Q1019 NOSIG=
METAR VTCN 110300Z VRB02KT CAVOK 24/19 Q1019 NOSIG=
METAR VTCP 110300Z 36004KT 290V060 9999 FEW030 25/19 Q1018 NOSIG=
METAR VTPH 110300Z 36007KT 310V060 CAVOK 29/20 Q1015 NOSIG=
METAR VTPO 110300Z VRB02KT 7000 NSC 24/20 Q1017 NOSIG=
METAR VTPP 110300Z VRB02KT CAVOK 28/18 Q1017 NOSIG=
METAR VTPB 110300Z 36005KT 310V060 CAVOK 27/18 Q1018 NOSIG=
METAR VTPM 110300Z VRB03KT 9999 FEW040 25/21 Q1018 NOSIG=
METAR VTBO 110300Z 03012KT CAVOK 31/20 Q1015=
METAR VTPT 110300Z /////KT 8000 NSC 26/20 Q//// NOSIG=


501 
SAAG01 SABM 110300 RRA
METAR SAME 110300Z  36005KT 9999  FEW040  22/17
Q1009=
METAR SARC 110300Z  14005KT CAVOK 24/16 Q1006=
METAR SAWE 110300Z 11011KT 9999 BKN006 09/08 Q1009=


710 
SAKU31 NCRG 110300
METAR NCRG 110300Z AUTO 12004KT 070V160 9999 BKN033/// 26/23 Q1013=


712 
SAPS31 NZKL 110300
METAR NIUE 110300Z AUTO 11008KT // 27/23 Q1012=
METAR NCAI 110300Z NIL=


713 
SAIN33 VECC 110300
METAR VECC 110300Z 00000KT 1000 R01R/1300 BR NSC 23/21 Q1018 NOSIG=
METAR VEGT 110300Z 00000KT 3000 HZ FEW020 21/15 Q1019 NOSIG=
METAR VEGY 110300Z 00000KT 0900 FG NSC 16/14 Q1020 BECMG 1500 BR=
METAR VEPT 110300Z 27004KT 1600 HZ NSC 14/09 Q1019 NOSIG=
METAR VGEG 110300Z 00000KT 3500 HZ FEW120 23/18 Q1017 NOSIG=
METAR VGHS 110300Z 00000KT 1800 BR FEW012 22/18 Q1019
    BECMG S/VIS 2000M=
METAR VNKT 110300Z NIL=
METAR VQPR 110300Z VRB02KT 5000 BR SCT015 05/M01 Q1027=


721 
SACI41 ZBBB 110300
METAR ZBHH 110300Z 34005MPS CAVOK M02/M11 Q1032 NOSIG=
METAR ZGHA 110300Z 32004MPS 290V360 1800 HZ NSC 15/09 Q1027 NOSIG=
METAR ZHCC 110300Z 27002MPS 1400 R30L/1800U R30R/P2000 BR
OVC030
08/06 Q1031 BECMG TL0340 1500=
METAR ZHHH 110300Z 03004MPS 340V060 2300 BR NSC 11/07 Q1028 NOSIG=
METAR ZJHK 110300Z 03005MPS 350V050 5000 -RA BR BKN010 OVC033
21/20
Q1021 BECMG TL0450 SCT010 BKN020=
METAR ZJSY 110300Z 20002MPS 150V250 CAVOK 27/18 Q1019 NOSIG=
METAR ZLLL 110300Z 04004MPS 9999 SCT013 M04/M08 Q1034 NOSIG=
METAR ZSNJ 110300Z 05003MPS 010V080 2100 BR BKN009 11/08 Q1028
BECMG
TL0430 3000 BKN010=
METAR ZSOF 110300Z 08003MPS 2000 BR SCT013 10/07 Q1028 NOSIG=
METAR ZUCK 110300Z 24002MPS 2200 -DZ BR FEW005 SCT009 OVC020
11/11
Q1028 NOSIG=
METAR ZYCC 110300Z 21004MPS 4000 BR NSC M02/M05 Q1024 NOSIG=
METAR ZYHB 110300Z 16003MPS 100V190 5000 BR NSC M03/M06 Q1024 NOSIG=


368 
SAKY31 UUUJ 110300
METAR UCFM 110300Z 11003MPS 2800 BR FU NSC M05/M07 Q1021 R08/0///95
NOSIG=
METAR UCFO 110300Z 16003MPS 4900 FU NSC 02/M11 Q1024 R12/0///95
NOSIG=
METAR UCFL 110300Z 34003MPS 9999 FEW030 M04/M11 Q1028 R07/CLRD95=


384 
SATA31 UUUJ 110300
METAR UTDD 110300Z 00000MPS 6000 NSC 04/M09 Q1024 R09/CLRD// NOSIG
RMK QFE699/0932=
METAR UTDK 110300Z 03001MPS 9999 NSC 04/M06 Q1024 R01/09//70 RMK
QFE710/0947=
METAR UTDL 110300Z 04002MPS 2500 BR NSC 03/M00 Q1025 R08/CLRD70 NOSIG
RMK QFE729/0973=
METAR UTDT 110300Z 00000MPS 6000 NSC 01/M02 Q1024 R35/////// RMK
QFE728/0971=


406 
SAAU32 AMMC 110300
METAR YAMB 110300Z AUTO 33006KT 9999 // NCD 30/06 Q1009=
METAR YBCG 110300Z AUTO 13017KT 9999 // SCT033 27/18 Q1010=
METAR YBHM 110300Z AUTO 11010KT 9999 // BKN026 30/25 Q1007=
METAR YBMA 110300Z AUTO 17006KT 110V190 9999 // NCD 33/M06 Q1009=
METAR YBRK 110300Z AUTO 14008KT 9999 // SCT040 SCT047 BKN069 32/22 Q1007=
METAR YBRM 110300Z AUTO 33010KT 9999 // SCT018 33/27 Q1007=
METAR YCIN 110300Z AUTO 30007KT 250V350 9999 // NCD 36/24 Q1006=
METAR YFRT 110300Z AUTO 01016KT 9999 // NCD 39/04 Q1005=
METAR YMAV 110300Z AUTO 12014KT 9999 // SCT052 21/11 Q1018=
METAR YMHB 110300Z 13009KT 9999 FEW040 BKN058 15/06 Q1024=
METAR YMLT 110300Z AUTO 14017KT 9999 // SCT033 OVC060 16/06 Q1022=
METAR YPEA 110300Z AUTO 28012KT 230V290 9999 // SCT040 SCT046 OVC060 23/11
     Q1014=
METAR YPGV 110300Z AUTO 15009KT 9999 // NCD 35/21 Q1007=
METAR YPKG 110300Z AUTO 13005KT 060V200 9999 // NCD 27/10 Q1011=
METAR YPPD 110300Z AUTO 36008KT 9999 // NCD 34/23 Q1006=
METAR YSCB 110300Z AUTO 20011KT 160V220 9999 // OVC053 19/08 Q1016=
METAR YSDU 110300Z AUTO 20006KT 170V260 9999 // NCD 25/11 Q1013=
METAR YSNF 110300Z AUTO 04015KT 9999 // BKN010 25/22 Q1012=
METAR YSRI 110300Z AUTO 18008KT 9999 // OVC055 20/11 Q1014=
METAR YWLM 110300Z AUTO 20015G25KT 9999 // BKN036 OVC055 20/12 Q1014=



407 
SATR31 UTAA 110300
METAR UTAA 110300Z 17002KT 4500 BR SCT050 BKN100 04/03 Q1025
R88/CLRD70 NOSIG=
METAR UTAK 110300Z 00000KT 6000 SCT033 04/03 Q1026 R16R/CLRD70 NOSIG=
METAR UTAV 110300Z 28004KT 4300 BR NSC 01/M00 Q1025 R31/CLRD70
NOSIG=
METAR UTAM 110300Z 00000KT CAVOK 04/02 Q1027 R88/CLRD70 NOSIG=
METAR UTAT 110300Z 24006KT 9999 OVC021 06/04 Q1024
R26/CLRD70 NOSIG=


462 
SAAY31 UUUJ 110300
METAR UDYZ 110300Z 05001KT 2000 R09/P2000N BR NSC M03/M04 Q1027
R09/010070 NOSIG=
METAR UDSG 110300Z 04001KT 8000 NSC M10/M11 Q1027 RMK R02/CLRD70
NOSIG=


472 
SPCN47 CWAO 110305
SPECI CYNA 110305Z AUTO 18006KT 2 1/2SM -FZRA BR FEW014 OVC029 M05/M06 A3012 RMK ICE SLP204=


616 
SAJP51 RJTD 110300 RRB
METAR RJOH 110300Z VRB02KT 9999 FEW015 SCT030 BKN050 13/10 Q1024=
METAR RJOK 110300Z VRB03KT 9999 FEW030 18/07 Q1024=
METAR RJOM 110300Z 24003KT 200V290 9999 FEW015 16/12 Q1024=
METAR RJOO 110300Z 18003KT 120V250 9999 FEW020 BKN070 15/08 Q1024=
METAR RJOR 110300Z VRB02KT 9999 FEW035 SCT080 17/08 Q1023=
METAR RJOS 110300Z 11003KT 070V190 9999 FEW030 15/10 Q1024=
METAR RJOT 110300Z 32003KT 210V020 9999 FEW030 16/08 Q1024=
METAR RJOW 110300Z 32003KT 250V040 9999 FEW020 SCT035 BKN070 16/10
           Q1024=
METAR RJOY 110300Z 24003KT 180V340 9999 FEW020 SCT120 15/09 Q1024=
METAR RJSA 110300Z 24005KT 190V260 9999 VCSH FEW020 BKN035 08/04
           Q1018=
METAR RJSC 110300Z 34005KT 9999 FEW020 SCT110 08/05 Q1021=
METAR RJSF 110300Z 32009KT 280V360 9999 FEW025 SCT040 12/03 Q1020=
METAR RJSI 110300Z VRB01KT 9999 FEW030 BKN040 07/03 Q1020=
METAR RJSK 110300Z 13004KT 090V190 9999 -SHRA VCFG FEW000 SCT030
           BKN045 06/04 Q1020=
METAR RJSM 110300Z VRB02KT 9999 FEW030 SCT040 11/02 Q1019=
METAR RJSN 110300Z 21012KT 9999 -SHRA FEW015 SCT030 BKN035 11/09
           Q1022=
METAR RJSR 110300Z VRB01KT 9999 -SHRA FEW012 SCT030 BKN045 07/04
           Q1020=
METAR RJSS 110300Z VRB02KT 9999 FEW020 10/04 Q1020=
METAR RJSY 110300Z 26012KT 9999 -SHRA FEW015 SCT030 BKN040 12/06
           Q1021=
METAR RJTF 110300Z 16003KT 060V230 9999 FEW030 SCT/// 14/03 Q1021=

617 
SAJP51 RJTD 110300
METAR RJAA 110300Z 21004KT 180V270 9999 FEW025 13/05 Q1021 NOSIG=
METAR RJAF 110300Z 03003KT 350V100 9999 FEW040 SCT070 08/01 Q1022=
METAR RJAH 110300Z 24006KT 9999 FEW030 13/03 Q1021=
METAR RJBB 110300Z VRB02KT 9999 FEW010 SCT080 14/10 Q1024 NOSIG=
METAR RJBD 110300Z 31008KT 270V340 9999 FEW030 17/07 Q1023=
METAR RJBE 110300Z 15003KT 100V220 9999 FEW020 SCT080 14/10 Q1024=
METAR RJBT 110300Z VRB02KT 9999 FEW030 SCT150 14/08 Q1023=
METAR RJCB 110300Z 17004KT 130V220 9999 FEW050 BKN/// 04/01 Q1017=
METAR RJCC 110300Z 18009KT 9999 FEW020 SCT050 BKN100 08/04 Q1017=
METAR RJCH 110300Z 25009KT 9999 -SHRA FEW012 SCT025 BKN050 11/03
           Q1017=
METAR RJCK 110300Z VRB02KT 9999 FEW030 BKN150 04/M02 Q1017=
METAR RJCM 110300Z 20003KT CAVOK 04/M02 Q1017=
METAR RJCN 110300Z 22004KT 170V270 9999 FEW030 BKN/// 04/M03 Q1016=
METAR RJCO 110300Z 09006KT 9999 FEW015 SCT040 BKN100 07/04 Q1018=
METAR RJCW 110300Z 19015KT 9999 -SHRA FEW010 SCT020 BKN040 08/04
           Q1015=
METAR RJDB 110300Z AUTO 24005KT 190V310 9999 SCT029 BKN031 OVC043
           16/10 Q1024=
METAR RJDC 110300Z 14003KT 110V210 9999 FEW025 SCT/// 14/09 Q1024=
METAR RJDT 110300Z VRB03KT 9999 FEW035 SCT/// 15/10 Q1024=
METAR RJEB 110300Z 07005KT 030V100 9999 FEW040 SCT140 BKN/// 07/00
           Q1016=
METAR RJEC 110300Z 33002KT 9999 FEW030 SCT050 BKN/// 02/00 Q1016=

619 
SAJP51 RJTD 110300 RRC
METAR RJTI 110300Z 13005KT 6000 NSC 12/07 Q1022=
METAR RJTO 110300Z 02006KT 340V060 9999 FEW020 15/09 Q1021=
METAR RJTT 110300Z 16005KT 120V200 9999 FEW020 12/07 Q1021 NOSIG=
METAR ROAH 110300Z 11008KT 9999 SCT035 24/13 Q1023=
METAR ROIG 110300Z 08015KT 9999 FEW036 25/15 Q1022=
METAR ROMD 110300Z AUTO 05010KT 020V090 9999 FEW036 23/14 Q1022=
METAR ROMY 110300Z 08014KT 050V110 9999 FEW036 24/14 Q1022=
METAR RORK 110300Z AUTO 05011KT 9999 FEW037 SCT060 24/14 Q1023=
METAR RORS 110300Z 08014KT 9999 FEW036 25/15 Q1022=
METAR RORY 110300Z AUTO 07009KT 030V100 9999 FEW035 SCT050 OVC060
           22/14 Q1023=
METAR ROYN 110300Z AUTO 11012KT 080V140 9999 FEW033 25/17 Q1022=

626 
SAJP51 RJTD 110300 RRA
METAR RJFE 110300Z 32006KT 280V030 9999 FEW020 SCT025 BKN035 16/11
           Q1025=
METAR RJFF 110300Z VRB02KT 9999 FEW030 BKN/// 16/10 Q1024 BECMG
           30006KT=
METAR RJFG 110300Z 06005KT 340V100 9999 FEW035 SCT060 18/13 Q1024=
METAR RJFK 110300Z 10003KT 050V130 9999 FEW025 17/10 Q1024=
METAR RJFM 110300Z 06005KT 010V110 9999 FEW035 18/11 Q1024=
METAR RJFO 110300Z 19005KT 9999 FEW030 SCT/// 16/10 Q1024=
METAR RJFR 110300Z 07004KT 040V100 9999 FEW020 13/09 Q1024=
METAR RJFS 110300Z 23003KT 190V270 9999 FEW035 BKN/// 15/10 Q1025=
METAR RJFT 110300Z 28004KT 200V350 9999 FEW040 BKN/// 16/07 Q1024=
METAR RJFU 110300Z 02003KT 340V060 9999 FEW030 BKN050 BKN/// 15/11
           Q1024=
METAR RJGG 110300Z 25004KT 9999 FEW025 13/08 Q1023 BECMG 28005KT=
METAR RJKA 110300Z 03007KT 360V060 9999 FEW040 23/12 Q1023=
METAR RJKI 110300Z AUTO 36005KT 320V050 9999 NCD 22/13 Q1023=
METAR RJNK 110300Z 23003KT 9999 FEW030 BKN090 16/09 Q1023=
METAR RJNS 110300Z 03003KT 290V090 9999 FEW030 14/04 Q1021=
METAR RJNT 110300Z 12006KT 020V200 9999 VCSH FEW020 SCT030 12/08
           Q1024=
METAR RJNW 110300Z 21005KT 180V260 9999 FEW015 SCT020 13/10 Q1023=
METAR RJOA 110300Z VRB02KT 9999 FEW020 SCT050 14/08 Q1024=
METAR RJOB 110300Z VRB02KT 9999 FEW020 SCT/// 15/08 Q1023=
METAR RJOC 110300Z 07003KT 9999 FEW025 SCT035 14/10 Q1024=

724 
SACI31 ZBBB 110300 CCA
METAR COR ZBYN 110300Z 19002MPS 1500 R31/1400N BR NSC 03/00
Q1030
BECMG TL0430 3000=


725 
SAIN32 VIDP 110300
METAR VIJP 110300Z VRB02KT 1600 BR NSC 13/08 Q1021 NOSIG=
METAR VIDP 110300Z 24004KT 1500 R28/2000 R29/2000 BR NSC 12/09 Q1020
 NOSIG=
METAR VILK 110300Z 00000KT 1200 R27/1800 BR NSC 13/12 Q1019 NOSIG=
METAR VIAR 110300Z 00000KT 0800 R34/2000 MIFG FEW100 09/09 Q1019
 NOSIG=


961 
SAAL31 KWBC 110300
NIL=


962 
SAAW42 KWBC 110300
METAR
OBAH NIL=
OBBI 110300Z 30011KT CAVOK 20/14 Q1021 NOSIG=
OBBQ NIL=
OBSC NIL=
OBZI NIL=
OJAQ 110300Z 36005KT CAVOK 15/04 Q1017 NOSIG=
OKBC NIL=
OKTK NIL=
OKZK NIL=
OMAD 110300Z VRB02KT 8000 NSC 20/16 Q1020 NOSIG=
OMAU NIL=
OMDZ NIL=
OMGK NIL=
OMMA NIL=
OMMS NIL=
OMSA NIL=
OMSQ NIL=
OMSR NIL=
OSAS NIL=
OSGN NIL=


963 
SAAA31 KWBC 110300
METAR
NZCM 110255Z AUTO 14008G14KT 090V170 9999 OVC100 M01/M13 A2863 RMK
     AO2 SLP699 T10091130 50003 $=
NZIR NIL=
NZPG NIL=
NZSP NIL=
NZWD NIL=


964 
SAAW32 KWBC 110300
METAR
OEDF 110300Z 29009KT CAVOK 13/04 Q1021 NOSIG=
OEDR 110300Z 27010KT CAVOK 14/07 Q1020=
OEJN 110300Z 11003KT 8000 NSC 25/00 Q1013 NOSIG=
OEJN 110300Z NIL=
OEMA 110300Z 07003KT 6000 NSC 16/M01 Q1023 NOSIG=
OERK 110300Z 29002KT CAVOK 09/01 Q1025 NOSIG=
OIAA 110300Z 28004KT 6000 NSC 09/05 Q1022=
OIAW 110300Z 27004KT 6000 NSC 11/06 Q1021=
OIBB 110300Z 36004KT 6000 NSC 18/11 Q1020 A3013=
OIBK 110300Z NIL=
OICC 110300Z NIL=
OICK 110300Z 16002KT CAVOK 02/00 Q1024=
OICS 110300Z NIL=
OIFM 110300Z 30004KT 5000 HZ FEW040 SCT200 M02/M07 Q1026 A3032=
OIFP NIL=
OIGG 110300Z 00000KT 0100 R27/0500D FG BKN004 08/08 Q1025=
OIHH 110300Z NIL=
OIII 110300Z 31004KT CAVOK 05/M10 Q1024 A3024=
OIIM NIL=
OIIP 110300Z 32010KT 7000 NSC 01/M03 Q1023 A3023=
OIIX NIL=
OIKB 110300Z 02004KT 3000 BR NSC 13/11 Q1019 A3010 NOSIG=
OIKK 110300Z 10004KT CAVOK M01/M14 Q1026 A3030=
OIMM 110300Z 19004KT CAVOK 03/M00 Q1025 A3028=
OINN NIL=
OINR NIL=
OINZ 110300Z 06002KT 1500 BR NSC 11/10 Q1025=
OINZ 110300Z NIL=
OISM NIL=
OISS 110300Z 00000KT CAVOK 01/M07 Q1024 A3027=
OITL 110300Z NIL=
OITR 110300Z 27006KT CAVOK M02/M05 Q1026=
OITT 110300Z 06006KT CAVOK M01/M03 Q1027 A3034=
OIYY 110300Z 17002KT 9999 FEW100 04/M05 Q1026=
OIZH 110300Z 00000KT CAVOK 00/M14 Q1024 A3025 NOSIG=
OKBK 110300Z 30004KT CAVOK 12/05 Q1023 NOSIG=
ORBI 110300Z 30006KT CAVOK 05/01 Q1024 NOSIG=
ORBS NIL=
ORMM NIL=
OSAP NIL=
OSDI 110300Z 33003KT CAVOK 04/01 Q1023=
OSLK 110300Z 05004KT CAVOK 10/04 Q1019=
OTBD 110300Z 28004KT 230V310 6000 NSC 20/17 Q1021 NOSIG=
OTBH 110256Z AUTO 31006KT 8000 BR CLR 17/16 A3017 RMK AO2 SLP218
     T01730160 53015 $=
OTMA NIL=
OTMS NIL=


965 
SPUS80 KWBC 110306
SPECI
PHNY 110303Z AUTO 03011KT 10SM BKN026 22/21 A3008 RMK AO2=
KJBR 110302Z AUTO 24017G29KT 3/4SM +TSRA BR BKN025 BKN049 OVC075
     21/18 A2962 RMK AO2 PK WND 23029/0258 LTG DSNT ALQDS P0001
     T02060183 $=
KORF 110303Z 00000KT 10SM BKN025 BKN030 OVC050 11/10 A3011 RMK AO2
     T01060100=


966 
SAAO31 KWBC 110300 CCA
METAR
GMFO 110300Z 20010KT 9999 BKN035 10/06 Q1022 NOSIG=


967 
SAUS70 KWBC 110306
METAR
KEFT 110315Z AUTO 06009KT 3/4SM RA OVC002 03/03 A2932 RMK AO2 LTG
     DSNT W P0006 T00330025=
KI43 110315Z AUTO 18006KT 10SM OVC015 15/13 A2982 RMK AO2=
KS32 110315Z AUTO 26010KT 10SM CLR M12/M12 A2974 RMK AO2 TSNO=
KSUW 110315Z AUTO 00000KT 10SM OVC060 M04/M06 A2975 RMK AO2
     T10391057=
KW31 110315Z AUTO 19003KT 10SM OVC014 12/09 A3008 RMK AO1
     T01150088=
KW96 110315Z AUTO 00000KT 7SM BKN006 OVC029 11/10 A3008 RMK AO1
     T01090103=


969 
SAAF31 KWBC 110300
METAR
DBBB 110300Z 23008KT 9999 FEW011 28/25 Q1007 NOSIG=
DGAA 110300Z NIL=
DGSI 110300Z NIL=
DIAP 110300Z 17004KT 9999 FEW012 28/25 Q1007 NOSIG=
DIAV NIL=
DIBK NIL=
DIST NIL=
DNAA 110300Z NIL=
DNCA 110300Z NIL=
DNIL NIL=
DNKA NIL=
DNKN 110300Z 03003KT 5000 HZ NSC 14/04 Q1014 NOSIG=
DNMA NIL=
DNMM 110300Z 00000KT 5000 HZ NSC 26/25 Q1008 NOSIG=
DNPO 110300Z NIL=
DNSO 110300Z NIL=
DRRN 110300Z 07005KT 8000 NSC 21/M05 Q1009 NOSIG=
DRZA 110300Z NIL=
DXNG NIL=
DXXX 110300Z NIL=


970 
SAAK32 KWBC 110300
METAR
PABA 110252Z AUTO 27024KT 1/2SM SN FZFG SCT015 OVC021 M18/M21
     A2938=
PABI 110253Z 27006KT 1 1/2SM -SN OVC025 M14/M17 A2897=
PACZ 110255Z AUTO 01038G45KT 310V080 8SM -SN BKN014 M18/M20
     A2977=
PADK 110256Z AUTO 31011KT 10SM OVC055 02/M05 A3054=
PADL 110256Z 26008KT 10SM CLR M12/M14 A2938=
PADQ 110253Z 29021G32KT 9SM -SN OVC027 M03/M09 A2881=
PAEH 110255Z AUTO 35034G41KT 300V030 1SM -SN BR OVC014 M13/M16
     A2969=
PAFB 110258Z 24009KT 2 1/2SM BR SCT005 OVC034 M13/M15 A2902=
PAGA 110256Z AUTO 27004KT 10SM CLR M22/M24 A2940=
PAIM 110255Z AUTO 26011KT 10SM -SN OVC060 M18/M21 A2910=
PALU 110255Z AUTO 33020KT 8SM -SHSN OVC016 M21/M23 A2972=
PASV 110255Z AUTO 35025G35KT 1/2SM -SN FG VV003 M16/M18 A2909=
PASY NIL=
PATC 110255Z AUTO 01031G34KT 1 1/4SM -SN BR BKN018 M21/M24
     A2980=
PATL 110255Z AUTO VRB04KT 10SM CLR M15/M20 A2927=
PBTI NIL=


971 
SAAO31 KWBC 110300
METAR
GCFV 110300Z AUTO 04015KT 9999 ////// 18/15 Q1022=
GCHI 110300Z AUTO 04022KT CAVOK 20/14 Q1021=
GCLA 110300Z AUTO 33010KT 310V010 9999 FEW034 BKN050 18/13
     Q1023=
GCLP 110300Z 35016KT 9999 FEW020 18/12 Q1022 NOSIG=
GCRR 110300Z AUTO 02012KT CAVOK 16/13 Q1022=
GCTS 110300Z 06018KT 9999 FEW030 18/11 Q1021 NOSIG=
GCXO 110300Z AUTO 15006KT 090V190 9999 BKN018 13/11 Q1024=
GEML 110300Z AUTO 26015G27KT 210V300 CAVOK 16/11 Q1020=
GMAA NIL=
GMAT 110300Z NIL=
GMFF 110300Z 18009KT 9999 BKN020 08/07 Q1025 NOSIG=
GMFO 110300Z NIL=
GMME 110300Z 17003KT 5000 BKN026 13/10 Q1024 NOSIG=
GMMN 110300Z 09003KT 9999 BKN026 10/10 Q1025 NOSIG=
GMMX 110300Z 11006KT CAVOK 07/04 Q1023 NOSIG=
GMOY NIL=
GMTA 110300Z 17003KT 140V210 9999 FEW020 SCT030 12/09 Q1021
     NOSIG=
GMTN 110300Z AUTO 25016G27KT 220V290 16/12 Q1022=
GMTT 110300Z AUTO 29007KT 9999 SCT016 SCT025 BKN033 16/14 Q1024
     NOSIG=
GSAI NIL=


973 
SAAF33 KWBC 110300
METAR
FLLI NIL=
FLLS NIL=
FLMF NIL=
FLND NIL=
FNHU NIL=
FNLU NIL=
FQBR 110300Z 35003KT 9999 SCT018 25/23 Q1011=
FQMA 110300Z 10006KT 9999 SCT025 25/24 Q1011 NOSIG=
FVBU NIL=
FVCZ NIL=
FVFA NIL=
FVHA NIL=
FVMV NIL=
FVTL NIL=
FWCL NIL=
FWGL NIL=
FWKI NIL=
FWUU NIL=


974 
SAAW31 KWBC 110300
METAR
LLBG NIL=
LLBS NIL=
LLET NIL=
LLJR NIL=
LLOV NIL=
LTAC NIL=
LTAF NIL=
LTAI NIL=
LTBA NIL=
LTBJ NIL=
LTBS NIL=
OEPS 110256Z 25004KT 9000 HZ SCT280 10/M00 A3034 RMK AO2A SLP259
     WND DATA ESTMD T00991003 52012=
OJAI 110300Z 05005KT 6000 NSC 08/01 Q1021 NOSIG=
OJAM 110300Z 00000KT 5000 HZ NSC 08/03 Q1022 NOSIG=
OJJR NIL=
OLBA 110300Z 09006KT 8000 NSC 15/06 Q1020 NOSIG=
UGEE NIL=
UGGG NIL=


975 
SAAU31 KWBC 110300
METAR
YAYE 110300Z AUTO 36005KT 9999 // NCD 34/03 Q1011=
YBAS 110300Z AUTO 14007KT 9999 // ////// 31/M01 Q1012
     RF00.0/000.0=
YBAS 110300Z AUTO 14007KT 9999 // ////// 31/M01 Q1012=
YBBN 110300Z 10009KT 9999 FEW030 27/19 Q1010=
YBCG 110300Z AUTO 13017KT 9999 // SCT033 27/18 Q1010
     RF00.0/000.0=
YBCG 110300Z AUTO 13017KT 9999 // SCT033 27/18 Q1010=
YBCS 110300Z AUTO 02007KT 9999 // NCD 31/24 Q1006=
YBMA 110300Z AUTO 17006KT 110V190 9999 // NCD 33/M06 Q1009
     RF00.0/000.0=
YBRK 110300Z AUTO 14008KT 9999 // SCT040 SCT047 BKN069 32/22
     Q1007=
YBRM 110300Z AUTO 33010KT 9999 // SCT018 33/27 Q1007
     RF00.0/000.0=
YBTL 110300Z AUTO 05013KT 9999 // NCD 33/23 Q1006=
YDDN NIL=
YDTN NIL=
YMHB 110300Z NIL=
YMML 110300Z 13007KT 9999 SCT042 BKN049 20/10 Q1017
     RF00.0/000.0=
YMML 110300Z 13007KT 9999 SCT042 BKN049 20/10 Q1017=
YPAD 110300Z 24012KT CAVOK 22/12 Q1015=
YPBR NIL=
YPCC 110300Z AUTO 23005KT 9999 // NCD 28/21 Q1012 RF00.0////./=
YPCC 110300Z AUTO 23005KT 9999 // NCD 28/21 Q1012=
YPDN 110300Z 01004KT 330V060 9999 FEW035 BKN240 32/23 Q1008=
YPEA 110300Z AUTO 28012KT 230V290 9999 // SCT040 SCT046 OVC060
     23/11 Q1014=
YPLM 110300Z AUTO 16016KT 9999 // NCD 36/08 Q1010 RF00.0/000.0=
YPLM 110300Z AUTO 16016KT 9999 // NCD 36/08 Q1010=
YPPD 110300Z AUTO 36008KT 9999 // NCD 34/23 Q1006 RF00.0/000.0=
YPPH 110300Z NIL=
YPPH 110300Z 25012KT 9999 SCT044 SCT065 24/12 Q1013=
YPTN 110300Z AUTO 11004KT 9999 // NCD 36/19 Q1007 RF00.0/000.0=
YPTN 110300Z AUTO 11004KT 9999 // NCD 36/19 Q1007=
YPXM 110300Z AUTO 14006KT 9999 // BKN021 BKN032 28/23 Q1013=
YSCB 110300Z AUTO 20011KT 160V220 9999 // OVC053 19/08 Q1016=
YSDU 110300Z AUTO 20006KT 170V260 9999 // NCD 25/11 Q1013
     RF00.0/000.0=
YSNF 110300Z AUTO 04015KT 9999 // BKN010 25/22 Q1012
     RF00.0/000.0=
YSRI 110300Z AUTO 18008KT 9999 // OVC055 20/11 Q1014
     RF00.0/000.0=
YSSY 110300Z 18026KT 9999 FEW035 SCT055 20/13 Q1014=
YYPY NIL=


976 
SAXX60 KWBC 110300 CCD
METAR
KNRS 110256Z AUTO 00000KT 10SM CLR 09/08 A3014 RMK AO2 SLP205
     T00940078 50007 $=
KNBG 110255Z 17009KT 9SM FEW015 SCT030 SCT045 23/22 A2996 RMK AO2
     SLP145 T02330222 50008 $=


977 
SPCN31 KWBC 110306
SPECI
CYQM 110303Z 18009KT 10SM -SN OVC026 M02/M04 A3018 RMK SC8 SLP228=


979 
SAAU31 KWBC 110300 CCA
METAR
YBBN 110300Z 10009KT 9999 FEW035 27/19 Q1010=


980 
SPUS70 KWBC 110306
SPECI
KCMX 110302Z AUTO 06005KT 10SM SCT019 BKN024 OVC065 00/M04 A2973
     RMK AO2 T00001044=
KDAW 110302Z AUTO 00000KT 10SM SCT008 BKN023 M03/M05 A3018 RMK AO2
     T10281050=
KFXE 110302Z 08006KT 10SM FEW024 SCT028 BKN045 24/22 A3012 RMK AO2
     T02440217=
KHLG 110302Z AUTO 12008KT 10SM -RA FEW020 BKN065 OVC080 12/10
     A2984 RMK AO2 PRESFR P0000 T01170100=
KHUL 110302Z AUTO 00000KT 10SM SCT007 M07/M09 A3015 RMK AO2
     T10721089=
KIEN 110301Z AUTO 25007KT 3SM BR FEW027 M09/M11 A2988 RMK AO2
     T10941106 $=
KINT 110302Z AUTO VRB03KT 1 1/2SM BR OVC002 11/10 A3009 RMK AO2
     T01110100=
KIWI 110302Z AUTO 00000KT 10SM BKN025 OVC050 M04/M06 A3023 RMK AO2
     T10391061=
KMCI 110302Z 30017G30KT 9SM OVC014 04/00 A2950 RMK AO2 PK WND
     30030/0256 T00390000=
KARR 110303Z AUTO 15013KT 3SM VCTS -RA BR OVC002 10/09 A2931 RMK
     AO2 LTG DSNT S AND W P0002 T01000094=
KCSV 110303Z AUTO 18009G20KT 1SM BR VV002 13/13 A2991 RMK AO2
     T01330133=
KGZH 110303Z AUTO 19007KT 9SM BKN009 BKN017 23/20 A3002 RMK AO2
     T02280200=
KLLQ 110303Z AUTO 20019G28KT 10SM FEW028 BKN033 OVC050 24/19 A2971
     RMK AO2 PK WND 22028/0303 T02440189=
KMIC 110302Z 01012G19KT 1SM -SN BR VV010 M02/M03 A2965 RMK AO2
     P0000 T10171033=
KOKK 110304Z AUTO 16022G27KT 3SM BR OVC002 13/ A2950 RMK AO2 PK
     WND 15027/0303 PNO $=
KPGD 110303Z AUTO 13006KT 10SM SCT027 23/21 A3013 RMK AO2
     T02280206=


981 
SAAK31 KWBC 110300
METAR
PABR 110253Z 00000KT 7SM SCT042 OVC100 M22/M24 A2941=
PACD 110253Z AUTO 32031G42KT 1 1/2SM -SN BKN032 OVC041 M04/M08
     A2980=
PAED 110256Z 00000KT 10SM FEW010 OVC033 M05/M12 A2880=
PAEI 110256Z 24003KT 5SM -SN BR OVC004 M13/M16 A2900=
PAEN 110253Z 33006KT 10SM OVC050 M05/M09 A2882=
PAFA 110253Z VRB03KT 1 3/4SM -SN BR BKN023 OVC035 M12/M15
     A2902=
PAFR 110258Z AUTO 17006KT 10SM BKN019 OVC026 M06/M10 A2877=
PAFS 110301Z AUTO 30006KT 9SM -SN OVC065 M15/M18 A2923=
PAFY NIL=
PAJN 110253Z 10009KT 8SM -SN SCT014 BKN036 OVC120 01/M03 A2890=
PAKN 110254Z 33018G28KT 6SM BLSN OVC044 M11/M13 A2929=
PAKT NIL=
PANC 110253Z 36008KT 10SM FEW012 SCT034 OVC040 M04/M12 A2881=
PAOM 110253Z 32011KT 10SM CLR M20/M26 A2972=
PAOR 110253Z 00000KT 3SM -SN OVC031 M18/M21 A2879=
PAOT 110253Z 31028KT 10SM CLR M22/M26 A2954=
PARY 110256Z AUTO 28009G17KT 230V300 9SM -SN OVC014 M19/M23
     A2925=
PASC 110253Z 26010KT 3SM BR OVC041 M23/M26 A2942=
PASG NIL=
PASI 110253Z 08008KT 8SM FEW016 SCT041 BKN070 01/M02 A2890=
PATQ NIL=
PAVD 110256Z 03005KT 10SM FEW110 SCT150 M06/M06 A2874=
PAWG 110256Z 00000KT 8SM -SN FEW023 BKN043 OVC050 01/M02 A2903=
PFYU 110256Z 03009KT 1 3/4SM -SN BR SCT014 BKN019 OVC034 M14/M16
     A2901=


982 
SAAF36 KWBC 110300
METAR
HAAB NIL=
HAAY NIL=
HADR NIL=
HBBA NIL=
HCMH NIL=
HCMI NIL=
HCMK NIL=
HCMM NIL=
HCMV NIL=
HEMA NIL=
HFFF NIL=
HKJK NIL=
HKMO NIL=
HKNA NIL=
HRYR 110300Z 16003KT 130V190 8000 SCT025 BKN100 17/17 Q1017
     NOSIG=
HTDA NIL=
HTKJ NIL=
HTZA NIL=
HUEN NIL=
HUKS NIL=
HUMA NIL=
HUSO NIL=


984 
SAUS70 KWBC 110300 RRX
METAR
KAPG 110258Z AUTO 00000KT 9SM R22/5500FT BKN029 OVC036 08/03 A3009
     RMK AO2 CIG 029V036 BKN V SCT SLP193 60000 T00750034 58001
     $=
KIWA 110255Z VRB04KT 10SM CLR 13/07 A3012=
KAPG 110258Z AUTO 00000KT 9SM R22/5500FT BKN029 OVC036 08/03 A3009
     RMK AO2 CIG 029V036 BKN V SCT SLP193 60000 T00750034 58001
     $=
K06C 110255Z AUTO 12005KT 1 1/4SM OVC003 07/07 A2933 RMK AO2 P0009
     60044 T00730067=
KC75 110255Z AUTO 18014G25KT 7SM RA SCT011 SCT060 OVC090 16/14
     A2928 RMK AO2 LTG DSNT NE THRU SE P0031 60041 T01570140=
KFWC 110255Z AUTO 16012G16KT 7SM SCT008 SCT030 OVC037 19/18 A2951
     RMK AO1 LTG DSNT E AND SE T01850175=
KHMZ 110250Z AUTO 00000KT 10SM SCT110 05/M01 A3001 RMK AO2
     T00511006=
KHTO 110255Z AUTO 00000KT 10SM CLR 00/M01 A3013 RMK AO2
     T10021007=
KIKK 110256Z AUTO 19016G21KT 4SM RA OVC003 15/15 A2941 RMK AO2 LTG
     DSNT SW AND W=
KJVY 110255Z AUTO 19010G17KT 10SM VCTS BKN013 17/17 A2966 RMK AO2
     LTG DSNT NE=
KMPO 110253Z AUTO 11004KT 10SM OVC041 02/M01 A3005 RMK AO2 SLP194
     T00221011 56013=
KBUU 110255Z AUTO 06005KT 2SM 05/04 A2938 RMK AO2 P0018 60026
     T00450043 PWINO=
KHPN 110256Z 06005KT 10SM SCT060 OVC070 06/02 A3010 RMK AO2 SLP197
     T00560022 58010=
KI19 110255Z AUTO 17007KT 2 1/2SM BR OVC003 14/14 A2973 RMK AO2
     LTG DSNT W T01370137=


985 
SAAF32 KWBC 110300
METAR
FCBB NIL=
FCPP NIL=
FDMX NIL=
FEFT NIL=
FGBT NIL=
FGSL NIL=
FHAW NIL=
FKKD NIL=
FKKL NIL=
FKKN NIL=
FKKR NIL=
FKKY NIL=
FMNM 110300Z 19003KT 9999 FEW020CB 26/23 Q1013 NOSIG=
FOOG NIL=
FOOL NIL=
FOON NIL=
FPPA NIL=
FPPR NIL=
FPST NIL=
FTTJ 110300Z NIL=
FZAA NIL=
FZIC NIL=
FZNA NIL=
FZQA NIL=


986 
SAAF34 KWBC 110300
NIL=


987 
SAAF35 KWBC 110300
METAR
HDAM NIL=
HEAX NIL=
HEBA NIL=
HEBL NIL=
HECA 110300Z 00000KT 6000 NSC 14/09 Q1017 NOSIG=
HEGN NIL=
HELX NIL=
HEMM NIL=
HEPS NIL=
HERN NIL=
HESC NIL=
HESN NIL=
HLLB NIL=
HLLS NIL=
HLLT NIL=
HSKA NIL=
HSPN NIL=
HSSJ NIL=
HSSP NIL=
HSSS NIL=


988 
SAAW33 KWBC 110300
METAR
OBBI 110300Z 30011KT CAVOK 20/14 Q1021 NOSIG=
OMAA 110300Z 20004KT 8000 SCT040 18/14 Q1019 NOSIG=
OMAL 110300Z 04007KT CAVOK 16/09 Q1021 NOSIG=
OMDB 110300Z 20003KT 170V240 9999 FEW045 19/11 Q1020 NOSIG=
OMFJ 110300Z 30006KT 8000 NSC 17/08 Q1020 A3012=
OMRK 110300Z 0000KT CAVOK 12/07 Q1020 A3014=
OMSJ 110300Z 17003KT CAVOK 15/09 Q1020 NOSIG=
OOMA NIL=
OOMS 110300Z NIL=
OOSA NIL=
OOTH NIL=
OPMT 110300Z 00000KT 0800 BR NSC 10/07 Q1019 TEMPO 1000=
OYAA 110300Z NIL=
OYAR NIL=
OYHD NIL=
OYJA NIL=
OYMB NIL=
OYSM NIL=
OYSN 110300Z NIL=
OYTZ NIL=


989 
SPXX60 KWBC 110306
SPECI
KFRI 110252Z AUTO 30014G24KT 10SM OVC021 01/M04 A2967 RMK AO2
     PRESRR SLP052=
KGUS 110301Z 16019G24KT 2 3/4SM BR OVC002 14/13 A2945 RMK AO2A VIS
     2 3/4V4 SLP977 $=
KNMM 110254Z AUTO 18009KT 10SM SCT017 BKN022 OVC043 22/21 A2993
     RMK AO2=
KTCM 110257Z 19018G25KT 7M -RA FEW020 SCT036 BKN044 07/04 A2988
     RMK AO2A RAB57 SLP124 RVRNO $=


991 
SABO41 KWBC 110300
METAR
SLCA NIL=
SLCN NIL=
SLCO NIL=
SLCP NIL=
SLJE NIL=
SLJO NIL=
SLMG NIL=
SLOR 110300Z 04008KT 9999 SCT070 BKN200 09/05 Q1031=
SLPO NIL=
SLPS NIL=
SLRB NIL=
SLRI NIL=
SLRQ NIL=
SLRY NIL=
SLSA NIL=
SLSI NIL=
SLSU NIL=
SLVG NIL=
SLVM NIL=
SLYA NIL=
SLZO NIL=


993 
SAUS80 KWBC 110300 RRD
METAR
KINW 110256Z AUTO 36004KT 10SM CLR M01/M10 A3018 RMK AO2 SLP230
     T10061100 51028=
KCIR 110255Z AUTO 21015G19KT 5SM SCT035 SCT060 OVC100 21/19 A2955
     RMK AO2 T02080185=
KCUL 110255Z AUTO 10SM BKN039 18/17 A2954 RMK AO2 LTG DSNT E AND
     SE=
KP53 110256Z AUTO 07006KT 00/M02 A2976 RMK AO1 PRESFR SLP084 P0001
     60001 T00001017 56027=
KP58 110255Z AUTO 11016KT 03/03 A2971 RMK AO1 PRESFR SLP070 P0001
     60001 T00330028 58052=
KLZZ 110255Z AUTO 28007KT 10SM CLR 21/17 A2978 RMK AO2
     T02130171=


995 
SAXX60 KWBC 110300 RRJ
METAR
KCEF 110256Z 00000KT 10SM FEW060 SCT200 M02/M04 A3015 RMK AO2A
     SLP219 T10241041 50001=
KHLR 110258Z AUTO 23006KT 6SM HZ CLR 23/18 A2977 RMK AO2 SLP071
     T02290180 52022=
KHUA 110258Z AUTO 20016G20KT 10SM BKN013 BKN021 21/20 A2986 RMK
     AO2 RAB14E25 SLP110 P0000 60000 T02100201 58013=
KNJM 110257Z AUTO 20003KT 8SM BKN013 BKN065 OVC080 18/15 A3015 RMK
     AO2 SLP211 60000 T01780150 50001 $=
KNRS 110256Z AUTO 00000KT 10SM CLR 09/08 A3014 RMK AO2 SLP205
     T00940078 50007 $=
KNRS 110256Z AUTO 00000KT 10SM CLR 09/08 A3014 RMK AO2 SLP205
     T00940078 50007 $=
KCEF 110256Z 00000KT 10SM FEW060 SCT200 M02/M04 A3015 RMK AO2A
     SLP219 T10241041 50001=
KHUA 110258Z AUTO 20016G20KT 10SM BKN013 BKN021 21/20 A2986 RMK
     AO2 RAB14E25 SLP110 P0000 60000 T02100201 58013=
KNGP 110256Z AUTO 18011G21KT 7SM FEW009 BKN018 25/23 A2979 RMK AO2
     SLP087 T02500233 51019 $=
KNGU 110259Z 00000KT 5SM BR SCT009 BKN023 OVC029 12/10 A3012 RMK
     AO2 RAB43E51 SLP198 P0000 60000 T01170100 58009 $=
KNHK 110252Z 12004KT 10SM OVC036 11/08 A3008 RMK AO2 SLP186 60000
     T01060083 56007 $=
KNJM 110257Z AUTO 20003KT 8SM BKN013 BKN065 OVC080 18/15 A3015 RMK
     AO2 SLP211 60000 T01780150 50001 $=
KNPA 110256Z 16008KT 5SM BR OVC004 22/21 A3002 RMK AO2 SLP168
     T02170206 51009 $=
KFFO 110256Z 16010KT 3SM BR OVC004 14/14 A2971 RMK AO2A CIG 003
     RWY05L SLP064 60001 T01380136 57035=
KNEL 110300Z AUTO 00000KT OVC050 06/03 A3011 RMK AO2 SLP196
     T00560028 58009 $=
KNHK 110252Z 12004KT 10SM OVC036 11/08 A3008 RMK AO2 SLP186 60000
     T01060083 56007 $=
KRCA 110256Z 30006KT 10SM CLR M10/M13 A2981 RMK AO2A SLP146
     T11051127 50007 $=
K79J 110256Z AUTO VRB04KT 10SM BKN014 OVC021 23/21 A3004 RMK AO2
     SLP167 T02330206 51004=
KFFO 110256Z 16010KT 3SM BR OVC004 14/14 A2971 RMK AO2A CIG 003
     RWY05L SLP064 60001 T01380136 57035=
KNHK 110252Z 12004KT 10SM OVC036 11/08 A3008 RMK AO2 SLP186 60000
     T01060083 56007 $=
KNPA 110256Z 16008KT 5SM BR OVC004 22/21 A3002 RMK AO2 SLP168
     T02170206 51009 $=
KNUW 110256Z 15024G35KT 10SM SCT020 BKN025 OVC040 08/04 A2980 RMK
     AO2 PK WND 15040/0205 SLP092 T00830044 56048 PNO=
KNZY 110252Z 31003KT 10SM FEW035 12/09 A3013 RMK AO2 SLP202
     T01220089 50006=
KNJW 110257Z AUTO 19011G19KT 10SM BKN011 BKN017 OVC047 22/20 A2987
     RMK AO2 SLP919 T02220200 50004=


997 
SACA42 KWBC 110300
METAR
TIST 110253Z AUTO 06013KT 10SM FEW075 BKN090 26/21 A2998=
TISX 110253Z AUTO 06008KT 10SM FEW031 26/23 A2998=
TJBQ 110250Z 11008KT 10SM CLR 23/21 A3000=
TJMZ NIL=
TJNR 110253Z AUTO 05010KT 10SM FEW024 26/23 A3001=
TJPS NIL=
TJSJ 110256Z 08010KT 10SM FEW025 SCT033 SCT055 27/22 A3000=


998 
SAAO33 KWBC 110300
METAR
GBYD 110300Z 00000KT 9000 SKC 19/15 Q1008=
GFLL NIL=
GGOV NIL=
GLRB NIL=
GOGG NIL=
GOGS NIL=
GOOY NIL=
GOSS NIL=
GOTT NIL=
GOTY NIL=
GUCY NIL=
GUFH NIL=
GULB NIL=
GUNZ NIL=
GUOK NIL=
GUXD NIL=


999 
SABZ43 KWBC 110300
METAR
SBAN NIL=
SBAT NIL=
SBBA NIL=
SBBQ NIL=
SBBW NIL=
SBCC NIL=
SBER NIL=
SBES NIL=
SBGA NIL=
SBIZ NIL=
SBJF NIL=
SBJP 110300Z 08006KT 9999 SCT020 26/23 Q1010=
SBKG NIL=
SBLB NIL=
SBLP NIL=
SBMK NIL=
SBMS NIL=
SBMZ NIL=
SBPB NIL=
SBPJ 110300Z 02002KT 9999 -RA FEW017 SCT025 OVC070 24/23 Q1010=
SBPL 110300Z 18007KT CAVOK 28/23 Q1009=
SBPN NIL=
SBQV NIL=
SBRP 110300Z 12004KT CAVOK 22/12 Q1010=
SBTF NIL=
SBTK NIL=
SBUF NIL=
SBUI NIL=
SBUL NIL=


000 
SABZ31 KWBC 110300
METAR
SBBE 110300Z 06004KT CAVOK 26/24 Q1007=
SBBR 110300Z 08009KT 9999 SCT040 SCT100 22/19 Q1014=
SBBV 110300Z 22003KT 9999 -SHRA FEW030 FEW035TCU BKN070 26/24
     Q1008=
SBCF 110300Z 11006KT CAVOK 21/18 Q1013=
SBCG 110300Z 07009KT CAVOK 24/13 Q1009=
SBEG 110300Z 21001KT 9999 FEW001 SCT080 25/24 Q1008=
SBFI 110300Z 08001KT CAVOK 21/16 Q1007=
SBFZ 110300Z 09012KT 9999 BKN020 28/24 Q1009=
SBGL 110300Z 04007KT 9999 BKN030 BKN040 22/20 Q1011=
SBGR 110300Z 08006KT CAVOK 16/15 Q1014=
SBKP 110300Z 11009KT CAVOK 20/11 Q1012=
SBNT 110300Z 11009KT 9999 BKN020 27/24 Q1009=
SBPA 110300Z 13009KT CAVOK 19/16 Q1009=
SBPS 110300Z 24003KT 9999 BKN007 SCT020 BKN080 23/22 Q1012=
SBRF 110300Z 09006KT 9999 SCT021 28/22 Q1010=
SBSG 110300Z 17006KT 130V200 9999 SCT021 27/23 Q1010=
SBSL 110300Z 06009KT CAVOK 28/25 Q1007=
SBSN 110300Z 19002KT 9999 VCTS FEW020CB 25/25 Q1007=
SBSV 110300Z 07010KT 9999 SCT020 BKN100 27/24 Q1010=
SBTT NIL=


001 
SABZ41 KWBC 110300
METAR
SBAA NIL=
SBAF NIL=
SBAR 110300Z 07009KT 9999 FEW017 27/23 Q1009=
SBBG NIL=
SBBH NIL=
SBBI NIL=
SBBU NIL=
SBCJ NIL=
SBCO NIL=
SBCR NIL=
SBCT 110300Z 08006KT 9999 OVC006 16/16 Q1013=
SBCV NIL=
SBCY 110300Z 28002KT CAVOK 27/23 Q1006=
SBCZ NIL=
SBDN NIL=
SBFL 110300Z 00000KT 9999 FEW030 BKN050 20/17 Q1010=
SBFN 110300Z AUTO 12010KT 9999 FEW015 SCT021 26/23 Q1010=
SBGO 110300Z 00000KT 9999 BKN049 SCT100 24/21 Q1011=
SBGW NIL=
SBHT NIL=
SBIH NIL=
SBIL NIL=


002 
SABZ42 KWBC 110300
METAR
SBJA NIL=
SBJR NIL=
SBLO 110300Z 00000KT CAVOK 24/12 Q1010=
SBMA NIL=
SBME NIL=
SBMN 110300Z 04001KT CAVOK 26/25 Q1008=
SBMO 110300Z 06002KT CAVOK 24/22 Q1011=
SBMQ 110300Z 33003KT 9999 SCT013 27/26 Q1007=
SBMT NIL=
SBPC NIL=
SBPK NIL=
SBPP NIL=
SBPV 110300Z 32002KT 9999 FEW014 SCT045 24/23 Q1007=
SBRB 110300Z 33002KT CAVOK 24/23 Q1008=
SBRJ NIL=
SBSC NIL=
SBSJ 110300Z 09002KT CAVOK 16/13 Q1013=
SBSM NIL=
SBSP 110300Z AUTO 06004KT 030V090 9999 // NCD 17/14 Q1014=
SBST NIL=
SBTE 110300Z 00000KT CAVOK 26/24 Q1007=
SBTU NIL=
SBUG NIL=
SBUR NIL=
SBVH NIL=
SBVT 110300Z 34002KT 9999 FEW015 23/21 Q1012=
SBYS NIL=


003 
SAAO32 KWBC 110300
METAR
GABS NIL=
GAGO NIL=
GAKY NIL=
GAMB NIL=
GANR NIL=
GATB NIL=
GQNI NIL=
GQNK NIL=
GQNN NIL=
GQNP NIL=
GQPH NIL=
GQPP 110300Z 03012KT 8000 NSC 17/11 Q1014 NOSIG=
GQPV NIL=


004 
SACA31 KWBC 110300
METAR
MBJT NIL=
MBPV NIL=
MBSC NIL=
MKJP NIL=
MKJS 110300Z 10008KT 9999 FEW022 26/21 Q1015=
MUCM 110250Z 04008KT 9000 NSC 23/21 Q1018=
MUCU 110250Z 02007KT 9000 FEW020 24/19 Q1016=
MUHA 110250Z 08005KT 9000 SKC 23/22 Q1018=
MUVR 110250Z 09004KT 9000 SKC 22/22 Q1019=
MWCB NIL=
MWCR 110300Z 11007KT 9999 FEW022 26/23 Q1016=
MYAM NIL=
MYEG NIL=
MYEH NIL=
MYGF 110300Z AUTO 06003KT //// R06///// // NCD 21/20 A3014=
MYNN 110300Z 09005KT 9999 FEW020 25/21 A3014=


122 
SACA33 KWBC 110300
METAR
TBPB 110300Z 06014KT 9999 FEW022 26/22 Q1011 NOSIG=
TDPD NIL=
TDPR NIL=
TFFF 110300Z AUTO 09007KT 9999 FEW022 SCT062 25/22 Q1013 TEMPO
     4000 SHRA SCT018TCU=
TFFG NIL=
TFFJ NIL=
TFFR 110300Z AUTO 08007KT 9999 FEW024 26/22 Q1013 TEMPO 4000 SHRA
     SCT018TCU SCT025=
TGPY NIL=
TGPZ NIL=
TLPC NIL=
TLPL 110300Z 08017KT 9999 FEW026 26/23 Q1012 NOSIG=
TNCA NIL=
TNCB 110255Z AUTO 07008KT 9999 FEW033/// SCT048/// 25/23 Q1012=
TNCC NIL=
TNCE 110255Z AUTO 06018KT 360V090 //// // ///////// 26/22 Q1014
     RE//=
TNCM 110300Z 05017KT 9999 SCT018 27/22 Q1016=
TTCP NIL=
TTPP NIL=
TVSM NIL=
TVSU NIL=
TVSV NIL=


123 
SACA45 KWBC 110300
METAR
MGFL NIL=
MGGT 110300Z 02014KT CAVOK 18/13 Q1021 A3015 FEW100=
MGHT 110300Z 00000KT CAVOK 17/10=
MGHT 110300Z 00000KT CAVOK 17/10 METAR MGPB 110300Z NIL=
MHAM NIL=
MHCA 110300Z 00000KT 9999 FEW030 22/19=
MHCH NIL=
MHLE NIL=
MHNJ NIL=
MHNO NIL=
MHPL NIL=
MHRO 110300Z 09012KT 9999 FEW025 27/23 Q1014 A2995 NOSIG=
MHSR NIL=
MHTE NIL=
MHYR NIL=
MNMG NIL=
MNPC NIL=
MPSA NIL=
MRCH NIL=
MSAC NIL=


124 
SAJP41 KWBC 110300
METAR
RJAF 110300Z 03003KT 350V100 9999 FEW040 SCT070 08/01 Q1022=
RJAI NIL=
RJAK NIL=
RJAM NIL=
RJAO NIL=
RJAT NIL=
RJAW NIL=
RJBD 110300Z 31008KT 270V340 9999 FEW030 17/07 Q1023=
RJCA NIL=
RJCB 110300Z 17004KT 130V220 9999 FEW050 BKN/// 04/01 Q1017=
RJCJ NIL=
RJCK 110300Z VRB02KT 9999 FEW030 BKN150 04/M02 Q1017=
RJCM 110300Z 20003KT CAVOK 04/M02 Q1017=
RJCN 110300Z 22004KT 170V270 9999 FEW030 BKN/// 04/M03 Q1016=
RJCO 110300Z 09006KT 9999 FEW015 SCT040 BKN100 07/04 Q1018=
RJCR NIL=
RJCT NIL=
RJCW 110300Z 19015KT 9999 -SHRA FEW010 SCT020 BKN040 08/04
     Q1015=
RJDB 110300Z AUTO 24005KT 190V310 9999 SCT029 BKN031 OVC043 16/10
     Q1024=
RJDC 110300Z 14003KT 110V210 9999 FEW025 SCT/// 14/09 Q1024=


126 
SAPA41 KWBC 110300
METAR
PGSN 110254Z 05013G18KT 10SM FEW020 SCT025 SCT035 29/24 A2982=
PGUA 110256Z 10012KT 10SM FEW009 SCT016 BKN23 28/24 A2982=
PJON NIL=
PKMJ NIL=
PKWA 110300Z AUTO 07009KT 10SM CLR 29/23 A2976=
PWAK NIL=


127 
SACA41 KWBC 110300
METAR
MKBK NIL=
MUBA NIL=
MUBY NIL=
MUCA NIL=
MUCL NIL=
MUCM 110250Z 04008KT 9000 NSC 23/21 Q1018=
MUCU 110250Z 02007KT 9000 FEW020 24/19 Q1016=
MUGM 110251Z 33008KT 10SM FEW030 SCT090 25/19 A3002 RMK AO2 SLP167
     T02500194 51013 $=
MUGT NIL=
MUHA 110250Z 08005KT 9000 SKC 23/22 Q1018=
MUMO NIL=
MUMZ NIL=
MUNG NIL=
MUVR 110250Z 09004KT 9000 SKC 22/22 Q1019=
MUVT NIL=
MYEF NIL=
TABS NIL=
TAOA NIL=
TBBI NIL=
TDCF NIL=


129 
SACA35 KWBC 110300
METAR
MGGI NIL=
MGPB 110300Z NIL=
MGSJ NIL=
MHLC 110300Z 31003KT 9999 FEW026 24/22 Q1014 A2995 NOSIG=
MHLM 110300Z 03006KT 9999 FEW025 BKN080 25/22 Q1014 A2994
     NOSIG=
MHTG 110300Z 26003KT 9999 BKN030 19/17 Q1021 A3015 NOSIG=
MNPC NIL=
MPBO NIL=
MPCH NIL=
MPDA 110300Z 27004KT 230V320 9999 FEW020 25/24 Q1009=
MPMG 110300Z 31005KT 9999 FEW030 26/23 Q1010 NOSIG=
MPSA NIL=
MPTO 110300Z VRB02KT CAVOK 25/22 Q1009 NOSIG=
MRLB 110300Z 09003KT CAVOK 25/19 A2987=
MRLM NIL=
MROC 110300Z 11006KT CAVOK 20/15 A3000 NOSIG=
MRPV NIL=
MSLP 110250Z 02004KT CAVOK 24/21 Q1011 A2986 NOSIG=
MSSS 110250Z NIL=
MZBZ NIL=


130 
SAPA41 KWBC 110300 CCA
METAR
PGUM 110254Z 08012KT 10SM FEW021 BKN028 OVC044 29/24 A2981=


131 
SAHW31 KWBC 110300
METAR
PBKH NIL=
PHJR 110253Z 07008KT 10SM CLR 27/18 A3004=
PHKO 110253Z 21007KT 10SM FEW009 SCT025 BKN065 27/21 A2998=
PHLI 110253Z 06016G20KT 9SM BKN027 OVC035 24/22 A3007=
PHNL 110253Z 06013G20KT 10SM FEW022 SCT040 26/18 A3004=
PHOG 110254Z 06017G25KT 10SM CLR 26/17 A3000=
PHTO 110253Z 11006KT 10SM FEW027 24/18 A3005=
PNGF NIL=


133 
SACA32 KWBC 110300
METAR
MDLR 110300Z 00000KT 9999 FEW017 23/22 Q1015=
MDPC 110300Z 07016KT 9999 FEW018 27/22 Q1016 NOSIG=
MDPP 110300Z 00000KT 9999 FEW018 22/21 Q1016=
MDSD 110300Z 01005KT 9999 FEW016 23/21 Q1016=
MDST 110300Z 00000KT 9999 SCT017 23/22 Q1017=
MTCH NIL=
MTPP 110259Z AUTO 11006KT 8000 ////// 25/21 Q1014 A2996 NOSIG=
TAPA NIL=
TIST 110253Z AUTO 06013KT 10SM FEW075 BKN090 26/21 A2998 RMK AO2
     RAB08E29 SLP152 P0001 60001 T02560206 51004=
TISX 110253Z AUTO 06008KT 10SM FEW031 26/23 A2998 RMK AO2 SLP151
     T02560228 51004=
TJBQ 110250Z 11008KT 10SM CLR 23/21 A3000=
TJMZ NIL=
TJNR 110253Z AUTO 05010KT 10SM FEW024 26/23 A3001 RMK AO2 SLP161
     60001 T02610233 51004=
TJPS NIL=
TJSJ 110256Z 08010KT 10SM FEW025 SCT033 SCT055 27/22 A3000 RMK AO2
     SLP156 T02670217 51004=
TKPK NIL=
TKPN NIL=
TQPF NIL=
TRPM NIL=
TUPJ NIL=
TUPW NIL=


136 
SAID31 KWBC 110300
METAR
WAAA NIL=
WABB NIL=
WABP NIL=
WADL 110300Z 24007KT 2000 RA OVC016 25/24 Q1011 TEMPO TL0430
     RA=
WAJJ 110300Z 30012KT 9999 SCT013 33/23 Q1005 NOSIG=
WAKK NIL=
WAMM 110300Z 26011KT 220V290 9999 SCT020 33/26 Q1009 NOSIG=
WAPP NIL=
WASS NIL=
WIBB NIL=
WIID NIL=
WIIH NIL=
WIII 110300Z 32011KT 9999 BKN020 29/26 Q1012 NOSIG=
WIKB NIL=
WIKN NIL=
WIML NIL=
WIMM NIL=
WIOO NIL=
WIPP NIL=
WIRN NIL=
WRBB NIL=
WRKK NIL=
WRLL NIL=
WRLR NIL=
WRRR NIL=
WRSJ NIL=


137 
SAHA31 KWBC 110300
METAR
KQHA NIL=
MTCA NIL=
MTCH NIL=
MTEG NIL=
MTJA NIL=
MTJE NIL=
MTPP 110259Z AUTO 11006KT 8000 ////// 25/21 Q1014 A2996 NOSIG=
MTPX NIL=
MTTP NIL=


138 
SAIQ32 KWBC 110300
NIL=


139 
SPUS81 KWBC 110306
SPECI
KJBR 110302Z AUTO 24017G29KT 3/4SM +TSRA BR BKN025 BKN049 OVC075
21/18 A2962=


225 
SAFR41 KWBC 110300
METAR
LFAF NIL=
LFBA 110300Z AUTO 27004KT CAVOK 07/05 Q1019=
LFBC 110300Z AUTO 23004KT 9000 // FEW028 SCT036 OVC043 08/07
     Q1020=
LFBL 110300Z AUTO 30006KT CAVOK 02/01 Q1016 TEMPO 0500 FG
     VV///=
LFBM 110300Z AUTO 23002KT 9999 -DZ BKN034 BKN041 OVC050 08/07
     Q1020 NOSIG=
LFKF 110300Z AUTO 31013KT 280V350 CAVOK 10/03 Q0997 BECMG
     30015G25KT=
LFLD NIL=
LFLV NIL=
LFOE 110300Z AUTO 28008KT CAVOK 03/01 Q1014 NOSIG=
LFOP 110300Z AUTO 29009KT 9999 FEW027 SCT200 03/01 Q1014=
LFPB 110300Z AUTO 27006KT CAVOK 04/01 Q1013 NOSIG=
LFPG 110300Z 28004KT CAVOK 02/01 Q1013 NOSIG=
LFPV 110300Z AUTO 28009KT CAVOK 02/01 Q1013 NOSIG=
LFQB 110300Z AUTO 28015KT CAVOK 04/01 Q1012=
LFQQ 110300Z AUTO 28009KT 9999 BKN019 03/02 Q1011 NOSIG=
LFRH 110300Z AUTO VRB01KT CAVOK 06/05 Q1018 TEMPO 3500 BR=
LFRM 110300Z AUTO VRB01KT CAVOK 02/02 Q1016=
LFSC NIL=
LFSD 110300Z AUTO 27007KT 9999 BKN026 BKN032 OVC100 04/00
     Q1012=
LFSI 110300Z AUTO 27012KT 9999 OVC023 04/02 Q1011=
LFSL 110300Z AUTO 28004KT CAVOK 02/02 Q1017 NOSIG=
LFSO 110300Z AUTO 30005KT 3400 SN BR OVC004 00/00 Q1009=
LFSX 110300Z AUTO 26011KT 9999 -RA ////// 03/02 Q1010=
LFTH 110300Z AUTO 32011KT 290V350 CAVOK 08/M04 Q1004 TEMPO
     33020G40KT=


226 
SAIO31 KWBC 110300
METAR
FIMP NIL=
FIMR NIL=
FJDG NIL=
FMCH NIL=
FMCV NIL=
FMCZ NIL=
FMEE NIL=
FMMI NIL=
FMMT 110300Z 24005KT 210V270 7000 -RA FEW007 SCT017 BKN033 22/21
     Q1016 NOSIG=
FMNN NIL=
FSIA 110300Z 19006KT 150V230 9999 SCT023 27/22 Q1012 NOSIG=
FSSS NIL=
VRMM NIL=
VYMD 110300Z NIL=
VYYY 110300Z 05006KT 7000 NSC 27/21 Q1016 NOSIG=
WBGG NIL=
WBKK NIL=
WBSB NIL=


228 
SAPO31 KWBC 110300
METAR
LPAZ 110300Z 16008KT 9999 FEW020 16/14 Q1028=
LPBJ 110300Z 31008KT 6000 BCFG SCT005 10/10 Q1025=
LPFL 110300Z NIL=
LPFR 110300Z 29007KT 9999 FEW025 15/11 Q1024=
LPHR 110300Z NIL=
LPLA 110300Z /////KT 9999 FEW014 SCT022 17/15 Q1026=
LPMA 110300Z 03012KT 9999 BKN015 SCT030 18/10 Q1027=
LPMR 110300Z 32002KT 6000 SCT006 BKN020 12/11 Q1026=
LPMT 110300Z 34007KT 9999 BKN018 14/12 Q1025=
LPOV NIL=
LPPD 110300Z 19008KT 9999 FEW012 17/15 Q1028=
LPPR 110300Z 12005KT 9999 FEW008 BKN030 10/10 Q1027=
LPPS 110300Z 05008KT 9999 SCT014 18/12 Q1027=
LPPT 110300Z 36005KT 280V050 9999 FEW009 BKN012 14/13 Q1026=
LPST NIL=
LPTN NIL=


229 
SAMM31 KWBC 110300
METAR
LCEN NIL=
LCLK 110300Z 30007KT CAVOK 14/12 Q1019 NOSIG=
LCNC 110300Z NIL=
LCPH 110300Z AUTO 02007KT 010V080 9999 NCD 12/07 Q1018=
LCRA NIL=
LMML NIL=


230 
SARA31 KWBC 110300
METAR
UAAA 110300Z 20002MPS 2400 BR FEW200 M07/M08 Q1025 NOSIG=
UACC 110300Z 07003MPS CAVOK M15/M20 Q1027 NOSIG RMK
     QFE738/0985=
UAFM NIL=
UAFO NIL=
UAFP NIL=
UAON NIL=
UAOO 110300Z 24003MPS CAVOK M06/M08 Q1021 NOSIG RMK
     QFE754/1006=
UARR 110300Z 01007MPS CAVOK M04/M06 Q1024 NOSIG RMK
     QFE765/1020=
UATE 110300Z 30006MPS 270V340 9999 OVC013 06/03 Q1023 NOSIG RMK
     QFE766/1021=
UATG 110300Z 32006MPS 2900 RASN BR BKN005 OVC015 00/00 Q1020 NOSIG
     RMK QBB150 QFE767/1023=
UATT 110300Z 05004MPS CAVOK M06/M10 Q1019 NOSIG RMK
     QFE745/0993=
UBBB 110300Z 15010KT 9999 SCT009 BKN039 11/10 Q1025 NOSIG=
UBBG 110300Z 21006KT 1500 BR OVC013 05/05 Q1025 NOSIG=
UBEE 110300Z 31004KT 2000 BR SCT023 OVC100 08/08 Q1026 NOSIG=
UGEE NIL=
UGEL NIL=
UGGG NIL=
UGGN NIL=
UGMM NIL=
UGSS NIL=
UHMD 110300Z NIL=
UHME NIL=
UHML NIL=
UHMO NIL=
UHMP NIL=
UHSN NIL=
UIAA 110300Z 29005G11MPS 250V330 9999 NSC M12/M18 Q1024 R29/410160
     NOSIG RMK QFE709/0946=
UIBB 110300Z 25004MPS 210V270 9999 BKN018CB M18/M20 Q1033
     R30/450340 NOSIG RMK QFE731/0974=
UIII 110300Z 29003MPS 5000 -SHSN BKN010CB M11/M15 Q1038 R30/820550
     NOSIG RMK QFE733/0977=
UIUU 110300Z 30006MPS 9999 -SHSN BKN030CB M11/M17 Q1035 R26/450550
     NOSIG RMK MT OBSC QFE731/0975=
ULAA 110300Z 17002MPS 130V210 9999 FEW020 M15/M17 Q1033 R08/950550
     NOSIG RMK QFE774/1032=
ULNR NIL=
UMBB 110300Z NIL=
UMGG 110300Z 12010G14MPS 3200 -SHRA BR OVC004CB 06/05 Q1016 NOSIG
     RMK QBB120=
UMII 110300Z NIL=
UMMG 110300Z 28001MPS 4200 BR OVC003 01/00 Q1008 NOSIG RMK
     QBB090=
UMMM NIL=
UMMS 110300Z 12008MPS 5000 -DZ OVC004 04/04 Q1010 NOSIG RMK
     QBB120=
UNAA 110300Z 26002MPS 9000 NSC M13/M16 Q1038 R20/CLRD65 NOSIG RMK
     QFE756=
UNBG NIL=
UNNN NIL=
UNNT 110300Z 17006MPS 9999 OVC047 M07/M12 Q1034 R25/810250
     R16/810260 NOSIG RMK QFE765/1020=
URMS NIL=
USKK NIL=
USNN 110300Z 29005MPS 9999 -SN OVC035 M09/M12 Q1014 R21/410834
     NOSIG RMK QFE756=
USUU NIL=
UTAA 110300Z 17002KT 4500 BR SCT050 BKN100 04/03 Q1025 R88/CLRD70
     NOSIG=
UTAK 110300Z 00000KT 6000 SCT033 04/03 Q1026 R16R/CLRD70 NOSIG=
UTAK 110300Z NIL=
UTAT 110300Z 24006KT 9999 OVC021 06/04 Q1024 R26/CLRD70 NOSIG=
UTAV 110300Z 28004KT 4300 BR NSC 01/M00 Q1025 R31/CLRD70 NOSIG=
UTAV 110300Z NIL=
UTDD 110300Z 00000MPS 6000 NSC 04/M09 Q1024 R09/CLRD// NOSIG RMK
     QFE699/0932=
UTDL 110300Z 04002MPS 2500 BR NSC 03/M00 Q1025 R08/CLRD70 NOSIG
     RMK QFE729/0973=
UTEE NIL=
UTKA NIL=
UTKF NIL=
UTKK NIL=
UTNK NIL=
UTNN NIL=
UTNR NIL=
UTNU NIL=
UTSA NIL=
UTSB NIL=
UTSD NIL=
UTSK NIL=
UTSS NIL=
UTST NIL=
UTTA NIL=
UTTR NIL=
UTTT NIL=
UTTW NIL=
UUBL NIL=
UUEE 110300Z 09006MPS 9999 SCT004 M17/M19 Q1032 R06R/420245
     R06C/410245 R06L/410245 NOSIG=
UWKB NIL=


232 
SAPA31 KWBC 110300
METAR
AGGG NIL=
AGGH NIL=
ANAU NIL=
AYPY NIL=
PGNT NIL=
PGRO 110250Z 06012KT 7SM BKN015 BKN100 29/24 A2979=
PGSN 110254Z 05013G18KT 10SM FEW020 SCT025 SCT035 29/24 A2982 RMK
     AO2 SLP119 T02940244 58016 $=
PGUA 110256Z 10012KT 10SM FEW009 SCT016 BKN23 28/24 A2982 RMK AO2A
     RAE0159 SLP088 P0000 60001 T02760242 57021 $=
PGWT 110254Z 08014KT 7SM FEW017 BKN150 29/24 A2981=
PHJH NIL=
PHJR 110253Z 07008KT 10SM CLR 27/18 A3004 RMK AO2 SLP180 T02720178
     53004=
PHMK 110254Z 04013G22KT 10SM CLR 24/19 A3004 RMK AO2 SLP175
     T02440189 53006 $=
PJON NIL=
PKMJ NIL=
PKMR 110255Z 10005KT 15SM FEW015 SCT050 BKN120 OVC300 30/25 A2975
     RMK SLP075 8/871 T02950246 57019=
PKWA 110300Z AUTO 07009KT 10SM CLR 29/23 A2976 RMK AO2
     T02910225=
PLCH 110300Z 11010KT 9999 FEW019 BKN040 28/23 Q1007=
PMDY 110256Z AUTO 08014KT 10SM FEW017 SCT028 25/21 A3003 RMK AO2
     SLP167 6//// T02500211 55003=
PTKK 110253Z 35007G23KT 15SM FEW014 SCT120 BKN280 29/26 A2968 RMK
     SLP052 8/171 T02940260 57025=
PTKR NIL=
PTPN 110258Z 09010KT 15SM BKN018TCU OVC300 31/25 A2973 RMK TCU
     SE-S AND W LAST=
PTRO 110250Z 04007KT 14SM BKN015TCU BKN120 BKN300 30/25 A2978 RMK
     TCU SW-W=
PTSA 110252Z 06010KT 10SM -SHRA BKN018TCU BKN130 BKN300 29/26
     A2973 RMK TCU S-SW LAST=
PTTP NIL=
PTYA 110252Z 06007KT 12SM FEW017 BKN300 31/25 A2977 RMK SLP081
     8/102 T03110253 57020=
PWAK NIL=


233 
SANT31 KWBC 110300
METAR
BGBW 110250Z AUTO 00000KT 9999NDV BKN160/// M02/M10 Q0981=
BGCO NIL=
BGGH 110250Z AUTO 06005KT 9999NDV SCT190/// M06/M10 Q0987=
BGJN 110250Z AUTO 09015KT 9999NDV NCD M03/M16 Q0991=
BGKK 110250Z AUTO 07022G35KT 9999NDV FEW043/// FEW051/// BKN130///
     02/M06 Q0983=
BGSF 110250Z AUTO 08009KT 9999NDV BKN120/// M11/M16 Q0989=
BGTL 110256Z AUTO 08009KT 9999 SCT042 M17/M18 A2956 RMK AO2 SLP000
     T11751177 57009 TSNO $=
BIAR 110300Z 17004KT 140V200 CAVOK M08/M09 Q0990=
BIEG 110300Z 00000KT 9999 BKN036 M05/M07 Q0993=
BIKF 110300Z 11032G43KT 5000 -RA OVC009 04/02 Q0977=
BIRK 110300Z 10019G29KT 9999 -RA OVC033 03/M01 Q0978=
GVAC 110300Z 04013KT 9999 FEW014 SCT100 21/17 Q1012 NOSIG=
GVPR NIL=
LPBJ 110300Z 31008KT 6000 BCFG SCT005 10/10 Q1025=
LPLA 110300Z /////KT 9999 FEW014 SCT022 17/15 Q1026=
TXKF 110255Z 08006KT 9999 FEW035 SCT057 SCT300 19/13 Q1025=


234 
SAFR32 KWBC 110300
METAR
LFML 110300Z AUTO 32025KT CAVOK 07/01 Q1008 BECMG 32025G35KT=
LFMN 110300Z 34008KT CAVOK 05/M01 Q1002 NOSIG=
LFMP 110300Z AUTO 32017KT 280V340 9999 SCT043 BKN050 BKN110 09/02
     Q1015 TEMPO 32020G35KT=
LFMT 110300Z AUTO 34006KT CAVOK 04/M03 Q1013 NOSIG=
LFOB 110300Z AUTO 26003KT CAVOK 01/00 Q1013 NOSIG=
LFOH 110300Z AUTO 34010KT 9999 FEW028 07/02 Q1015=
LFOT 110300Z AUTO 00000KT CAVOK 03/02 Q1016 TEMPO 2000 BR
     BKN003=
LFPB 110300Z AUTO 27006KT CAVOK 04/01 Q1013 NOSIG=
LFPG 110300Z 28004KT CAVOK 02/01 Q1013 NOSIG=
LFPN 110300Z AUTO 30010KT CAVOK 02/00 Q1013=
LFPO 110300Z 27007KT CAVOK 03/01 Q1013 NOSIG=
LFQQ 110300Z AUTO 28009KT 9999 BKN019 03/02 Q1011 NOSIG=
LFRB 110300Z AUTO 21004KT 9999 FEW022 OVC050 07/06 Q1017 TEMPO
     4000 -RADZ BR=
LFRC 110300Z AUTO 30006KT 280V340 9999 BKN030 BKN140 07/01
     Q1015=
LFRD 110300Z AUTO 25005KT 230V290 9999 FEW034 BKN040 BKN050 06/04
     Q1017 TEMPO 4000 SHRA BKN020TCU=
LFRD 110300Z NIL=
LFRG 110300Z AUTO 31004KT 280V350 9999 BKN028 BKN130 06/02
     Q1015=
LFRG 110300Z NIL=
LFRK 110300Z AUTO 26009KT 9999 FEW037 04/01 Q1015=
LFRN 110300Z AUTO 25005KT 9999 BKN036/// BKN043/// OVC130///
     ///TCU 05/04 Q1017 TEMPO 4000 BR BECMG SCT040=
LFRN 110300Z NIL=
LFRO NIL=
LFRQ 110300Z AUTO 26005KT CAVOK 08/06 Q1018=
LFRS 110300Z AUTO 29004KT CAVOK 06/04 Q1018 NOSIG=
LFRS 110300Z NIL=
LFRT NIL=
LFRZ 110300Z AUTO 27006KT CAVOK 07/05 Q1018 NOSIG=
LFSB 110300Z AUTO 25016KT CAVOK 04/01 Q1009 TEMPO 26018G33KT
     BKN012=
LFSF NIL=
LFSN 110300Z AUTO 31004KT 9999 -SNRA OVC008/// ///TCU 02/01
     Q1009=
LFSR NIL=
LFST 110300Z AUTO 30004KT 9999 -DZ BKN025 BKN037 BKN047 03/01
     Q1008 TEMPO BKN013=
LFTW 110300Z AUTO 33010KT CAVOK 04/M02 Q1011 NOSIG=
LFVP NIL=


235 
SAEW31 KWBC 110300
METAR
LPAZ 110300Z 16008KT 9999 FEW020 16/14 Q1028=
LPFR 110300Z 29007KT 9999 FEW025 15/11 Q1024=
LPFU NIL=
LPPD 110300Z 19008KT 9999 FEW012 17/15 Q1028=
LPPR 110300Z 12005KT 9999 FEW008 BKN030 10/10 Q1027=
LPPS 110300Z 05008KT 9999 SCT014 18/12 Q1027=
LPPT 110300Z 36005KT 280V050 9999 FEW009 BKN012 14/13 Q1026=
LXGB NIL=


236 
SAJP45 KWBC 110300
METAR
RJTJ NIL=
RJTK NIL=
RJTL NIL=
RJTO 110300Z 02006KT 340V060 9999 FEW020 15/09 Q1021=
RJTQ NIL=
RJTR NIL=
RJTU NIL=
RJTX NIL=
RJTY 110256Z AUTO 00000KT 10SM CLR 14/02 A3019 RMK AO2 SLP229
     T01440016 57024 $=


237 
SAEE31 KWBC 110300
METAR
EPGD 110300Z 19006KT 2900 BR OVC002 M02/M02 Q1007=
EPKK 110300Z 31003KT 0450 R25/1700U FZFG BKN001 OVC002 M01/M02
     Q1007=
EPKT 110300Z 10003KT 3000 -SN BR SCT001 BKN003 M03/M04 Q1006=
EPLB 110300Z 07002KT 3200 BR OVC020 01/01 Q1008=
EPMO 110300Z 09004KT 0200 R08/0225N FZFG VV000 M02/M02 Q1008=
EPPO 110300Z 09005KT 2800 BR NSC M07/M08 Q1007=
EPQT NIL=
EPRZ 110300Z 07005KT 0450 R27/1500D FZFG VV001 M02/M02 Q1007=
EPSC 110300Z 16007KT 2500 BR OVC003 M01/M01 Q1006=
EPWA 110300Z 08003KT 040V110 0600 0500NW R11/0700N FZFG VV002
     M01/M01 Q1008 NOSIG=
EYSA NIL=
UKBB 110300Z 13007MPS 9999 SCT012 BKN020 08/07 Q1014 TEMPO
     15010G15MPS=
UKKK 110300Z 12005G10MPS 090V150 9000 -RA SCT006 OVC027 08/07
     Q1013 TEMPO BKN004=
UKLL 110300Z 00000MPS 1700 1400NW R31/P2000D BR NSC M02/M03 Q1007
     NOSIG=
UKOO 110300Z 16006MPS 6000 -SHRA FEW008 SCT015CB BKN043 10/10
     Q1010 NOSIG=
UMII 110300Z NIL=
UMMM NIL=
UMMS 110300Z 12008MPS 5000 -DZ OVC004 04/04 Q1010 NOSIG RMK
     QBB120=
UMRR NIL=


238 
SASD41 KWBC 110300
METAR
OEAB 110300Z 00000KT CAVOK 04/M09 Q1026 NOSIG=
OEAH NIL=
OEAM NIL=
OEAN NIL=
OEBA NIL=
OEBG NIL=
OEBH NIL=
OEBP NIL=
OECM NIL=
OEDG NIL=
OEDW NIL=
OEEB NIL=
OEEH NIL=
OEFM NIL=
OEGE NIL=
OEGF NIL=
OEGL NIL=
OEGM NIL=
OEGN NIL=
OEGP NIL=


239 
SAJP44 KWBC 110300
METAR
RJOS 110300Z 11003KT 070V190 9999 FEW030 15/10 Q1024=
RJOT 110300Z 32003KT 210V020 9999 FEW030 16/08 Q1024=
RJOY 110300Z 24003KT 180V340 9999 FEW020 SCT120 15/09 Q1024=
RJOZ NIL=
RJSA 110300Z 24005KT 190V260 9999 VCSH FEW020 BKN035 08/04
     Q1018=
RJSC 110300Z 34005KT 9999 FEW020 SCT110 08/05 Q1021=
RJSD NIL=
RJSH NIL=
RJSI 110300Z VRB01KT 9999 FEW030 BKN040 07/03 Q1020=
RJSO NIL=
RJST NIL=
RJSU NIL=
RJTA NIL=
RJTC NIL=
RJTE NIL=
RJTF 110300Z 16003KT 060V230 9999 FEW030 SCT/// 14/03 Q1021=
RJTH NIL=
RJTI 110300Z 13005KT 6000 NSC 12/07 Q1022=


240 
SACI32 KWBC 110300
METAR
ZBAA 110300Z VRB02G07MPS CAVOK 07/M02 Q1030 BECMG TL0420
     33006MPS=
ZBTJ 110300Z 26002MPS 220V290 4000 HZ NSC 08/M02 Q1029 NOSIG=
ZBYN 110300Z 19002MPS 1500 R31/1400N BR NSC 03/00 Q1030 NOSIG=
ZGGG 110300Z VRB01MPS 8000 BKN060 22/14 Q1023 NOSIG=
ZGNN 110300Z 06003MPS 8000 NSC 20/16 Q1022 NOSIG=
ZGSZ 110300Z 01003MPS 340V050 CAVOK 24/15 Q1022 NOSIG=
ZHHH 110300Z 03004MPS 340V060 2300 BR NSC 11/07 Q1028 NOSIG=
ZKPY NIL=
ZLLL 110300Z 04004MPS 9999 SCT013 M04/M08 Q1034 NOSIG=
ZMUB 110300Z VRB02MPS CAVOK M17/M21 Q1031 NOSIG=
ZMUB 110300Z VRB02MPS CAVOK M17/M21 Q1031 NOSIG RMK QFE664.6
     70=
ZPPP 110300Z 21006MPS 9999 FEW020 BKN040 14/10 Q1027 NOSIG=
ZSAM 110300Z 04003MPS 010V090 9999 BKN033 21/12 Q1024 NOSIG=
ZSHC 110300Z 07002MPS 350V140 1600 HZ NSC 14/09 Q1027 NOSIG=
ZSNJ 110300Z 05003MPS 010V080 2100 BR BKN009 11/08 Q1028 BECMG
     TL0430 3000 BKN010=
ZSOF 110300Z 08003MPS 2000 BR SCT013 10/07 Q1028 NOSIG=
ZSPD 110300Z 06005MPS 020V090 CAVOK 16/09 Q1027 NOSIG=
ZSSS 110300Z 11004MPS 080V150 7000 FEW026 15/08 Q1027 NOSIG=
ZUBD NIL=
ZUCD NIL=
ZUCK 110300Z 24002MPS 2200 -DZ BR FEW005 SCT009 OVC020 11/11 Q1028
     NOSIG=
ZUDF NIL=
ZUDS NIL=
ZUDX NIL=
ZUDZ NIL=
ZUFJ NIL=
ZUFL NIL=
ZUGH NIL=
ZUGY 110300Z 36003MPS 5000 -RA BR FEW004 BKN015 OVC023 08/07 Q1027
     NOSIG=
ZULP NIL=
ZULS NIL=
ZULZ NIL=
ZUMY NIL=
ZUNC NIL=
ZUSN NIL=
ZUTR NIL=
ZUUU 110300Z 26002MPS 230V300 9999 SCT050 11/07 Q1030 NOSIG=
ZUWF NIL=
ZUWX NIL=
ZUXC NIL=
ZUXJ NIL=
ZUXY NIL=
ZUYB NIL=
ZUZY NIL=
ZWTN NIL=
ZWWW 110300Z 27002MPS 2800 -SN BR BKN014 M13/M15 Q1040 BECMG
     TL0350 3500 BR SCT020=
ZYHB 110300Z 16003MPS 100V190 5000 BR NSC M03/M06 Q1024 NOSIG=
ZYTL 110300Z 27004MPS CAVOK 08/M02 Q1028 NOSIG=
ZYYY NIL=


242 
SAPA32 KWBC 110300
METAR
NCRG 110300Z AUTO 12004KT 070V160 9999 BKN033/// 26/23 Q1013=
NFFN 110300Z 06008KT 9999 -TSRA FEW018CB SCT026TCU 31/24 Q1009
     TEMPO 5000 TSRA=
NFNA 110300Z 08009KT 9999 SCT020 SCT048 30/23 Q1009=
NFTF 110300Z 10011G21KT 9999 FEW018TCU 29/25 Q1012=
NFTV 110300Z 36008KT 9999 FEW009 BKN016TCU 27/24 Q1011=
NGFU 110300Z 08010KT 9999 -SHRA FEW015CB FEW018TCU OVC100 29/26
     Q1007=
NSFA NIL=
NSTU 110250Z 08015KT 12SM FEW018 BKN110 31/26 A2982 RMK SLP098
     8/120 T03060263 56008=
NTAA 110300Z 06009KT 9999 FEW026 SCT060 29/22 Q1013 NOSIG=
NWWW NIL=


243 
SAPQ31 KWBC 110300
METAR
PGRO 110250Z 06012KT 7SM BKN015 BKN100 29/24 A2979=
PGSN 110254Z 05013G18KT 10SM FEW020 SCT025 SCT035 29/24 A2982=
PGWT 110254Z 08014KT 7SM FEW017 BKN150 29/24 A2981=
PKMJ NIL=
PKMR 110255Z 10005KT 15SM FEW015 SCT050 BKN120 OVC300 30/25
     A2975=
PKRO NIL=
PKWA 110300Z AUTO 07009KT 10SM CLR 29/23 A2976=
PTKK 110253Z 35007G23KT 15SM FEW014 SCT120 BKN280 29/26 A2968=
PTKR NIL=
PTPN 110258Z 09010KT 15SM BKN018TCU OVC300 31/25 A2973=
PTRO 110250Z 04007KT 14SM BKN015TCU BKN120 BKN300 30/25 A2978=
PTSA 110252Z 06010KT 10SM -SHRA BKN018TCU BKN130 BKN300 29/26
     A2973=
PTTP NIL=
PTYA 110252Z 06007KT 12SM FEW017 BKN300 31/25 A2977=
PWAK NIL=


244 
SASA42 KWBC 110300
METAR
SCAC NIL=
SCHA NIL=
SCSE NIL=
SCTC NIL=
SCTI NIL=
SCVD NIL=
SELT 110300Z 31001KT 9999 SCT026 11/08 Q1028=
SUAG NIL=
SUDU NIL=
SUPU NIL=
SUTB NIL=


245 
SARS31 KWBC 110300
METAR
UELL NIL=
UEST NIL=
ULLI 110300Z 11007MPS 9999 BKN046 M07/M10 Q1024 R10R/410550
     NOSIG=
ULMM 110300Z 21003MPS 9999 -SHSN BKN030CB M07/M09 Q1018 R13/490138
     NOSIG RMK QFE757=
UMWW NIL=
UOHH NIL=
UOOO 110300Z 07003MPS 8000 NSC M25/M28 Q1019 R01/39//45 NOSIG RMK
     QFE749/0999=
UQKT NIL=
UTAM 110300Z 00000KT CAVOK 04/02 Q1027 R88/CLRD70 NOSIG=
UUDD 110300Z 08003MPS CAVOK M20/M22 Q1032 R14R/450242 NOSIG=
UUEE 110300Z 09006MPS 9999 SCT004 M17/M19 Q1032 R06R/420245
     R06C/410245 R06L/410245 NOSIG=
UUEM NIL=
UUKT NIL=
UUWW 110300Z 11004MPS CAVOK M16/M19 Q1031 R06/410250 TEMPO
     FEW004=


247 
SARS41 KWBC 110300
METAR
UUBP 110300Z 10006MPS 9999 OVC005 00/M00 Q1023 R34/620255 NOSIG
     RMK QFE750/1000=
UUEE 110300Z 09006MPS 9999 SCT004 M17/M19 Q1032 R06R/420245
     R06C/410245 R06L/410245 NOSIG=
UUEM NIL=
UUOO 110300Z 08003MPS 9999 OVC010 M02/M05 Q1028 R12/010070 NOSIG
     RMK QFE757=
UUWW 110300Z 11004MPS CAVOK M16/M19 Q1031 R06/410250 TEMPO
     FEW004=
UUYH NIL=
UUYS NIL=
UUYY 110300Z 22003MPS 9999 FEW005 M19/M21 Q1038 R18/420345 NOSIG
     RMK QBB150 QFE770/1027=
UWGG 110300Z 32001MPS CAVOK M23/M26 Q1037 R36R/420045 NOSIG=
UWKD 110300Z 36005MPS CAVOK M15/M18 Q1035 R11/420345 NOSIG RMK
     QFE766/1021=
UWKE 110300Z 04008MPS 9999 SCT006 M14/M16 Q1033 R03/320055 NOSIG
     RMK OBST OBSC QFE758/1011=
UWLW 110300Z 01006MPS 4500 -SN OVC009 M10/M12 Q1033 R02/550348
     NOSIG RMK QFE768=
UWOO 110300Z 05004MPS 9999 BKN049 M04/M08 Q1023 R08/820550 NOSIG
     RMK QFE756/1008=
UWPP NIL=
UWSS NIL=
UWUU 110300Z 01009MPS 9999 OVC013 M05/M08 Q1028 R32L/1///50
     NOSIG=
UWWW 110300Z 01007MPS 9999 BKN009 M08/M11 Q1030 R33/CLRD60 NOSIG
     RMK QFE761/1015=


248 
SAPQ31 KWBC 110300 CCA
METAR
PGUM 110254Z 08012KT 10SM FEW021 BKN028 OVC044 29/24 A2981=


250 
SAJP31 KWBC 110300
METAR
RJAA 110300Z 21004KT 180V270 9999 FEW025 13/05 Q1021 NOSIG=
RJAH 110300Z 24006KT 9999 FEW030 13/03 Q1021=
RJCC 110300Z 18009KT 9999 FEW020 SCT050 BKN100 08/04 Q1017=
RJCH 110300Z 25009KT 9999 -SHRA FEW012 SCT025 BKN050 11/03
     Q1017=
RJFK 110300Z 10003KT 050V130 9999 FEW025 17/10 Q1024=
RJFT 110300Z 28004KT 200V350 9999 FEW040 BKN/// 16/07 Q1024=
RJFU 110300Z 02003KT 340V060 9999 FEW030 BKN050 BKN/// 15/11
     Q1024=
RJNN NIL=
RJOO 110300Z 18003KT 120V250 9999 FEW020 BKN070 15/08 Q1024=
RJSS 110300Z VRB02KT 9999 FEW020 10/04 Q1020=
RJTT 110300Z 16005KT 120V200 9999 FEW020 12/07 Q1021 NOSIG=
RODN 110256Z AUTO 11007KT 10SM FEW033 SCT050 BKN060 24/15 A3020
     RMK AO2 SLP234 T02390148 58008 $=


252 
SAPH31 KWBC 110300
NIL=


253 
SACI32 KWBC 110300 CCA
METAR
ZBYN 110300Z 19002MPS 1500 R31/1400N BR NSC 03/00 Q1030 BECMG
     TL0430 3000=


255 
SASD43 KWBC 110300
METAR
OEMK NIL=
OEML NIL=
OEMU NIL=
OENG NIL=
OEOA NIL=
OEOF NIL=
OEOH NIL=
OEOS NIL=
OEOT NIL=
OEPA NIL=
OERC NIL=
OERF NIL=
OERG NIL=
OERL NIL=
OERR NIL=
OERX NIL=
OERY 110300Z NIL=
OESH NIL=
OESK NIL=
OESM NIL=


256 
SAIQ31 KWBC 110300
METAR
KQAD NIL=
KQAE NIL=
KQEZ NIL=
KQMG NIL=
KQMH NIL=
KQTO NIL=
KQTU NIL=
KQTW NIL=
KQTX NIL=
KQTZ 110255Z 31004KT 9999 SKC 08/05 A3024 RMK SLP244 51002=
KQVO NIL=
KQXJ NIL=
KQXN NIL=
ORBI 110300Z 30006KT CAVOK 05/01 Q1024 NOSIG=
ORER 110300Z 32003KT 8000 NSC 03/00 Q1025=


257 
SAMX41 KWBC 110345
METAR
MMAS 110303Z RTD 35005KT 10SM FEW200 14/M06 A3024 RMK SLP/// 5////
     9// 6//// 8/002=


258 
SAPA31 KWBC 110300 CCA
METAR
PGUM 110254Z 08012KT 10SM FEW021 BKN028 OVC044 29/24 A2981 RMK AO2
     SLP088 T02940244 56017 $=


259 
SACI41 KWBC 110300
NIL=


262 
SASD44 KWBC 110300
NIL=


263 
SARS33 KWBC 110300
METAR
USCC 110300Z 36004MPS CAVOK M08/M10 Q1029 R27/390042 NOSIG RMK
     QFE752=
USDD NIL=
USHF NIL=
USMU NIL=
USNN 110300Z 29005MPS 9999 -SN OVC035 M09/M12 Q1014 R21/410834
     NOSIG RMK QFE756=
USNR NIL=
USPP 110300Z 26002MPS 9999 SCT009 M17/M19 Q1036 R21/490150 NOSIG
     RMK QFE766=
USRK NIL=
USRR 110300Z 26008MPS 9999 DRSN SCT011 BKN023 M13/M15 Q1016
     R25/95//32 NOSIG RMK QFE756=
USSS 110300Z 33001MPS CAVOK M12/M14 Q1032 R26R/820250 R26L/410250
     NOSIG RMK QFE753/1004=
USTR 110300Z 31004MPS CAVOK M11/M14 Q1030 R30/350055 R21/350055
     NOSIG=


265 
SASP31 KWBC 110300
METAR
LEAL 110300Z VRB01KT CAVOK 15/06 Q1018 NOSIG=
LEAM 110300Z AUTO 11003KT 350V150 8000 NCD 13/09 Q1018=
LEAO 110300Z NIL=
LEAS 110300Z AUTO 23010KT 9999 OVC018 12/09 Q1023=
LEBB 110300Z AUTO 31010KT 260V330 2400 RA VV012 11/11 Q1022=
LEBL 110300Z VRB02KT 9999 FEW040 07/03 Q1013 NOSIG=
LECO 110300Z AUTO 28005KT 240V320 1800 1300 -RA BR FEW007 13/12
     Q1025=
LEDA 110300Z AUTO 27014KT CAVOK 08/04 Q1013=
LEGE 110300Z 03005KT 350V060 9999 OVC070 06/02 Q1013=
LEGR 110300Z AUTO VRB01KT 4100 BR BKN003 08/08 Q1023=
LEIB 110300Z AUTO 31005KT 260V340 CAVOK 15/08 Q1015=
LEJR 110300Z AUTO 28007KT 250V320 CAVOK 12/11 Q1023=
LELC 110300Z AUTO 00000KT CAVOK 13/08 Q1018=
LELL 110300Z AUTO 31003KT 270V350 CAVOK 03/01 Q1013=
LEMD 110300Z 18005KT CAVOK 07/02 Q1021 NOSIG=
LEMG 110300Z 29016KT 260V320 9999 SCT035 16/10 Q1020 NOSIG=
LEMH 110300Z AUTO 36014G24KT 9999 FEW030/// 10/05 Q1012=
LEPA 110300Z 33008KT 320V020 9999 FEW025 BKN048 14/07 Q1013
     NOSIG=
LEPP 110300Z AUTO 30006KT 7000 -RA BKN018 OVC024 07/07 Q1019=
LERS 110300Z AUTO 29008KT 250V330 CAVOK 12/04 Q1013=
LESO 110300Z AUTO 29004KT 200V360 9000 SCT028 BKN044 OVC050 11/09
     Q1021=
LEST 110300Z 25004KT 190V300 3000 BR OVC001 10/10 Q1026 NOSIG=
LETO 110300Z 02008KT CAVOK 08/02 Q1021 NOSIG=
LEVC 110300Z 25013KT CAVOK 14/04 Q1016 NOSIG=
LEVD 110300Z AUTO 25006KT CAVOK 02/01 Q1023=
LEVS 110300Z AUTO 30019KT 270V340 CAVOK 09/03 Q1021=
LEVT 110300Z 30008KT 4200 -RA BR SCT012 BKN020 08/08 Q1021=
LEVX 110300Z 22003KT 2000 BCFG BKN008 BKN014 10/10 Q1026 NOSIG=
LEXJ 110300Z AUTO 29014KT 260V320 3400 0600E -RA BR BCFG SCT009
     OVC014 11/10 Q1022 RERA=
LEZG 110300Z 30017KT 9999 FEW030 SCT040 BKN050 11/07 Q1018=
LEZL 110300Z AUTO VRB01KT 7000 NCD 09/08 Q1023=


266 
SASA32 KWBC 110300
METAR
SCAR NIL=
SCBA NIL=
SCCF NIL=
SCCH NIL=
SCCI NIL=
SCDA NIL=
SCEL 110300Z 16007KT CAVOK 15/11 Q1014 NOSIG=
SCFA NIL=
SCGE NIL=
SCIE NIL=
SCIP NIL=
SCTE NIL=
SGAS 110300Z 15005KT CAVOK 27/17 Q1006=
SGES 110300Z 30002KT CAVOK 22/18 Q1007=
SLCB 110300Z 14010KT 9999 FEW030 FEW033CB BKN070 18/12 Q1020=
SLCZ NIL=
SLLP 110300Z VRB02KT 9999 FEW004 FEW017CB SCT070 BKN200 06/06
     Q1035=
SLTJ 110300Z 00000KT 9999 FEW005 BKN025 OVC070 18/17 Q1016=
SLTR NIL=
SLVR 110300Z 35005KT 9999 FEW030CB SCT200 27/22 Q1006=
SUAA NIL=
SUCA NIL=
SULS 110300Z 07006KT 040V110 CAVOK 17/14 Q1011=
SUMU 110300Z 07004KT CAVOK 18/14 Q1010 NOSIG=
SUPE NIL=
SURV NIL=
SUSO NIL=


267 
SATS31 KWBC 110300
NIL=


269 
SATN41 KWBC 110300
NIL=


270 
SASA31 KWBC 110300
METAR
SEGU 110300Z 21011KT 9999 FEW010 BKN023 OVC100 25/20 Q1012 NOSIG
     RMK A2988=
SEQM 110300Z 02002KT 9999 SCT006 BKN040 14/13 Q1025 NOSIG RMK
     A3029=
SEQU NIL=
SKBO 110300Z VRB02KT 9999 SCT015 SCT070 14/12 Q1025 NOSIG RMK
     A3027=
SKBQ 110300Z 03010KT CAVOK 27/22 Q1008 NOSIG RMK A2977=
SKCG NIL=
SKCL 110300Z 35003KT 9999 FEW040 BKN150 21/18 Q1014 NOSIG RMK
     A2996=
SKLT 110300Z 00000KT 9999 SCT010 BKN080 24/24 Q1008 RMK A2978=
SKRG 110300Z 32003KT 9999 SCT010 BKN200 15/14 Q1023 NOSIG RMK
     A3023=
SKSP 110300Z 08008KT 050V120 9999 FEW015 BKN200 27/23 Q1012 RMK
     A2990=
SMNI NIL=
SMZO 110300Z NIL=
SMZY NIL=
SOCA 110300Z AUTO 24001KT 9999 FEW025 SCT038 25/24 Q1008 TEMPO
     3000 SHRA BKN005 BKN012TCU=
SPJC 110300Z 15010KT CAVOK 19/16 Q1014 NOSIG RMK PP000=
SPQT 110300Z VRB02KT 9999 BKN008 OVC070 24/23 Q1008 NOSIG RMK
     PP000=
SPQU 110300Z VRB02KT 9999 SCT007 SCT015 11/09 Q1027 NOSIG RMK
     PP000=
SPSO 110300Z 21012KT 9999 BKN080 19/16 Q1014 RMK PP000=
SPTN 110300Z NIL=
SPYL NIL=
SPZO 110300Z 12010KT 6000 RA SCT046 OVC080 11/07 Q1030 NOSIG RMK
     BIRD HAZARD RWY28 PP036=
SVBC NIL=
SVMC NIL=
SVMG NIL=
SVMI 110300Z 09008KT 9999 FEW016 31/25 Q1010=
SYCJ 110300Z VRB02KT 9999 FEW014 SCT034 25/24 Q1009 NOSIG=
SYTM NIL=


271 
SAEE32 KWBC 110300
METAR
LBBG 110300Z 29004KT CAVOK 08/06 Q1011 NOSIG=
LBPD 110300Z AUTO 11004KT 090V150 9999 BKN210/// 02/00 Q1009=
LBSF 110300Z 10004KT 080V160 CAVOK 02/00 Q1007 NOSIG=
LBWN 110300Z 03004KT 350V060 CAVOK 07/04 Q1011 NOSIG=
LHBP 110300Z 04004KT 7000 OVC008 01/00 Q1007 NOSIG=
LHTA NIL=
LRAR 110300Z 08005KT 4300 BR FEW002 OVC010 04/03 Q1006=
LRBS 110300Z 21005KT 170V250 3000 BR OVC002 05/05 Q1009 BECMG 1500
     BR OVC001=
LRCK 110300Z 24006KT 9999 SCT019 BKN045 06/05 Q1010 NOSIG=
LROP 110300Z 22008KT 2000 BR OVC002 05/05 Q1009 BECMG 0600 FG
     OVC001=
LRTC 110300Z AUTO 21017KT 9999 SCT028/// 08/05 Q1009=
LRTM 110300Z AUTO 00000KT 0450 R07/0500N FG VV001 03/03 Q1007=
LRTR 110300Z 07009KT 0900 R11/1000U -DZ FG VV002 03/03 Q1006=
LUCC NIL=
LUKK NIL=
LURN NIL=


272 
SAFR31 KWBC 110300
METAR
LFAC NIL=
LFAT 110300Z AUTO 33009KT 9999 SCT019 05/03 Q1013=
LFBD 110300Z AUTO 29006KT 9999 FEW033 BKN054 BKN140 07/06 Q1019
     NOSIG=
LFBH 110300Z AUTO 31008KT CAVOK 07/05 Q1018 TEMPO 4000 BR=
LFBI 110300Z AUTO 28005KT CAVOK 03/02 Q1017 NOSIG=
LFBO 110300Z AUTO 28011KT CAVOK 07/04 Q1018 NOSIG=
LFBP 110300Z AUTO 25011KT 9999 SCT048/// BKN058/// BKN068///
     ///TCU 09/08 Q1020 TEMPO 4000 -RA BKN010=
LFBT 110300Z AUTO 35006KT 250V060 5000 RA BR FEW008/// BKN019///
     OVC025/// ///CB 06/05 Q1020 TEMPO NSW BKN025=
LFBT 110300Z NIL=
LFBZ 110300Z AUTO 30010KT 9999 BKN018 BKN024 BKN030 11/09 Q1021
     TEMPO RA BKN014 BKN020TCU=
LFGJ 110300Z AUTO 23008KT 9999 BKN030 BKN044 OVC100 02/01
     Q1013=
LFGJ 110300Z NIL=
LFKB 110300Z AUTO 29011KT 9999 SCT042 SCT054 OVC072 08/04 Q0999
     TEMPO 32015G25KT SHRA BKN020 FEW030CB BKN040=
LFKC 110300Z AUTO 03008KT 010V070 9999 -RA SCT028 BKN035 BKN046
     08/05 Q1000 TEMPO 01015G25KT SHRA BKN020 FEW030CB BKN040=
LFKJ 110300Z AUTO 09004KT 040V190 CAVOK 06/03 Q0999 NOSIG=
LFLB 110300Z AUTO VRB02KT 9000 FEW016 BKN074 OVC130 01/01 Q1014
     TEMPO 4000 -SNRA BKN014=
LFLC 110300Z AUTO 35005KT 310V010 9999 FEW025 OVC050 04/01 Q1015
     NOSIG=
LFLL 110300Z 32005KT 9999 BKN026 03/01 Q1014 NOSIG=
LFLS 110300Z AUTO 01005KT 9999 BKN020 BKN027 BKN035 02/00 Q1013
     TEMPO BKN014=
LFLY 110300Z AUTO 04004KT 9999 BKN027 OVC070 03/01 Q1014 NOSIG=
LFMD 110300Z AUTO 01003KT 340V040 CAVOK 02/M00 Q1003 NOSIG=
LFMH 110300Z AUTO VRB01KT 9999 SCT020 BKN027 OVC042 02/M00
     Q1014=
LFMH 110300Z NIL=


273 
SASA41 KWBC 110300
METAR
SEMT 110300Z 21008KT 8000 -DZ OVC026 23/21 Q1012 RMK A2991=
SEPA NIL=
SKBG 110300Z VRB02KT 9999 FEW010 SCT040 BKN270 21/21 Q1014 RMK
     A2995=
SKMD NIL=
SKPE 110300Z 09008KT 9999 SCT010 SCT070 21/17 Q1016 RMK A3001=
SKSM NIL=
SKVG NIL=
SMJP 110300Z 10003KT 9999 FEW005 SCT008 24/24 Q1009 NOSIG=


274 
SARS32 KWBC 110300
METAR
URKA 110300Z 10004MPS CAVOK 09/04 Q1017 R04/010070 NOSIG RMK
     QFE759/1012=
URKK 110300Z 07004MPS CAVOK 04/03 Q1021 R05R/CLRD70 TEMPO SCT006
     RMK QFE762=
URKM NIL=
URMM 110300Z 09005MPS 0300 0250NW R12/0750N -DZ FG VV002 04/03
     Q1024 R12/090070 NOSIG RMK QBB070 MT OBSC OBST OBSC
     QFE739/0986=
URMN 110300Z 25001MPS 0300 R24/0350 FG VV001 01/01 Q1023
     R24/////// NOSIG RMK QBB030 MT OBSC OBST OBSC QFE730=
URMT 110300Z 14003MPS 0100 R25/0300N -DZ FG VV001 02/01 Q1023
     R25/190060 NOSIG RMK QBB050 OBST OBSC QFE728=
URRR NIL=
URSS 110300Z 08006MPS 9999 NSC 08/01 Q1019 R06/010070 R02/010070
     NOSIG RMK R02/04007G10MPS QFE763=
URWA 110300Z 31004MPS 9999 BKN012 01/M01 Q1025 R27/010070 NOSIG
     RMK QFE770/1027=
URWI 110300Z AUTO 03004MPS 9999 // ///011/// M00/M02 Q1026=
URWW 110300Z 07005MPS 9999 OVC010 M01/M03 Q1027 R06/010070 TEMPO
     1000 -FZDZ BR OVC002=


275 
SAKN41 KWBC 110300
NIL=


277 
SAIE31 KWBC 110300
METAR
EICK 110300Z 18006KT 0400 R16/0650 R34/0750 FG BKN001 OVC002 08/08
     Q1011 NOSIG=
EIDB NIL=
EIDW 110300Z 20005KT 9999 FEW014 BKN060 06/03 Q1011 NOSIG=
EIKN 110300Z NIL=
EINN 110300Z 14009KT 5000 -RADZ FEW014 BKN020 07/05 Q1010 BECMG
     BKN012=


278 
SAJP43 KWBC 110300
METAR
RJKI 110300Z AUTO 36005KT 320V050 9999 NCD 22/13 Q1023=
RJKN NIL=
RJNF NIL=
RJNG NIL=
RJNH NIL=
RJNO NIL=
RJNT 110300Z 12006KT 020V200 9999 VCSH FEW020 SCT030 12/08
     Q1024=
RJNY NIL=
RJOA 110300Z VRB02KT 9999 FEW020 SCT050 14/08 Q1024=
RJOB 110300Z VRB02KT 9999 FEW020 SCT/// 15/08 Q1023=
RJOC 110300Z 07003KT 9999 FEW025 SCT035 14/10 Q1024=
RJOE NIL=
RJOF NIL=
RJOI 110256Z 10004KT 9999 FEW020 FEW180 15/07 A3026 RMK SLP246
     T01500072 58014=
RJOI 110256Z 10004KT 9SM FEW020 FEW180 15/07 A3026 RMK AO2 SLP246
     T01500072 58014=
RJOK 110300Z VRB03KT 9999 FEW030 18/07 Q1024=
RJOM 110300Z 24003KT 200V290 9999 FEW015 16/12 Q1024=
RJOP NIL=
RJOR 110300Z VRB02KT 9999 FEW035 SCT080 17/08 Q1023=


279 
SAKO31 KWBC 110300
METAR
RKNY 110300Z 31007KT CAVOK 12/M00 Q1024 NOSIG=
RKPC 110300Z 33006KT 300V360 8000 BKN025 12/08 Q1027 NOSIG=
RKPK 110300Z 29005KT CAVOK 14/02 Q1025=
RKSI 110300Z 04004KT 6000 FEW014 BKN130 06/04 Q1027 NOSIG=
RKSS 110300Z 26002KT 1700 1000SE R32L/1100N R32R/1800N BR BKN005
     05/05 Q1027 BECMG 3500=
RKTN 110300Z 27003KT 8000 NSC 12/03 Q1026=
RKTU 110300Z 15001KT 1800 BR FEW000 SCT004 BKN025 06/06 Q1027=


280 
SACN31 KWBC 110300
NIL=


281 
SACI31 KWBC 110300
NIL=


282 
SASD42 KWBC 110300
NIL=


283 
SAEM31 KWBC 110300
METAR
KQLA NIL=
KQLH NIL=
KQLX NIL=
LATI NIL=
LDDU 110300Z 10014KT 9999 -RA FEW025 BKN040 07/05 Q0996 NOSIG=
LDDV NIL=
LDKT NIL=
LDOS 110300Z 03009KT 2000 BR BKN007 OVC023 02/02 Q1004=
LDPL 110300Z 03009KT CAVOK 07/M00 Q0998=
LDRI 110300Z 27008KT 230V340 CAVOK 07/M01 Q0999=
LDSP 110300Z AUTO 05012KT 9999 -RA SCT030/// OVC042/// 07/04 Q0995
     TEMPO 07015G25KT=
LDZA 110300Z 07007KT 030V120 8000 OVC008 02/01 Q1004 NOSIG=
LDZD 110300Z 06015KT 9999 SCT030 06/04 Q0996=
LJLJ 110300Z 29006KT 4000 BR SCT002 OVC010 M02/M02 Q1003 NOSIG=
LJMB 110300Z AUTO 05007KT 4900 BR NCD M03/M04 Q1005=
LJPZ 110300Z AUTO 02007KT 9999 NCD 06/M00 Q1000=
LKIB NIL=
LKMT 110300Z VRB02KT 9000 OVC030 M01/M02 Q1007 NOSIG=
LKPR 110300Z 15005KT 9999 BKN016 M02/M03 Q1004 NOSIG=
LKTB 110300Z 14005KT 7000 OVC010 M01/M02 Q1007 NOSIG=
LKTT NIL=
LOAV NIL=
LOIH NIL=
LOIJ NIL=
LOLW NIL=
LOWG NIL=
LOWH NIL=
LOWI NIL=
LOWK NIL=
LOWL NIL=
LOWS NIL=
LOWW NIL=
LOWZ NIL=
LQSA 110300Z 25002KT 7000 SCT020 BKN030 OVC045 01/01 Q0999=
LWOH NIL=
LWSK 110300Z VRB01KT 9999 -RA BKN035 OVC070 02/02 Q1006 NOSIG=
LYBE 110300Z 07007KT 3500 BR OVC002 03/02 Q1004 NOSIG=
LYDU NIL=
LYLJ NIL=
LYMB NIL=
LYNI 110300Z 11005KT CAVOK 04/01 Q1005 NOSIG=
LYOH NIL=
LYOS NIL=
LYPG 110300Z 31004KT 9999 -RA FEW026 SCT040 OVC080 06/06 Q1000
     NOSIG=
LYPL NIL=
LYPR 110300Z NIL=
LYPZ NIL=
LYRI NIL=
LYSA NIL=
LYSK NIL=
LYSP NIL=
LYTI NIL=
LYTV 110300Z NIL=
LYZA NIL=
LYZD NIL=
LZIB 110300Z 03004KT 4000 -FZDZ BR BKN003 OVC004 M00/M01 Q1007=
LZKZ 110300Z 13003KT 0700 R01/1800U FG BKN001 OVC011 00/00
     Q1007=
LZTT 110300Z 26003KT 9999 0500NE R27/0400D BCFG FEW001 SCT006
     M06/M06 Q1005=


284 
SAAL32 DAAA 110300
METAR DAAS 110300Z 31018KT 8000 -RA FEW010 SCT030 08/06 Q1012=
METAR DABS 110300Z 26014G24KT 9999 FEW040 BKN100 10/03 Q1009=
METAR DAOB 110300Z NIL=
METAR DAUA 110300Z 05010KT CAVOK 07/M01 Q1019=
METAR DAUB 110300Z 31015KT 9999 FEW040 16/07 Q1013=
METAR DAUG 110300Z 28010KT CAVOK 11/01 Q1017=
METAR DAOI 110300Z 25009KT 9999 FEW023 BKN030 13/12 Q1018=


289 
SAXX61 KWBC 110300
METAR
EDAD NIL=
EDAH NIL=
EDAR NIL=
EDAS NIL=
EDDS 110250Z 31009KT 240V350 9999 -DZ BKN007 BKN019 02/00
     Q1006=
EDEB NIL=
EDEH NIL=
EDEU NIL=
EDIC NIL=
EDID NIL=
EDIE NIL=
EDIH NIL=
EDIK NIL=
EDMA 110250Z AUTO 23011KT 9999 FEW050/// SCT063/// OVC073///
     02/M00 Q1005=
EGPK 110250Z 17006KT 9999 SCT017 SCT039 04/04 Q1008=
EGUA NIL=
EGUL 110256Z AUTO 28003KT 9999 CLR 00/00 A2986 RMK AO2 SLP116
     T00040003 52022 $=
EGUN NIL=
EGVA 110256Z AUTO 25008KT 9999 OVC150 02/02 A2991 RMK AO2 SLP135
     T00200019 52019 $=
EGVJ NIL=
EGWZ NIL=
ETAD 110256Z AUTO 27003KT 9999 SCT011 BKN017 00/M00 A2975 RMK AO2
     CIG 012V017 SLP084 T00031004 52039 FZRANO TSNO $=
ETAR 110256Z 26004KT 9999 OVC017 02/02 A2973 RMK AO2A CIG 015
     RWY08 SLP082 T00200020 52040 $=
KQHT NIL=
KQIR NIL=
KQJL NIL=
KQUZ NIL=
LEMO 110300Z 19004KT 160V230 CAVOK 09/08 Q1023 NOSIG=
LERT 110300Z 29008KT 260V320 9999 FEW015 14/12 Q1024 NOSIG=
LICZ NIL=
LIRN 110250Z NIL=
LIYW NIL=
LPLA 110300Z /////KT 9999 FEW014 SCT022 17/15 Q1026=
LTAC 110250Z 02004KT CAVOK 00/M00 Q1020 NOSIG RMK RWY21L VRB02KT
     RWY03L VRB02KT RWY21R VRB02KT=
LTAC 110250Z 02004KT CAVOK 00/M00 Q1020 NOSIG=
LTAG 110250Z 01007KT CAVOK 11/07 Q1021 NOSIG RMK SKC=
LTAG 110250Z 01007KT CAVOK 11/07 Q1021 NOSIG=


291 
SAIN31 VABB 110300
METAR VAAH 110300Z 05006KT 3000 HZ NSC 17/09 Q1018 NOSIG=
METAR VABB 110300Z 00000KT 2500 FU FEW020 SCT100 27/17 Q1015 NOSIG=
METAR VANP 110300Z 01004KT 3000 HZ SCT100 20/11
    Q1020 NOSIG=
METAR VOBL 110300Z 09008KT 5000 BR SCT008 SCT012 21/19 Q1019 BECMG
    6000=
METAR VOCB 110300Z 05005KT 2000 BR FEW008 SCT012 24/22 Q1017 NOSIG=
METAR VOCI 110300Z 10003KT 4500 HZ NSC 25/21 Q1012 BECMG 5000 HZ=
METAR VOCL 110300Z 08005KT 5000 HZ FEW015 26/20 Q1013 NOSIG=
METAR VOHS 110300Z 07005KT 3500 BR SCT015 23/21 Q1020 NOSIG=
METAR VOHY 110300Z 08005KT 4000 BR FEW020 22/19 Q1021 BECMG 5000 HZ=
METAR VOML 110300Z 09004KT 6000 NSC 26/20 Q1013 NOSIG=
METAR VOMM 110300Z 01003KT 4000 BR SCT018 FEW025TCU SCT100 27/26
    Q1015 NOSIG=
METAR VOTR 110300Z 01006KT 3000 BR FEW016 SCT100 27/24 Q1015 BECMG
    5000 BR=
METAR VOTV 110300Z 00000KT 4000 BR FEW015 30/24 Q1012 BECMG 5000 HZ=


293 
SAUR31 KWBC 110300
METAR
UKBB 110300Z 13007MPS 9999 SCT012 BKN020 08/07 Q1014 TEMPO
     15010G15MPS=
UKCC NIL=
UKCW NIL=
UKDD 110300Z 12009MPS 9999 BKN007 06/04 Q1019 NOSIG=
UKDE 110300Z 09007MPS 060V130 9999 OVC007 06/04 Q1019 TEMPO
     11009G14MPS=
UKDR 110300Z 13010MPS CAVOK 07/05 Q1015 NOSIG=
UKFF NIL=
UKHH 110300Z 11008MPS 9999 OVC010 02/M00 Q1023 NOSIG=
UKKE NIL=
UKKK 110300Z 12005G10MPS 090V150 9000 -RA SCT006 OVC027 08/07
     Q1013 TEMPO BKN004=
UKKM 110300Z AUTO 11005MPS 8000 -SHRA OVC008CB 08/06 Q1013=
UKLI 110300Z NIL=
UKLL 110300Z 00000MPS 1700 1400NW R31/P2000D BR NSC M02/M03 Q1007
     NOSIG=
UKLN 110300Z NIL=
UKLR 110300Z NIL=
UKLT NIL=
UKLU 110300Z NIL=
UKON 110300Z NIL=
UKOO 110300Z 16006MPS 6000 -SHRA FEW008 SCT015CB BKN043 10/10
     Q1010 NOSIG=


294 
SAXX62 KWBC 110300
METAR
FJDG NIL=
FUDG NIL=
PHBK 110251Z AUTO 00000KT 5SM -RA OVC037 25/22 A3003 RMK AO2 RAB43
     SLP172 P0000 60000 T02500217 53001=
PHHI 110256Z AUTO 10011KT 10SM FEW026 BKN035 24/17 A3007 RMK AO2
     SLP174 T02360173 53004 $=
PHNG 110257Z 08012G18KT 10SM FEW025 25/19 A3003 RMK AO2 SLP164
     T02500189 53003 $=
PHSF 110258Z AUTO 24004KT 10SM CLR 19/05 A3031 RMK AO2 PK WND
     12028/02 SLP146 T01930053 53008 $=
PJON NIL=
PKMJ NIL=
PKWA 110300Z AUTO 07009KT 10SM CLR 29/23 A2976 RMK AO2
     T02910225=
PMDY 110256Z AUTO 08014KT 10SM FEW017 SCT028 25/21 A3003 RMK AO2
     SLP167 6//// T02500211 55003=
PTSA 110252Z 06010KT 10SM -SHRA BKN018TCU BKN130 BKN300 29/26
     A2973 RMK TCU S-SW LAST=
PWAK NIL=
RJOI 110256Z 10004KT 9999 FEW020 FEW180 15/07 A3026 RMK SLP246
     T01500072 58014=
RJOI 110256Z 10004KT 9SM FEW020 FEW180 15/07 A3026 RMK AO2 SLP246
     T01500072 58014=
RJTA NIL=
RJTX NIL=
RJTY 110256Z AUTO 00000KT 10SM CLR 14/02 A3019 RMK AO2 SLP229
     T01440016 57024 $=
RKJJ NIL=
RKJK 110256Z 13005KT 1 3/8SM BR OVC002 08/07 A3031 RMK AO2A SLP269
     T00780069 58012 $=
RKNC NIL=
RKPK 110300Z 29005KT CAVOK 14/02 Q1025=
RKSB NIL=
RKSG 110256Z 00000KT 1 3/4SM BR FEW004 07/07 A3032 RMK AO2A TWR
     VIS 2 SLP271 T00700069 58009 $=
RKSK NIL=
RKSM NIL=
RKSO 110258Z AUTO 00000KT 4SM BR FEW004 SCT130 07/07 A3033 RMK AO2
     SLP274 T00670065 58009 TSNO $=
RKST NIL=
RKSY NIL=
RKTG NIL=
RKTH NIL=
RODN 110256Z AUTO 11007KT 10SM FEW033 SCT050 BKN060 24/15 A3020
     RMK AO2 SLP234 T02390148 58008 $=


295 
SAJP42 KWBC 110300
METAR
RJDK NIL=
RJDM NIL=
RJDO NIL=
RJDT 110300Z VRB03KT 9999 FEW035 SCT/// 15/10 Q1024=
RJEB 110300Z 07005KT 030V100 9999 FEW040 SCT140 BKN/// 07/00
     Q1016=
RJEC 110300Z 33002KT 9999 FEW030 SCT050 BKN/// 02/00 Q1016=
RJEO NIL=
RJER NIL=
RJFA NIL=
RJFC NIL=
RJFE 110300Z 32006KT 280V030 9999 FEW020 SCT025 BKN035 16/11
     Q1025=
RJFG 110300Z 06005KT 340V100 9999 FEW035 SCT060 18/13 Q1024=
RJFM 110300Z 06005KT 010V110 9999 FEW035 18/11 Q1024=
RJFN NIL=
RJFO 110300Z 19005KT 9999 FEW030 SCT/// 16/10 Q1024=
RJFR 110300Z 07004KT 040V100 9999 FEW020 13/09 Q1024=
RJFY NIL=
RJFZ NIL=
RJKA 110300Z 03007KT 360V060 9999 FEW040 23/12 Q1023=
RJKB NIL=


296 
SAKO41 KWBC 110300
NIL=


299 
SAVN42 KWBC 110300
METAR
SVPC NIL=
SVPM NIL=
SVPR NIL=
SVSA NIL=
SVSE NIL=
SVSO NIL=
SVSP NIL=
SVSR NIL=
SVST NIL=
SVSZ NIL=
SVTM NIL=
SVVA 110300Z NIL=
SVVL NIL=
SVVP NIL=


300 
SAAL31 DAAA 110300
METAR DAAG 110300Z 27018G28KT 9999 FEW020 SCT040 16/12 Q1016=
METAR DAAT 110300Z 36004KT 330V030 CAVOK 10/M17 Q1020=
METAR DABB 110300Z 36015KT 6000 SCT020 BKN033 11/09 Q1011=
METAR DABC 110300Z 34018KT 8000 -SHRA SCT013 OVC023 09/07 Q1012=
METAR DAON 110300Z 21008KT 9999 BKN026 13/06 Q1022=
METAR DAOO 110300Z 22012KT 9999 BKN026 14/11 Q1020=
METAR DAUH 110300Z 23007KT CAVOK 08/01 Q1015=


388 
SAXX60 KAWN 110300 RRB
METAR KHLR 110258Z AUTO 23006KT 6SM HZ CLR 23/18 A2977 RMK AO2 SLP071
      T02290180 52022=
METAR PTPN 110258Z 09010KT 15SM BKN018TCU OVC300 31/25 A2973 RMK TCU
      SE-S AND W LAST=


391 
SPNA14 KAWN 110306
SPECI KNMM 110254Z AUTO 18009KT 10SM SCT017 BKN022 OVC043 22/21 A2993
      RMK AO2=
SPECI KTCM 110257Z 19018G25KT 7M -RA FEW020 SCT036 BKN044 07/04 A2988
      RMK AO2A RAB57 SLP124 RVRNO $=


394 
SAXN17 KAWN 110300 RRE
METAR MKJS 110300Z 10008KT 9999 FEW022 26/21 Q1015=
METAR MMAS 110303Z RTD 35005KT 10SM FEW200 14/M06 A3024 RMK SLP///
      5//// 9// 6//// 8/002=
METAR NTAA 110300Z 06009KT 9999 FEW026 SCT060 29/22 Q1013 NOSIG=
METAR NWWW 110300Z AUTO 02007KT 330V080 9999 FEW052 33/21 Q1008 TEMPO
      SHRA=
METAR PAFB 110258Z 24009KT 2 1/2SM BR SCT005 OVC034 M13/M15 A2902 RMK
      AO2A SLP839 WND DATA ESTMD ALSTG/SLP ESTMD P0000 60000
      T11341152 52023 $=
METAR PKWA 110300Z AUTO 07009KT 10SM CLR 29/23 A2976 RMK AO2 T02910225=
METAR PTPN 110258Z 09010KT 15SM BKN018TCU OVC300 31/25 A2973 RMK TCU
      SE-S AND W LAST=
METAR SKBQ 110300Z 03010KT CAVOK 27/22 Q1008 NOSIG RMK A2977=
METAR SKLT 110300Z 00000KT 9999 SCT010 BKN080 24/24 Q1008 RMK A2978=
METAR SOCA 110300Z AUTO 24001KT 9999 FEW025 SCT038 25/24 Q1008 TEMPO
      3000 SHRA BKN005 BKN012TCU=
METAR SVMI 110300Z 09008KT 9999 FEW016 31/25 Q1010=
METAR TBPB 110300Z 06014KT 9999 FEW022 26/22 Q1011 NOSIG=
METAR TFFF 110300Z AUTO 09007KT 9999 FEW022 SCT062 25/22 Q1013 TEMPO
      4000 SHRA SCT018TCU=
METAR TFFR 110300Z AUTO 08007KT 9999 FEW024 26/22 Q1013 TEMPO 4000
      SHRA SCT018TCU SCT025=
METAR TNCB 110255Z AUTO 07008KT 9999 FEW033/// SCT048/// 25/23 Q1012=
METAR TNCE 110255Z AUTO 06018KT 360V090 //// // ///////// 26/22 Q1014
      RE//=
METAR TNCM 110300Z 05017KT 9999 SCT018 27/22 Q1016=
METAR VHHH 110300Z 33007KT 280V030 9999 FEW035 23/15 Q1022 NOSIG=
METAR YBBN 110300Z 10009KT 9999 FEW035 27/19 Q1010=
METAR YBBN 110300Z 10009KT 9999 FEW030 27/19 Q1010=


395 
SAVN20 SVMR 110303
METAR SVLO 110303Z AUTO NIL=
METAR SVMI 110303Z AUTO 09002KT NCD ///// Q1013=
METAR SVMC 110303Z AUTO NIL=
METAR SVBC 110303Z AUTO NIL=
METAR SVVA 110303Z AUTO 35004KT NCD ///// Q1012=
METAR SVMG 110303Z AUTO 07007KT NCD 26/24 Q1012=
METAR SVBM 110303Z AUTO NIL=
METAR SVCS 110303Z AUTO NIL=
METAR SVFM 110303Z AUTO NIL=
METAR SVPA 110303Z AUTO NIL=
METAR SVSR 110303Z AUTO NIL=
METAR SVBS 110303Z AUTO 27002KT NCD 21/// Q1013=
METAR SVGU 110303Z AUTO 09004KT NCD 24/16 Q1010=
METAR SVCJ 110303Z AUTO NIL=
METAR SVJM 110303Z AUTO 00004KT NCD 20/17 Q1011=
METAR SVGD 110303Z AUTO 04003KT NCD 25/22 Q1010=
METAR SVBI 110303Z AUTO 00004KT NCD 28/21 Q1013=


662 
SAMZ40 FQMA 110300
METAR FQBR 110300Z 35003KT 9999 SCT018 25/23 Q1011=

665 
SAAO20 DRRN 110300 RRA
METAR DRRT 110300Z 08008KT 8000 NSC 21/M10 Q1012=


667 
SAAL33 DAAA 110300
METAR DAAE 110300Z 29012KT 9999 FEW020 SCT033 17/08 Q1013=
METAR DAAJ 110300Z 33005KT CAVOK 09/M13 Q1019=
METAR DAAV 110300Z 29014G25KT 260V320 8000 FEW020 FEW026CB BKN033
 16/13 Q1012=
METAR DABT 110300Z 26018KT 9999 FEW020 SCT200 10/05 Q1012=
METAR DAUZ 110300Z 33004KT CAVOK 03/M09 Q1018=


742 
SAZA31 FAPR 110300
METAR FABL 110300Z 15007KT 120V180 9999 SCT025 BKN080 16/13 Q1019
     NOSIG=
METAR FACT 110300Z 32004KT 300V360 9999 SCT005 BKN012 16/15 Q1011
     BECMG BKN025=
METAR FAEL 110300Z 34007KT 310V010 CAVOK 22/18 Q1006=
METAR FAGG 110300Z 26010KT 5000 -RA SCT004 BKN011 OVC018 17/17 Q1009=
METAR FAKN 110300Z AUTO 19004KT //// // ////// 17/15 Q1018=
METAR FALA 110300Z AUTO 10008KT //// // ////// 19/13 Q1021=
METAR FALE 110300Z 20009KT 9999 SCT014 BKN020 22/19 Q1011 NOSIG=
METAR FAOB 110300Z AUTO 31010KT //// // ////// 17/13 Q1008=
METAR FAOR 110300Z 11005KT 9999 SCT040 16/13 Q1023 NOSIG RMK CB TO
     S/E=
METAR FAPE 110300Z 25007KT 9999 FEW005 BKN008 20/19 Q1007 TEMPO
     SCT009=
METAR FAPP 110300Z 18001KT 8000 NSC 18/15 Q1018 NOSIG=
METAR FAUP 110300Z 25005KT CAVOK 16/05 Q1013 NOSIG=

066 
SAIE32 EIDB 110300
METAR EIDL 110300Z NIL=
METAR EIKY 110300Z NIL=
METAR EIME 110300Z 21009KT 9999 SCT045 OVC060 06/04 Q1011=
METAR EISG 110300Z NIL=
METAR EIWF 110300Z NIL=


070 
SAJM31 MKJP 110300
METAR MKJP 110300Z 30005KT 9999 FEW022 26/21 Q1014=


130 
SARS18 KAWN 110300 RRB
METAR BIKF 110300Z 11032G43KT 5000 -RA OVC009 04/02 Q0977=
METAR UAAA 110300Z 20002MPS 2400 BR FEW200 M07/M08 Q1025 NOSIG=
METAR UACC 110300Z 07003MPS CAVOK M15/M20 Q1027 NOSIG RMK QFE738/0985=
METAR UATT 110300Z 05004MPS CAVOK M06/M10 Q1019 NOSIG RMK QFE745/0993=
METAR UIAA 110300Z 29005G11MPS 250V330 9999 NSC M12/M18 Q1024 R29/410160
      NOSIG RMK QFE709/0946=
METAR UIBB 110300Z 25004MPS 210V270 9999 BKN018CB M18/M20 Q1033 R30/450340
      NOSIG RMK QFE731/0974=
METAR UIII 110300Z 29003MPS 5000 -SHSN BKN010CB M11/M15 Q1038 R30/820550
      NOSIG RMK QFE733/0977=
METAR UIUU 110300Z 30006MPS 9999 -SHSN BKN030CB M11/M17 Q1035 R26/450550
      NOSIG RMK MT OBSC QFE731/0975=
METAR UMGG 110300Z 12010G14MPS 3200 -SHRA BR OVC004CB 06/05 Q1016 NOSIG
      RMK QBB120=
METAR UMMS 110300Z 12008MPS 5000 -DZ OVC004 04/04 Q1010 NOSIG RMK QBB120=
METAR URKA 110300Z 10004MPS CAVOK 09/04 Q1017 R04/010070 NOSIG RMK
      QFE759/1012=
METAR URMM 110300Z 09005MPS 0300 0250NW R12/0750N -DZ FG VV002 04/03
      Q1024 R12/090070 NOSIG RMK QBB070 MT OBSC OBST OBSC QFE739/0986=
METAR URSS 110300Z 08006MPS 9999 NSC 08/01 Q1019 R06/010070 R02/010070
      NOSIG RMK R02/04007G10MPS QFE763=
METAR UTAA 110300Z 17002KT 4500 BR SCT050 BKN100 04/03 Q1025 R88/70D
      NOSIG=
METAR UWGG 110300Z 32001MPS CAVOK M23/M26 Q1037 R36R/420045 NOSIG=
METAR UWKD 110300Z 36005MPS CAVOK M15/M18 Q1035 R11/420345 NOSIG RMK
      QFE766/1021=
METAR UWOO 110300Z 05004MPS 9999 BKN049 M04/M08 Q1023 R08/820550 NOSIG
      RMK QFE756/1008=
METAR VTBD 110300Z VRB03KT CAVOK 28/19 Q1016 NOSIG=


279 
SAUS45 KTFX 110306
MTR9S2
METAR K9S2 110155Z AUTO 00000KT M12/M18 A2970 RMK Scobey


280 
SAUS45 KTFX 110306
MTR9S5
METAR K9S5 110255Z AUTO 00000KT 10SM M03/M17 A2993 RMK Three Forks


282 
SAUS45 KTFX 110306
MTRRPX
METAR KRPX 110255Z AUTO 24014G19KT M02/M17 A2973 RMK Roundup


283 
SAUS45 KTFX 110306
MTRS34
METAR KS34 101555Z AUTO 00000KT 1/4SM HZ M06/M13 A2995 RMK Plains


284 
SAUS45 KTFX 110306
MTRTHM
METAR KTHM 110155Z AUTO 00000KT 10SM M02/M03 A3003 RMK Thompson Falls


411 
SAIN90 VOND 110300
METAR VOND 110300Z 36001KT 2000 HZ NSC 19/15 Q1019 NOSIG=

412 
SAIN31 VOMM 110300 RRA
METAR VOHS 110300Z 07005KT 3500 BR SCT015 23/21 Q1020 NOSIG=

415 
SABU31 LBSM 110300
METAR LBSF 110300Z 10004KT 080V160 CAVOK 02/00 Q1007 NOSIG=
METAR LBWN 110300Z 03004KT 350V060 CAVOK 07/04 Q1011 NOSIG=
METAR LBBG 110300Z 29004KT CAVOK 08/06 Q1011 NOSIG=
METAR LBPD 110300Z AUTO 11004KT 090V150 9999 BKN210/// 02/00 Q1009=
METAR LBGO 110300Z AUTO 09008KT 2200 BR SCT001/// BKN230/// 01/01
    Q1008=

/

420 
SATS40 DTTA 110300
METAR DTKA 110300Z AUTO 30015KT CAVOK 10/09 Q1009=
METAR DTMB 110300Z 28004KT 230V010 8000 FEW020 13/09 Q1008=
METAR DTNH 110300Z 34013KT 9999 SCT033 11/09 Q1008=
METAR DTTA 110300Z 25006KT 8000 -RA SCT020 BKN026 10/08 Q1008=
METAR DTTF 110300Z 24012KT CAVOK 09/02 Q1011 NOSIG=
METAR DTTJ 110300Z 26023KT CAVOK 15/05 Q1010=
METAR DTTR 110300Z AUTO 18007KT NCD 07/M01 Q1016=
METAR DTTX 110300Z 23007KT 8000 NSC 12/03 Q1008=
METAR DTTZ 110300Z 26009KT CAVOK 10/02 Q1011=

423 
SAIN90 VELP 110300
METAR VELP 110300Z 16002KT 3000 BR NSC 19/16 Q1021 NOSIG=

424 
SAIN90 VOHS 110300
METAR VOHS 110300Z 07005KT 3500 BR SCT015 23/21 Q1020 NOSIG=

430 
SAIN90 VOMM 110300
METAR VOHS 110300Z 07005KT 3500 BR SCT015 23/21 Q1020 NOSIG=

434 
SATS42 DTTA 110300
METAR DTTB 110300Z 29016KT 7000 SCT020 BKN030 11/07 Q1007=
METAR DTTD 110300Z AUTO 25015G27KT 210V290 NCD 12/M02 Q1013=
METAR DTTK 110300Z 29002KT 9999 BKN023 15/07 Q1007=
METAR DTTL 110300Z 28003KT  8000 -RA SCT020 SCT030 10/10 Q1007=
METAR DTTN 110300Z NIL=
METAR DTTR 110300Z AUTO 18007KT NCD 07/M01 Q1016=

436 
SATS41 DTTA 110300
METAR DTTB 110300Z 29016KT 7000 SCT020 BKN030 11/07 Q1007=
METAR DTTD 110300Z AUTO 25015G27KT 210V290 NCD 12/M02 Q1013=
METAR DTTG 110300Z 23015KT 5000 NSC 10/01 Q1011 NOSIG=
METAR DTTK 110300Z 29002KT 9999 BKN023 15/07 Q1007=
METAR DTTL 110300Z 28003KT  8000 -RA SCT020 SCT030 10/10 Q1007=
METAR DTTN 110300Z NIL=

437 
SAJD31 OJAI 110300
METAR OJAI 110300Z 05005KT 6000 NSC 08/01 Q1021 NOSIG=
METAR OJAM 110300Z 00000KT 5000 HZ NSC 08/03 Q1022 NOSIG=
METAR OJAQ 110300Z 36005KT CAVOK   15/04  Q1017 NOSIG=

442 
SAIN90 VOMD 110300
METAR VOMD 110300Z 02004KT 4500 HZ FEW020 28/24 Q1014 NOSIG=

443 
SAIN90 VOKN 110300
METAR VOKN 110300Z 08006KT 5000 BR FEW012 25/21 Q1013 NOSIG=

448 
SAIN90 VEMR 110300
METAR VEMR 110300Z 00000KT 2500 BR FEW020 SCT100 21/17 Q1021 =

551 
SACA31 TNCC 110305
METAR TNCC 110300Z AUTO 09008KT 9999 FEW016TCU BKN040 26/23 Q1012
TEMPO 07010G25KT 5000 SHRA SCT015TCU BKN030


555 
SAAK41 KNKA 110306
SPECI PAGS 110305Z AUTO 12010KT 1SM -SN BR BKN005 BKN012 OVC085 
    M01/M02 A2887 RMK AO2 CIG 003V009 P0000 FZRANO RVRNO=
SPECI PAMK 110305Z AUTO 33016KT 10SM SCT013 BKN041 M19/M22 A2966 RMK 
    AO2 FZRANO=
SPECI PATO 110304Z AUTO 27007G16KT 2SM -SN BR OVC031 M04/M07 A2877 
    RMK AO2 P0000 T10441067 TSNO=
SPECI PFYU 110305Z 04008KT 1 1/2SM -SN BR BKN014 BKN021 OVC028 
    M14/M16 A2902 RMK AO2 P0000=


866 
SAJP31 RJTD 110300
METAR RJAA 110300Z 21004KT 180V270 9999 FEW025 13/05 Q1021 NOSIG=
METAR RJBB 110300Z VRB02KT 9999 FEW010 SCT080 14/10 Q1024 NOSIG=
METAR RJTT 110300Z 16005KT 120V200 9999 FEW020 12/07 Q1021 NOSIG=
METAR RJOO 110300Z 18003KT 120V250 9999 FEW020 BKN070 15/08 Q1024=
METAR ROAH 110300Z 11008KT 9999 SCT035 24/13 Q1023=
METAR RJGG 110300Z 25004KT 9999 FEW025 13/08 Q1023 BECMG 28005KT=
METAR RJCH 110300Z 25009KT 9999 -SHRA FEW012 SCT025 BKN050 11/03
           Q1017=
METAR RJSS 110300Z VRB02KT 9999 FEW020 10/04 Q1020=


867 
SAJP32 RJTD 110300
METAR RJFF 110300Z VRB02KT 9999 FEW030 BKN/// 16/10 Q1024 BECMG
           30006KT=
METAR RJCC 110300Z 18009KT 9999 FEW020 SCT050 BKN100 08/04 Q1017=
METAR RJFK 110300Z 10003KT 050V130 9999 FEW025 17/10 Q1024=
METAR RJSN 110300Z 21012KT 9999 -SHRA FEW015 SCT030 BKN035 11/09
           Q1022=
METAR RJFT 110300Z 28004KT 200V350 9999 FEW040 BKN/// 16/07 Q1024=
METAR RJFU 110300Z 02003KT 340V060 9999 FEW030 BKN050 BKN/// 15/11
           Q1024=
METAR RJNK 110300Z 23003KT 9999 FEW030 BKN090 16/09 Q1023=
METAR RJOA 110300Z VRB02KT 9999 FEW020 SCT050 14/08 Q1024=
METAR RJOB 110300Z VRB02KT 9999 FEW020 SCT/// 15/08 Q1023=
METAR RJOT 110300Z 32003KT 210V020 9999 FEW030 16/08 Q1024=


039 
SPSO31 AGGG 110300
SPECI 110300

SPECI AGGH 110300Z 16004KT 9999 FEW017 FEW018CB SCT030 OVC100 27/25 Q1004

RMK SPECI CEASED =

 

 




081 
SAUS44 KBMX 110306 COR
MTREUF
METAR KEUF 110258Z AUTO 19004KT 10SM FEW012 BKN020 21/19 A3005 RMK 
AO2 SLP174 T02110194 50005 $


134 
SPCN47 CWAO 110306
SPECI CYXR 110306Z AUTO 06002KT 1 1/2SM BR FEW001 BKN150 OVC170 M09/M10 A2993 RMK ICE SLP156=


137 
SPCN42 CWAO 110306
SPECI CYHE 110306Z AUTO 22005KT 200V260 6SM -RA BR FEW012 BKN031 OVC035 03/02 A2977 RMK PRESFR SLP084=


138 
SPCN42 CWAO 110306
SPECI CYXS 110306Z AUTO 18024G35KT 7SM -SN CLR M02/M07 A2912 RMK SLP893=


281 
SAJP32 RJTD 110300 RRA
METAR RJFO 110300Z 19005KT 9999 FEW030 SCT/// 16/10 Q1024=
METAR RJNT 110300Z 12006KT 020V200 9999 VCSH FEW020 SCT030 12/08
           Q1024=


284 
SAJP38 RJTD 110300
METAR RJNS 110300Z 03003KT 290V090 9999 FEW030 14/04 Q1021=
METAR RJSA 110300Z 24005KT 190V260 9999 VCSH FEW020 BKN035 08/04
           Q1018=
METAR RJSF 110300Z 32009KT 280V360 9999 FEW025 SCT040 12/03 Q1020=
METAR RJOM 110300Z 24003KT 200V290 9999 FEW015 16/12 Q1024=
METAR RJOK 110300Z VRB03KT 9999 FEW030 18/07 Q1024=
METAR RJFM 110300Z 06005KT 010V110 9999 FEW035 18/11 Q1024=
METAR RJEC 110300Z 33002KT 9999 FEW030 SCT050 BKN/// 02/00 Q1016=
METAR RJFR 110300Z 07004KT 040V100 9999 FEW020 13/09 Q1024=
METAR RJSK 110300Z 13004KT 090V190 9999 -SHRA VCFG FEW000 SCT030
           BKN045 06/04 Q1020=
METAR RJAH 110300Z 24006KT 9999 FEW030 13/03 Q1021=


286 
SAJP38 RJTD 110300 RRA
METAR RJCK 110300Z VRB02KT 9999 FEW030 BKN150 04/M02 Q1017=
METAR RJCM 110300Z 20003KT CAVOK 04/M02 Q1017=
METAR RJCB 110300Z 17004KT 130V220 9999 FEW050 BKN/// 04/01 Q1017=
METAR RJOC 110300Z 07003KT 9999 FEW025 SCT035 14/10 Q1024=
METAR RJOH 110300Z VRB02KT 9999 FEW015 SCT030 BKN050 13/10 Q1024=
METAR ROIG 110300Z 08015KT 9999 FEW036 25/15 Q1022=
METAR RJFS 110300Z 23003KT 190V270 9999 FEW035 BKN/// 15/10 Q1025=
METAR RJSI 110300Z VRB01KT 9999 FEW030 BKN040 07/03 Q1020=


320 
SAHW40 PHFO 110306
MTRBKH
SPECI PHBK 110305Z AUTO 03004KT 4SM -RA OVC036 24/21 A3004 RMK AO2 
P0000 T02390206


472 
SARE20 FMEE 110300
METAR FMCZ 110300Z AUTO 03006KT 9999 FEW029 OVC086 27/22 Q1013
TEMPO 04015G30KT 4000 SHRA SCT020TCU=
METAR FMEE 110300Z AUTO 12009KT CAVOK 27/17 Q1016 NOSIG=
METAR FMEP 110300Z AUTO VRB03KT CAVOK 26/16 Q1016 NOSIG=

480 
SPUS81 KWBC 110307
SPECI
KORF 110303Z 00000KT 10SM BKN025 BKN030 OVC050 11/10 A3011=


493 
SANG31 YBBN 110300
METAR AYPY 110300Z 32015KT 9999 SHRA SCT025 BKN045 29/24 Q1006=
METAR AYWK 110300Z NIL=
METAR AYVN 110300Z NIL=
METAR AYNZ 110300Z 13010KT 9999 HZ FEW035 SCT050 35/24 Q1003=
METAR AYMH 110300Z NIL=
METAR AYGN 110300Z NIL=
METAR AYMO 110300Z NIL=
METAR ANYN 110300Z VRB03KT 9999 FEW020 SCT040 BKN300 28/24 Q1008=
METAR AGGH 110300Z NIL=

496 
SPPA31 KWBC 110307
SPECI
AGGH 110300Z 16004KT 9999 FEW017 FEW018CB SCT030 OVC100 27/25
Q1004 RMK SPECI CEASED=


657 
SAJP37 RJTD 110300
METAR RJAA 110300Z 21004KT 180V270 9999 FEW025 13/05 Q1021 NOSIG=
METAR RJBB 110300Z VRB02KT 9999 FEW010 SCT080 14/10 Q1024 NOSIG=
METAR RJTT 110300Z 16005KT 120V200 9999 FEW020 12/07 Q1021 NOSIG=
METAR RJOO 110300Z 18003KT 120V250 9999 FEW020 BKN070 15/08 Q1024=
METAR RJFF 110300Z VRB02KT 9999 FEW030 BKN/// 16/10 Q1024 BECMG
           30006KT=
METAR RJGG 110300Z 25004KT 9999 FEW025 13/08 Q1023 BECMG 28005KT=
METAR RJFK 110300Z 10003KT 050V130 9999 FEW025 17/10 Q1024=
METAR RJFU 110300Z 02003KT 340V060 9999 FEW030 BKN050 BKN/// 15/11
           Q1024=
METAR RJCH 110300Z 25009KT 9999 -SHRA FEW012 SCT025 BKN050 11/03
           Q1017=
METAR RJNS 110300Z 03003KT 290V090 9999 FEW030 14/04 Q1021=


658 
SAJP35 RJTD 110300
METAR RJAA 110300Z 21004KT 180V270 9999 FEW025 13/05 Q1021 NOSIG=
METAR RJBB 110300Z VRB02KT 9999 FEW010 SCT080 14/10 Q1024 NOSIG=
METAR RJTT 110300Z 16005KT 120V200 9999 FEW020 12/07 Q1021 NOSIG=
METAR RJOO 110300Z 18003KT 120V250 9999 FEW020 BKN070 15/08 Q1024=
METAR RJGG 110300Z 25004KT 9999 FEW025 13/08 Q1023 BECMG 28005KT=
METAR RJSN 110300Z 21012KT 9999 -SHRA FEW015 SCT030 BKN035 11/09
           Q1022=
METAR RJCH 110300Z 25009KT 9999 -SHRA FEW012 SCT025 BKN050 11/03
           Q1017=
METAR RJSA 110300Z 24005KT 190V260 9999 VCSH FEW020 BKN035 08/04
           Q1018=
METAR RJSF 110300Z 32009KT 280V360 9999 FEW025 SCT040 12/03 Q1020=
METAR RJSI 110300Z VRB01KT 9999 FEW030 BKN040 07/03 Q1020=


661 
SAJP37 RJTD 110300 RRA
METAR RJFR 110300Z 07004KT 040V100 9999 FEW020 13/09 Q1024=


668 
SAUS42 KTAE 110307
MTR1J0
METAR K1J0 110258Z AUTO 17008KT 10SM BKN010 BKN014 OVC023 22/21 
A3007 RMK AO2 SLP141 T02220206 53005


877 
SANZ31 NZKL 110300
METAR NZAA 110300Z AUTO 04014KT 010V070 9999 NCD 26/18 Q1014 NOSIG=
METAR NZWN 110300Z AUTO 34023G38KT 5000 HZ FEW016/// BKN021///
BKN038/// 21/17 Q1010 BECMG 9999 TEMPO 4000 RADZ BKN008=
METAR NZCH 110300Z AUTO 21018KT 6000 -RA BKN007/// 15/13 Q1009 TEMPO
9999 BKN011=


200 
SACN47 CWAO 110300
METAR CGGA NIL=
METAR CYAM 110300Z 08009KT 20SM FEW048 OVC059 00/M02 A2978 RMK CU2SC6 PRESFR SLP096=
METAR CYFT NIL=
METAR CYGP 110300Z 26007KT 15SM -SN OVC027 M05/M10 A3012 RMK SC8 SLP203=
METAR CYGR 110300Z 21013G21KT 7SM -SN FEW024 OVC050 M02/M06 A3022 RMK SC1SC7 LAST STFD OBS/NXT 111000Z SLP238=
METAR CYHD 110300Z AUTO 18006KT 9SM SCT170 BKN190 BKN210 M09/M11 A2968 RMK SLP084=
METAR CYHU 110300Z AUTO 02005KT 5SM BR OVC032 M04/M06 A3012 RMK SLP203=
METAR CYKO NIL=
METAR CYMO 110300Z AUTO 21010KT 9SM FEW230 M07/M09 A2985 RMK SLP111=
METAR CYNA 110300Z AUTO 18007KT 2 1/2SM -FZRA BR FEW014 OVC029 M05/M07 A3013 RMK ICE INTMT SLP205=
METAR CYND NIL=
METAR CYPQ 110300Z AUTO 02004KT 2 1/2SM BR BKN021 OVC041 M00/M00 A2995 RMK SLP151=
METAR CYQT 110300Z 28004KT 15SM OVC120 M07/M07 A2979 RMK AC8 SLP107=
METAR CYRJ 110300Z 23007KT 25SM OVC031 M06/M08 A3008 RMK SC7 SLP203=
METAR CYRL 110300Z 19004KT 15SM SKC M14/M16 A2962 RMK FROIN LAST STFD OBS/NEXT 111000UTC SLP064=
METAR CYTL 110300Z AUTO 23008KT 9SM -SN CLR M10/M12 A2959 RMK SLP041=
METAR CYTS 110300Z 13003KT 15SM FEW130 BKN160 BKN200 M09/M10 A2989 RMK AC1AC4CI2 SLP143=
METAR CYTZ 110300Z AUTO 05018KT 8SM OVC046 05/03 A2991 RMK SLP132=
METAR CYVP 110300Z 22005KT 15SM SCT100 OVC130 M18/M21 A2974 RMK AC3AS5 SLP080=
METAR CYVV 110300Z 10010KT 8SM OVC024 03/01 A2983 RMK SC8 PRESFR SLP111=
METAR CYWA 110300Z AUTO 10004KT 080V150 9SM BKN009 OVC017 M02/M03 A3002 RMK SLP174=
METAR CYXR 110300Z AUTO VRB02KT 3/4SM BR SCT001 OVC160 M09/M10 A2993 RMK ICE INTMT SLP154=
METAR CYYY 110300Z 21007KT 10SM -SN OVC016 M06/M09 A3011 RMK SC8 SLP203=
METAR CYZE 110300Z AUTO 08012KT 9SM OVC096 01/M00 A2982 RMK SLP109=
METAR CYZR 110300Z AUTO 12014G20KT 4SM -RA BR SCT040 BKN050 BKN071 OVC089 06/05 A2969 RMK PRESFR SLP062=


201 
SACN40 CWAO 110300
METAR CYWH 110300Z 21003KT 180V310 15SM -RA FEW005 SCT015 OVC040 07/04 A2975 RMK SF1SC3SC4 SLP077=


202 
SACN44 CWAO 110300
METAR CWIQ NIL=
METAR CWRF 110300Z AUTO 10004KT 060V150 ////SM OVC025 M16/M18 A2962=
METAR CWVD 110300Z AUTO 33018KT ////SM OVC003 M21/M23 A2941=
METAR CYBW 110300Z AUTO 19008KT 9SM FEW180 M08/M16 A2945 RMK SLP039=
METAR CYCY 110300Z AUTO 30010KT 9SM M21/M24 A2971 RMK CLD MISG SLP066=
METAR CYED 110300Z AUTO 22008KT 9SM BKN074 M04/M11 A2932 RMK SLP964=
METAR CYEK 110300Z AUTO 10011G16KT 9SM -SN BKN040 OVC066 M08/M11 A2912 RMK SLP864=
METAR CYIO 110300Z AUTO 19007KT 9SM CLR M26/M29 A2974 RMK SLP083=
METAR CYLJ NIL=
METAR CYLT NIL=
METAR CYMJ NIL=
METAR CYOD 110300Z 19005KT 15SM BKN070 M05/M10 A2934 RMK AC5 DA291FT SLP967=
METAR CYPE 110300Z 23010KT 15SM SCT086 BKN170 M04/M09 A2912 RMK AC4AC1 SLP899=
METAR CYQV 110300Z AUTO 24011G16KT 9SM OVC100 M08/M13 A2955 RMK SLP047=
METAR CYSF 110300Z AUTO 24003KT 9SM CLR M31/M34 A2941 RMK SLP994=
METAR CYSM NIL=
METAR CYTH 110300Z 28008KT 5SM -SN OVC028 M11/M14 A2938 RMK SC8 SLP972=
METAR CYUB 110300Z 06007KT 15SM SCT120 M26/M29 A2922 RMK AC3 SLP897=
METAR CYUJ NIL=
METAR CYUS 110300Z AUTO 06011KT ////SM //// FEW032 M19/M22 A2968=
METAR CYUX 110300Z AUTO 31010KT 9SM OVC009 M25/M27 A2977 RMK SLP086=
METAR CYVT 110300Z AUTO 19005KT 9SM CLR M16/M18 A2932 RMK SLP969=
METAR CYXH 110300Z 21010KT 15SM BKN130 M04/M09 A2958 RMK AC5 LAST STFD OBS/NEXT 111300Z SLP058=
METAR CYZU 110300Z 28003KT 240V320 15SM FEW150 BKN200 M02/M13 A2927 RMK AC2CI5 SLP953=


204 
SACN48 CWAO 110300
METAR CYAH 110300Z AUTO 24021KT 4SM -SN OVC026 M08/M12 A2975 RMK SLP105=
METAR CYAS NIL=
METAR CYBX 110300Z 29010G16KT 15SM FEW210 FEW230 M11/M18 A3016 RMK CI1CI1 SLP220=
METAR CYGV 110300Z AUTO 22007KT 2 1/4SM -SN BKN013 OVC019 M05/M07 A3008 RMK VIS VRB 1 1/4-3 SLP191=
METAR CYHA NIL=
METAR CYIK NIL=
METAR CYKG NIL=
METAR CYKQ NIL=
METAR CYLA NIL=
METAR CYMH 110300Z AUTO 25014KT 9SM CLR M13/M20 A3008 RMK SLP190=
METAR CYML NIL=
METAR CYMT 110300Z AUTO 20005KT 9SM OVC026 M11/M12 A2998 RMK SLP187=
METAR CYMU NIL=
METAR CYNM 110300Z AUTO 17007KT 9SM CLR M11/M12 A2996 RMK SLP170=
METAR CYOY 110300Z AUTO 00000KT 8SM BKN015 M07/M08 A3013 RMK SLP215=
METAR CYPH 110300Z AUTO 24010G15KT 170V250 SCT011 BKN016 BKN021 OVC036 M05/M08 A2942 RMK WX MISG VIS MISG PCPN MISG SLP968=
METAR CYPX 110300Z AUTO 10018G23KT 5SM -SN SCT055 OVC073 M16/M18 A2951 RMK SLP998=
METAR CYQI 110300Z 20008KT 15SM OVC024 05/03 A3022 RMK SC8 SLP239=
METAR CYSK NIL=
METAR CYUY 110300Z 09003KT 15SM BKN170 M09/M10 A2994 RMK AC5 SLP163=
METAR CYWK 110300Z 20009KT 10SM -SN SCT048 SCT070 BKN110 M14/M16 A2979 RMK SC3AC1AC3 LAST STFD OBS/NEXT 111100 UTC SLP149=
METAR CYZG NIL=


205 
SACN51 CWAO 110300
METAR CBAR 110300Z AUTO 09009KT ////SM NCD ///// A////=
METAR CFAB NIL=
METAR CFOX 110300Z AUTO ///// ////SM OVC011 M17/M19 A2970=
METAR CLAB NIL=
METAR CPIN 110300Z AUTO 14017KT ////SM BKN180 OVC200 M21/M23 A2941=
METAR CWAE NIL=
METAR CWCA NIL=
METAR CWIL 110300Z AUTO 12007KT ////SM OVC047 ///// A////=
METAR CWKM 110300Z AUTO 27019G31KT ////SM FEW015 BKN021 OVC050 M17/M19 A2936=
METAR CWKW NIL=
METAR CWLI NIL=
METAR CWLX 110300Z AUTO ///// ////SM OVC007 M19/M21 A2967=
METAR CWLY 110300Z AUTO 23007G20KT 180V320 9SM FEW055 BKN084 06/M02 A2953 RMK PRESFR SLP010=
METAR CWOB 110300Z AUTO 35003KT 270V010 ////SM OVC005 M15/M17 A2949=
METAR CWPX 110300Z AUTO 16004KT ////SM //// OVC032 M20/M23 A2950=
METAR CWRX 110300Z AUTO ///// ////SM OVC008 M19/M21 A2973=
METAR CWSW NIL=
METAR CWUP 110300Z AUTO 29008KT 240V310 ////SM OVC004 M21/// A2950=
METAR CWUW 110300Z AUTO 34006KT ////SM NCD M26/// A2948=
METAR CWVH 110300Z AUTO 05009KT ////SM OVC090 M23/M25 A2910=
METAR CWYK NIL=
METAR CWZZ 110300Z AUTO 21008KT ////SM NCD M100/// A2956=
METAR CYCA 110300Z AUTO 23012G19KT 9SM CLR M13/M18 A3003 RMK SLP172=
METAR CZBF 110300Z AUTO 21006KT 9SM OVC055 M07/M10 A3015 RMK SLP217=
METAR CZCP 110300Z AUTO 09017KT ////SM //// FEW002 SCT007 OVC013 M21/M23 A2924=
METAR CZST NIL=


207 
SACN45 CWAO 110300
METAR CYBB 110300Z 04006KT 15SM BKN035 M16/M19 A2974 RMK SC6 SLP074=
METAR CYCB 110300Z 04009KT 15SM IC SCT016 BKN050 M22/M24 A2962 RMK SC3SC4 CLD HGTS ESTD SLP037=
METAR CYCO 110300Z 16008KT 15SM IC FEW160 SCT180 M21/M26 A2941 RMK AS1AC3 SLP965=
METAR CYCS NIL=
METAR CYFS 110300Z 12008KT 080V160 15SM FEW065 FEW130 SCT150 BKN200 M16/M18 A2904 RMK SC1AC1AC2CI2 SLP855=
METAR CYGH NIL=
METAR CYGT NIL=
METAR CYHI NIL=
METAR CYHK 110300Z AUTO 11007KT 8SM SCT055 M18/M19 A2968 RMK SLP059=
METAR CYHY 110300Z 09008KT 15SM FEW140 M20/M22 A2918 RMK AC1 AC TR SLP905=
METAR CYJF NIL=
METAR CYKD NIL=
METAR CYLC NIL=
METAR CYLK NIL=
METAR CYOA NIL=
METAR CYPC NIL=
METAR CYRA NIL=
METAR CYRT 110300Z 07019G28KT 2SM -SN BLSN BKN014 M06/M08 A2923 RMK BLSN2SC5 SLP902=
METAR CYSY NIL=
METAR CYTE 110300Z AUTO VRB03KT 1 3/4SM -SN OVC005 M15/M16 A2970 RMK SLP064=
METAR CYUT NIL=
METAR CYVM 110300Z AUTO 19007KT 9SM BKN020 OVC026 M19/M22 A2968 RMK SLP054=
METAR CYWE 110300Z AUTO 07008KT 9SM OVC006 M28/M31 A2925 RMK ICE SLP958=
METAR CYWJ NIL=
METAR CYWY NIL=
METAR CYXN NIL=
METAR CYXP NIL=
METAR CYZS 110300Z 09020G26KT 4SM -SN DRSN BKN012 OVC032 M10/M12 A2955 RMK SC5SC3 SLP016=


209 
SACN41 CWAO 110300
METAR CBBC 110300Z AUTO 20009G17KT 170V240 2 1/2SM RA BR FEW011 OVC019 04/03 A2920 RMK SLP890=
METAR CYBD NIL=
METAR CYCD 110300Z 14011G19KT 6SM RA BR FEW010 OVC030 05/05 A2967 RMK SF2SC6 SLP051=
METAR CYCG NIL=
METAR CYDA NIL=
METAR CYDL 110300Z AUTO VRB02KT 9SM CLR M11/M13 A2884 RMK SLP803=
METAR CYGE NIL=
METAR CYIN 110300Z AUTO 13018G25KT 9SM FEW066 OVC200 M05/M08 A2935 RMK SLP009=
METAR CYKA 110300Z 10014G19KT 40SM BKN100 OVC220 M01/M04 A2963 RMK AC5CI3 SLP054=
METAR CYLW 110300Z AUTO 13006KT 110V180 9SM OVC081 M00/M04 A2979 RMK SLP112=
METAR CYMA 110300Z VRB02KT 20SM OVC068 M10/M13 A2870 RMK AC8 SLP760=
METAR CYOC NIL=
METAR CYPW 110300Z 11022G36KT 080V140 10SM -RA BKN008 OVC032 04/04 A2960 RMK SF6SC2 VIS LWR N-E CIG HIER W LAST STFD OBS NEXT OBS 111500 UTC SLP029=
METAR CYQH 110300Z 35004KT 20SM BKN100 M19/M22 A2883 RMK AC6 SLP826=
METAR CYQU 110300Z 17006KT 25SM BKN130 M04/M09 A2913 RMK AC6 SLP905=
METAR CYSD NIL=
METAR CYWL 110300Z 12019G28KT 15SM BKN160 BKN190 M03/M07 A2933 RMK AC6CI1 SLP980=
METAR CYXJ 110300Z 21013G18KT 15SM FEW140 M01/M06 A2901 RMK AC2 SLP858=
METAR CYXT 110300Z 27004KT 190V290 3SM -SN SCT006 BKN020 BKN035 OVC060 00/M00 A2905 RMK SF3SC2SC2SC1 SLP848=
METAR CYXY 110300Z 16011KT 15SM BKN160 M08/M10 A2866 RMK AS6 SLP751=
METAR CYYD 110300Z 15012KT 8SM -SN FEW006 BKN050 OVC070 00/M00 A2893 RMK SF1SC5AC2 PRESRR SLP817=
METAR CYYE 110300Z 00000KT 15SM BKN150 BKN210 M16/M18 A2887 RMK AC6CI1 SLP815=
METAR CYYF 110300Z 16018KT 15SM SCT040 BKN075 OVC095 00/M04 A2982 RMK SC3AC3AC2 SLP117=
METAR CYZW NIL=
METAR CYZY 110300Z AUTO 16017G25KT 9SM BKN031 OVC060 M02/M06 A2906 RMK SLP876=
METAR CZFA NIL=
METAR CZMT NIL=


210 
SACN46 CWAO 110300 CCA
METAR CYYU 110300Z CCA 14004KT 15SM FEW140 SCT150 BKN160 BKN180 M06/M08 A2985 RMK AC2AC2AC2AC1 SLP126=


211 
SACN54 CWAO 110300
CPY NIL=
VXY SA 0300 AUTO8 M M M 757/-09/-11/0000/M/     SOG 24 5000 48MM=
WUM SA 0300 AUTO8 M M M 777/-14/-16/2102/M/ 1001 40MM=
XQH SA 0300 AUTO8 M M M 822/-19/-22/3403/M/0003 SOG 50 5006 25MM=


212 
SACN50 CWAO 110300
NCN SA 0300 AUTO8 M M M 018/-07/-08/MMMM/M/     SOG 07 6040 05MM=
VAS SA 0300 AUTO8 M M M 042/-07/-08/1502/M/ 8047 64MM=
VBB SA 0300 AUTO8 M M M 072/06/05/1604/M/0008 PCPN 0.4MM PAST HR 6045 79MM=
VBD SA 0300 AUTO8 M M M 872/00/00/0000/M/0055 PCPN 1.7MM PAST HR PRESFR SOG 02 8060 20MM=
VBR SA 0300 AUTO8 M M M 763/-19/-21/2807/M/     SOG 07 3016 62MM=
VCL SA 0300 AUTO8 M M M M/03/02/MMMM/M/0002 M 85MM=
VCW SA 0300 AUTO8 M M M 065/-06/-09/1301/M/     SOG 04 8040 22MM=
VFN SA 0300 AUTO8 M M M 818/-16/-18/0000/M/     SOG 33 6030 88MM=
VFS SA 0300 AUTO8 M M M 846/-02/-08/1003/M/     SOG 02 6045 12MM=
VGE NIL=
VKC SA 0300 AUTO8 M M M 850/01/01/1903/M/     SOG 33 5008 47MM=
VLY SA 0300 AUTO8 M M M 015/06/-02/2212+26/M/     PK WND 2026 0250Z 8044 50MM=
VME SA 0300 AUTO8 M M M M/02/-03/0606/M/     M 07MM=
VMO NIL=
VNB NIL=
VOC SA 0300 AUTO8 M M M 042/-01/-01/MMMM/M/0022 PCPN 1.1MM PAST HR SOG 12 8046 81MM=
VOD SA 0300 AUTO8 M M M 040/-03/-03/0000/M/0092 PCPN 3.5MM PAST HR SOG 61 8045 61MM=
VOI NIL=
VOM SA 0300 AUTO8 M M M 078/03/02/2103/M/0130 PCPN 5.9MM PAST HR 7048 83MM=
VOO SA 0300 AUTO8 M M M 056/05/04/1605/M/0045 PCPN 2.4MM PAST HR 6043 93MM=
VOP NIL=
VOQ SA 0300 AUTO8 M M M 038/04/03/1312/M/0092 PCPN 4.2MM PAST HR PK WND 1517 0245Z 8039 80MM=
VOU SA 0300 AUTO8 M M M 060/05/04/1215+23/M/0028 PCPN 2.0MM PAST HR PK WND 1128 0238Z 6045 99MM=
VPE SA 0300 AUTO8 M M M 088/03/02/2405/M/0023 PCPN 0.9MM PAST HR 6038 82MM=
VPX SA 0300 AUTO8 M M M 895/-01/-07/1712+24/M/     PK WND 1428 0231Z SOG 04 6054 40MM=
VQZ SA 0300 AUTO8 M M M 946/-01/-07/1409+16/M/     SOG 05 8046 37MM=
VRA SA 0300 AUTO8 M M M 114/-01/-02/1723+33/M/0001 PCPN 0.1MM PAST HR PK WND 1733 0252Z SOG 12 8021 04MM=
VSA SA 0300 AUTO8 M M M 071/06/04/1903/M/0028 PCPN 1.4MM PAST HR PK WND 1524 0218Z 6036 75MM=
VSJ SA 0300 AUTO8 M M M 852/-01/-06/2013/M/     PK WND 2018 0218Z SOG 04 8038 35MM=
VSL NIL=
VTF SA 0300 AUTO8 M M M M/M/M/1727+32/M/ PK WND 1633 0210Z M MMMM=
VTS NIL=
VVR SA 0300 AUTO8 M M M 068/06/04/1311+17/M/0011 PCPN 0.5MM PAST HR PK WND 1422 0244Z 8045 15MM=
VXC SA 0300 AUTO8 M M M 175/-03/-08/1904/M/     6007 07MM=
VXS SA 0300 AUTO8 M M M 899/-02/-07/1724+34/M/M PK WND 1835 0244Z SOG 07 M 27MM=
VYD SA 0300 AUTO8 M M M 820/01/00/1510/M/0009 PK WND 1318 0235Z SOG 06 8001 5-3MM=
VZP SA 0300 AUTO8 M M M 870/01/00/1903/M/     8010 60MM=
VZY SA 0300 AUTO8 M M M 871/-02/-06/1615+23/M/     PK WND 1525 0226Z SOG 32 6044 48MM=
WFG NIL=
WGP SA 0300 AUTO8 M M M 045/-01/-01/MMMM/M/0007 PCPN 0.7MM PAST HR SOG 02 8048 91MM=
WHC SA 0300 AUTO8 M M M M/06/05/MMMM/M/0030 PCPN 0.4MM PAST HR M 69MM=
WPN NIL=
WPU SA 0300 AUTO8 M M M 942/-10/-12/2302/M/     SOG 09 8036 18MM=
ZKA SA 0300 AUTO8 M M M 057/00/-03/1014/M/     PK WND 0919 0230Z SOG 04 8043 -29MM=


213 
SACN43 CWAO 110300
METAR CWHN 110300Z AUTO 25005KT 210V290 9SM FEW053 M08/M12 A2929 RMK SLP962=
METAR CWLO NIL=
METAR CYAB NIL=
METAR CYBK 110300Z 05019G30KT 3/4SM -SN BLSN OVC025 M11/M13 A2943 RMK SC8 SLP969=
METAR CYBQ NIL=
METAR CYBR 110300Z 24009KT 15SM FEW250 M15/M17 A2967 RMK CI2 SLP091=
METAR CYBU 110300Z AUTO 21007KT 9SM CLR M13/M15 A2947 RMK ICE INTMT SLP012=
METAR CYDN 110300Z AUTO 24009G15KT 9SM FEW091 M06/M13 A2959 RMK SLP044=
METAR CYEN 110300Z AUTO 22007KT 9SM CLR M14/M16 A2968 RMK SLP101=
METAR CYET 110300Z AUTO 25005KT 9SM OVC110 M02/M13 A2929 RMK SLP972=
METAR CYGX 110300Z 27009G15KT 12SM -SN OVC007 M11/M13 A2934 RMK ST8 SLP953=
METAR CYKJ 110300Z AUTO VRB02KT 9SM OVC018 M21/M23 A2932 RMK SLP982=
METAR CYLL 110300Z 23010KT 15SM BKN080 M06/M13 A2937 RMK AC6 SLP990=
METAR CYMM 110300Z AUTO 10006KT 9SM CLR M16/M17 A2928 RMK SLP950=
METAR CYNE 110300Z AUTO 26003KT 230V290 9SM OVC120 M09/M11 A2946 RMK SLP997=
METAR CYOJ 110300Z 13006KT 15SM IC FEW090 M15/M16 A2911 RMK AC1 FROIN SLP897=
METAR CYPA 110300Z 23006KT 15SM SCT070 M13/M16 A2947 RMK AC3 SLP018=
METAR CYPG NIL=
METAR CYPY 110300Z AUTO 11007KT 9SM CLR M20/M22 A2932 RMK SLP958=
METAR CYQF 110300Z AUTO 19007KT 9SM OVC200 M10/M16 A2939 RMK SLP018=
METAR CYQL 110300Z 25027G36KT 20SM DRSN SCT270 M02/M10 A2958 RMK CI3 SLP065=
METAR CYQR 110300Z 24010KT 15SM SKC M11/M16 A2960 RMK SLP073=
METAR CYQW 110300Z AUTO 25009KT 9SM OVC091 M08/M13 A2947 RMK SLP019=
METAR CYVC 110300Z 22002KT 15SM -SN OVC060 M12/M14 A2940 RMK SC8 SLP989=
METAR CYYL 110300Z AUTO 27005KT 9SM CLR M22/M24 A2935 RMK SLP982=
METAR CYYN 110300Z AUTO 23017KT 9SM CLR M10/M15 A2956 RMK SLP066=
METAR CYZH 110300Z AUTO 14004KT 070V160 9SM OVC096 M08/M10 A2922 RMK SLP935=
METAR CZVL 110300Z AUTO 21011KT 9SM OVC200 M03/M11 A2932 RMK SLP962=


216 
SACN42 CWAO 110300
METAR CYAZ NIL=
METAR CYBL 110300Z 14014G22KT 5SM -RA BR OVC007 03/03 A2953 RMK SF8 SLP004=
METAR CYBV NIL=
METAR CYCP NIL=
METAR CYCQ NIL=
METAR CYDB 110300Z AUTO 29008KT 9SM BKN120 M19/M22 A2865 RMK SLP758=
METAR CYDC NIL=
METAR CYDQ 110300Z AUTO 13006KT 9SM CLR M02/M07 A2905 RMK PRESFR SLP870=
METAR CYEV 110300Z 19002KT 15SM BKN130 M26/M29 A2916 RMK AC5 SLP885=
METAR CYFO NIL=
METAR CYHE 110300Z AUTO 22004KT 200V290 4SM -RA BR FEW012 SCT026 OVC031 03/02 A2977 RMK PRESFR SLP085=
METAR CYIV 110300Z AUTO 21009KT 180V270 9SM BKN110 M09/M11 A2947 RMK SLP999=
METAR CYKY 110300Z 17007KT 15SM FEW260 M13/M16 A2949 RMK CI2 SLP038=
METAR CYMD NIL=
METAR CYPR 110300Z AUTO 21004KT 190V300 1SM -SN VV009 00/M01 A2912 RMK ICE SLP865=
METAR CYPS NIL=
METAR CYQD 110300Z AUTO 25006KT 9SM -SN OVC025 M07/M11 A2946 RMK SLP000=
METAR CYQZ 110300Z AUTO 15014KT 9SM BKN180 BKN200 M01/M07 A2928 RMK PRESFR SLP944=
METAR CYRV 110300Z AUTO 17024G35KT 1SM -SN OVC024 M01/M02 A2979 RMK SLP110=
METAR CYSE NIL=
METAR CYUA 110300Z AUTO 33013G22KT 300V010 ////SM OVC011 M16/M18 A2924=
METAR CYVL 110300Z AUTO 07004KT 020V120 8SM BKN013 M20/M21 A2903 RMK SLP871=
METAR CYXC 110300Z 18011G17KT 25SM BKN075 M03/M08 A2984 RMK AC7 SLP159=
METAR CYXE 110300Z 21010KT 15SM FEW098 M08/M13 A2949 RMK AC2 SLP027=
METAR CYXQ NIL=
METAR CYXS 110300Z AUTO 18028G38KT CLR M02/M07 A2912 RMK SLP897=
METAR CYZP 110300Z AUTO 18008KT 9SM FEW066 BKN089 BKN120 00/M01 A2913 RMK SLP865=
METAR CYZT 110300Z 13011KT 3SM RA FEW008 BKN028 OVC041 04/04 A2931 RMK SF2SC4SC2 PRESFR SLP927=


218 
SACN46 CWAO 110300
METAR CYAT 110300Z AUTO 22004KT 180V270 9SM CLR M10/M11 A2975 RMK SLP076=
METAR CYBC 110300Z AUTO 29004KT 9SM OVC013 M07/M08 A3010 RMK SLP195=
METAR CYBN 110300Z AUTO 13002KT 4SM OVC024 OVC037 OVC071 02/02 A2989 RMK SLP129=
METAR CYCK 110300Z AUTO 12013G19KT 5SM -RA BR BKN019 07/06 A2970 RMK SLP064=
METAR CYER 110300Z AUTO 21010KT 9SM BKN096 M12/M15 A2953 RMK SLP005=
METAR CYFR NIL=
METAR CYGK 110300Z 07007KT 15SM BKN032 OVC200 03/01 A3001 RMK SC5CI3 PRESFR SLP167=
METAR CYGQ 110300Z 23002KT 15SM OVC150 M08/M09 A2975 RMK AC8 WIND ESTD SLP102=
METAR CYHM 110300Z 05012KT 8SM BKN035 OVC130 03/02 A2984 RMK SC6AS2 PRESFR SLP115=
METAR CYKF 110300Z AUTO 08011KT 6SM BR BKN036 OVC045 02/00 A2984 RMK SLP117=
METAR CYKL 110300Z AUTO 16008KT 6SM -SN BKN028 M18/M20 A2971 RMK SLP122=
METAR CYKP 110300Z AUTO 21004KT 9SM BKN230 M09/ A2972 RMK DP MISG ICE MISG SLP082=
METAR CYKZ NIL=
METAR CYLD NIL=
METAR CYLH 110300Z AUTO 21005KT 9SM CLR M11/M12 A2967 RMK SLP071=
METAR CYOO 110300Z AUTO 06006KT 7SM BKN034 OVC046 04/02 A2993 RMK SLP142=
METAR CYPL 110300Z AUTO 20006KT 9SM CLR M11/M12 A2964 RMK SLP070=
METAR CYPO 110300Z AUTO 21006KT 9SM CLR M13/M16 A2962 RMK SLP041=
METAR CYQA 110300Z AUTO /////KT 2 1/2SM BR BKN008 OVC017 01/01 A2990 RMK WIND MISG SLP139=
METAR CYQK 110300Z 20005KT 20SM SCT240 M09/M10 A2967 RMK CI3 SLP078=
METAR CYRB 110300Z 11004KT 15SM IC OVC006 M22/M25 A2970 RMK ST8 SLP071=
METAR CYRQ 110300Z AUTO 03006KT 7SM OVC026 M06/M06 A3013 RMK SLP211=
METAR CYSB 110300Z 11008KT 6SM BR BKN002 M02/M02 A2989 RMK SF7 SLP142=
METAR CYSC 110300Z AUTO 00000KT 8SM BKN029 OVC055 M03/M04 A3011 RMK SLP214=
METAR CYSN NIL=
METAR CYSP NIL=
METAR CYVO 110300Z 13002KT 4SM BR BKN002 OVC160 M09/M10 A2996 RMK SF5AS3 LAST STFD OBS/NXT 111100Z PRESFR SLP174=
METAR CYVQ 110300Z 30004KT 30SM FEW160 BKN180 BKN200 M20/M23 A2904 RMK AC2AC4CI1 SLP846=
METAR CYXL NIL=
METAR CYXU 110300Z 09014G19KT 15SM OVC040 04/02 A2979 RMK SC8 CVCTV CLD EMBD PRESFR SLP098=
METAR CYXZ NIL=
METAR CYYB 110300Z 08008KT 15SM FEW009 OVC120 M02/M03 A2991 RMK SF1AC7 LAST STFD OBS/NEXT 111200 UTC SLP151=
METAR CYYH NIL=
METAR CYYU 110300Z 14004KT 15SM SCT140 BKN150 BKN160 OVC180 M06/M08 A2985 RMK AC3AC2AC2AC1 SLP126=
METAR CYYW 110300Z AUTO 28002KT 9SM OVC190 M13/M14 A2970 RMK SLP093=
METAR CZMD 110300Z AUTO 21008KT 160V230 9SM BKN081 M11/M12 A2955 RMK SLP033=
METAR CZSJ 110300Z AUTO 21006KT 130V260 9SM CLR M10/M11 A2953 RMK SLP027=


221 
SACN49 CWAO 110300
METAR CYAY 110300Z AUTO /////KT RMK WIND MISG CLD MISG WX MISG VIS MISG PCPN MISG PRES MISG T MISG DP MISG ICE MISG DENSITY ALT MISG=
METAR CYCX 110300Z AUTO 00000KT 9SM M05/M06 RMK ALTM MISG=
METAR CYDF 110300Z 00000KT 15SM OVC043 M10/M11 A3023 RMK SC8 INTMT -SN SLP241=
METAR CYDP NIL=
METAR CYGW 110300Z AUTO 27018G29KT 3/4SM -SN BKN026 OVC032 M06/M08 A2970 RMK SLP062=
METAR CYLU NIL=
METAR CYNC NIL=
METAR CYSJ 110300Z 20003KT 5SM -RA BR SCT005 BKN010 OVC020 02/02 A3018 RMK SC4SC1SC3 SLP227=
METAR CYTQ NIL=
METAR CYYG 110300Z 18013KT 15SM -SN OVC029 M02/M06 A3022 RMK SC8 SLP239=


222 
SACN31 CWAO 110300
METAR CYAW NIL=
METAR CYBG 110300Z 20003KT 15SM OVC018 M08/M10 A3011 RMK SC8 SLP210=
METAR CYEG 110300Z 19010KT 20SM SCT160 BKN210 M07/M12 A2934 RMK AC3CI4 SLP979=
METAR CYFB 110300Z 33009KT 15SM -SN BKN018 M17/M21 A2972 RMK SC7 SLP069=
METAR CYFC 110300Z AUTO 00000KT 9SM OVC006 M05/M06 A3020 RMK ICE INTMT SLP230=
METAR CYGL 110300Z 19006KT 15SM -SN BKN025 OVC052 M08/M10 A2978 RMK SC5SC3 SLP103=
METAR CYHZ 110300Z 15007KT 15SM BKN023 OVC031 M01/M04 A3024 RMK SC6SC2 SLP250=
METAR CYJT 110300Z 06009KT 15SM -SN SCT023 BKN036 M06/M08 A3024 RMK SC3SC4 SLP244=
METAR CYMX NIL=
METAR CYOW 110300Z 05008KT 15SM SCT020 OVC034 M04/M06 A3005 RMK SC3SC5 PRESFR SLP184=
METAR CYQB 110300Z VRB02KT 10SM -SN OVC021 M06/M07 A3015 RMK SC8 -SN INTMT SLP216=
METAR CYQG 110300Z AUTO 08007KT 310V120 1 1/4SM +RA BR OVC016 08/07 A2970 RMK VIS VRB 3/4-1 1/2 SLP062=
METAR CYQM 110300Z 18008KT 12SM OVC026 M02/M04 A3018 RMK SC8 SLP228=
METAR CYQQ 110300Z 14022G33KT 3SM -RA BR FEW010 BKN021 OVC028 06/05 A2956 RMK SF1SC5SC2 SLP011=
METAR CYQX 110300Z 25007KT 20SM SCT250 M10/M12 A3021 RMK CI4 SLP243=
METAR CYQY 110300Z 23004KT 15SM BKN052 OVC078 M05/M07 A3029 RMK SC6AC2 SLP263=
METAR CYTR 110300Z AUTO 05005KT 2 1/4SM SCT041 01/00 A2998 RMK SLP156=
METAR CYUL 110300Z 02007KT 15SM OVC032 M04/M06 A3012 RMK SC8 SLP203=
METAR CYVR 110300Z 13017G26KT 12SM -RA FEW010 BKN015 OVC038 06/05 A2974 RMK CU1SC5NS2 PRESFR SLP073=
METAR CYWG 110300Z 20003KT 15SM SKC M12/M14 A2969 RMK SLP075=
METAR CYXX 110300Z 17015G24KT 15SM FEW027 SCT053 BKN080 OVC130 06/03 A2976 RMK CU1SC2AS3AS2 PRESFR SLP081=
METAR CYYC 110300Z 29006KT 15SM BKN200 M02/M15 A2946 RMK CI5 SLP029=
METAR CYYJ 110300Z 16008KT 7SM RA FEW012 BKN020 OVC034 06/06 A2973 RMK SC2SC3NS3 SLP072=
METAR CYYQ 110300Z 24012KT 15SM IC SKC M17/M20 A2924 RMK SLP906=
METAR CYYR 110300Z 26005KT 15SM FEW110 SCT140 M16/M22 A3008 RMK AC2AC2 SLP190=
METAR CYYT 110300Z 00000KT 15SM SKC M07/M11 A3023 RMK SLP250=
METAR CYYZ 110300Z 08007KT 15SM OVC050 04/01 A2988 RMK SC8 PRESFR SLP126=
METAR CYZF 110300Z 09008KT 15SM FEW240 M25/M28 A2928 RMK CI2 SLP945=
METAR CYZV 110300Z 34005KT 15SM -SN BKN025 OVC063 M09/M10 A3007 RMK SC5SC3 SLP190=
METAR CYZX 110300Z 29007KT 15SM -SHSN SCT012 OVC026 M00/M02 A3024 RMK SC4SC4 PCPN VRY LGT SLP244=


223 
SACN52 CWAO 110300
METAR CWEU 110300Z 32002KT 15SM -SN OVC054 M23/M26 A2971 RMK SC8 LAST STFD OBS/NEXT 110600Z SLP077=
METAR CWFD 110300Z AUTO ///// ////SM FEW042 OVC050 M18/M20 A////=
METAR CWGZ NIL=
METAR CWKP 110300Z AUTO 10008KT ////SM OVC055 M19/M21 A2915=
METAR CWRH 110300Z AUTO 28012G20KT ////SM BKN002 BKN007 M14/M15 A2957=
METAR CWSA 110300Z AUTO 20013KT 9SM CLR 02/M05 A3036 RMK SLP281=
METAR CWTU NIL=
METAR CWWU NIL=
METAR CWXR 110300Z AUTO 12017G23KT ////SM NCD M21/M23 A2928=
METAR CWYM NIL=
METAR CYPD 110300Z AUTO 14003KT 110V180 9SM -SN OVC036 M03/M06 A3027 RMK SLP259=
METAR CZEM NIL=
METAR CZFM NIL=
METAR CZFN NIL=
METAR CZPC 110300Z AUTO 26034G42KT 9SM SCT160 BKN190 OVC220 M03/M11 A2960 RMK SLP079=
METAR CZUM 110300Z AUTO 14004KT 1 3/4SM -SN OVC031 M17/M20 A2987 RMK SLP165=


379 
SAUS14 KAWN 110300 RRX
METAR K2V6 110254Z AUTO 30014KT 10SM CLR M05/M08 A2989 RMK AO2=
METAR K4V1 110255Z AUTO 26014G21KT 10SM CLR M04/M16 A2997 RMK AO2 T10391161=
METAR K5SM 110255Z AUTO OVC002 A2995 RMK AO2 PWINO=
METAR K6P9 110255Z AUTO 28004KT 10SM SCT120 21/04 A2980 RMK AO2 T02050037=
METAR K7BM 110255Z AUTO 26016G30KT 220V290 10SM SCT028 SCT036 OVC060
      M13/M21 A2984 RMK AO2=
METAR KAFO 110250Z AUTO 16003KT OVC031 M10/M12 A3008 RMK AO2 PWINO=
METAR KBMT 110250Z AUTO 17008KT 7SM OVC010 25/23 A2985 RMK AO2 T02470234=
METAR KCFD 110255Z AUTO 17010KT 10SM OVC014 24/23 A2979 RMK AO2 T02370225=
METAR KCPW 110251Z AUTO 24006KT M21/M22 A2993 RMK AO2 PWINO=
METAR KCVB 110254Z AUTO 31006KT 5SM HZ CLR 20/17 A2980 RMK AO2=
METAR KCZT 110250Z AUTO 00000KT 10SM CLR 21/13 A2977 RMK AO2=
METAR KDMA 110256Z 25004KT 10SM SCT180 11/05 A3010 RMK AO2 SLP181 T01090050
      52015 $=
METAR KINW 110256Z AUTO 36004KT 10SM CLR M01/M10 A3018 RMK AO2 SLP230
      T10061100 51028=
METAR KLZZ 110255Z AUTO 28007KT 10SM CLR 21/17 A2978 RMK AO2 T02130171=
METAR KMHS 110256Z AUTO 00000KT 8SM CLR M01/M06 A3016 RMK AO2 SLP254
      T10111061 56002=
METAR KNUW 110256Z 15024G35KT 10SM SCT020 BKN025 OVC040 08/04 A2980
      RMK AO2 PK WND 15040/0205 SLP092 T00830044 56048 PNO=
METAR KNXP 110256Z AUTO 28004KT 10SM CLR 07/M11 A3026 RMK AO2 SLP237
      T00671111 51013=
METAR KNZY 110252Z 31003KT 10SM FEW035 12/09 A3013 RMK AO2 SLP202 T01220089
      50006=
METAR KSDB 110253Z AUTO 06016KT 10SM CLR 04/M04 A3017 RMK AO2 SLP209
      T00441039 53010=
METAR KSXT 110256Z AUTO 16013KT 10SM BKN110 01/M03 A3010 RMK AO2 SLP220
      T00061033 58010=


380 
SACN63 CWAO 110300
NPV NIL=
NVQ SA 0300 AUTO8 M M M 843/-20/-22/3103/M/     SOG 22 3006 14MM=
WMT SA 0300 AUTO8 M M M 920/-26/-29/1006/M/     SOG 17 6018 97MM=
XAR SA 0300 AUTO8 M M M 865/-08/-09/0911/M/0003 SOG 16 5000 93MM=
ZEV SA 0300 AUTO8 M M M 883/-25/-28/3505/M/     SOG 22 3001 75MM=
ZFS SA 0300 AUTO8 M M M 853/-16/-18/1208/M/     SOG 28 6023 10MM=
ZHY SA 0300 AUTO8 M M M 899/-19/-22/0903/M/     SOG 14 6032 36MM=
ZSM SA 0300 AUTO8 M M M 949/-18/-19/1103/M/     SOG 32 8020 64MM=


381 
SACN95 CWAO 110300
WTA SA 0300 AUTO8 M M M 201/-04/-05/3604/M/     SOG 04 1003 94MM=
WTD NIL=
WTE SA 0300 AUTO8 M M M 833/-12/-14/1506/M/     SOG 38 7026 02MM=
WTG SA 0300 AUTO8 M M M 187/-04/-06/2521/M/     PK WND 2326 0204Z 5007 93MM=
WTM SA 0300 AUTO8 M M M 254/-06/-10/3405/M/ 5000 64MM=
WTN SA 0300 AUTO8 M M M 212/-06/-07/2502/M/     1005 68MM=
WTR NIL=
WTS SA 0300 AUTO8 M M M 020/-10/-16/2206/M/     SOG 03 7016 28MM=
WTT SA 0300 AUTO8 M M M M/00/-03/2702/M/ M 04MM=
WTX SA 0300 AUTO8 M M M 077/-10/-11/1902/M/ 6011 14MM=
WTY SA 0300 AUTO8 M M M 215/-05/-07/0104/M/ 0006 48MM=
WUI NIL=
WUK SA 0300 AUTO8 M M M M/-10/-11/2002/M/ M 34MM=
WUS SA 0300 AUTO8 M M M 109/02/-04/1618+29/M/     PK WND 1729 0259Z SOG 12 6034 55MM=
WUT SA 0300 AUTO8 M M M 070/-13/-16/2107/M/     SOG 04 8010 66MM=
WUX NIL=
WUY SA 0300 AUTO8 M M M 161/-08/-08/0503/M/     8015 03MM=
WVC SA 0300 AUTO8 M M M 069/-11/-16/2316/M/     PK WND 2220 0231Z SOG 01 8013 98MM=
WVF SA 0300 AUTO8 M M M M/07/05/1530+36/M/ PK WND 1636 0257Z M 91MM=
WVI SA 0300 AUTO8 M M M 977/-04/-11/2208/M/     SOG 11 8019 16MM=
WVN SA 0300 AUTO8 M M M 109/-11/-14/2212/M/     SOG 03 8010 91MM=
WVO SA 0300 AUTO8 M M M 062/-03/-09/2515/M/M PK WND 2521 0242Z 8016 88MM=
WVP SA 0300 AUTO8 M M M 051/-06/-14/2608+16/M/     SOG 04 8013 68MM=
WVQ SA 0300 AUTO8 M M M 202/-04/-06/0204/M/     SOG 03 0003 10MM=
WVT SA 0300 AUTO8 M M M 982/-17/-18/1802/M/     SOG 15 8016 53MM=
WVU SA 0300 AUTO8 M M M 228/06/04/1808/M/     SOG 02 5008 48MM=
WVW SA 0300 AUTO8 M M M 206/-05/-10/3309/M/ PK WND 3017 0206Z 1004 98MM=
WVZ NIL=
WWA SA 0300 AUTO8 M M M 078/04/04/0804/M/0038 PCPN 1.2MM PAST HR 8041 17MM=
WWB SA 0300 AUTO8 M M M 124/05/03/0409/M/ 8037 23MM=
WWC SA 0300 AUTO8 M M M 981/-26/-28/2403/M/     SOG 36 6005 52MM=
WWE NIL=
WWF SA 0300 AUTO8 M M M 080/-10/-15/2406/M/     SOG 03 8009 30MM=
WWK SA 0300 AUTO8 M M M 078/07/04/1611+19/M/0002 PK WND 1623 0244Z 7047 70MM=
WWN NIL=
WWO NIL=
WWP SA 0300 AUTO8 M M M 076/-18/-20/0301/M/     SOG 23 7011 68MM=
WXA SA 0300 AUTO8 M M M 045/-03/-15/2514+28/M/M PK WND 2834 0216Z 6025 31MM=
WXB SA 0300 AUTO8 M M M 048/-09/-13/2311/M/     SOG 08 8010 96MM=
WXC NIL=
WXG SA 0300 AUTO8 M M M 040/-08/-13/2713/M/     PK WND 2620 0213Z SOG 02 6011 90MM=
WZW NIL=


382 
SACN94 CWAO 110300
WQC SA 0300 AUTO8 M M M 033/05/05/0705/M/0091 PCPN 3.6MM PAST HR 8035 41MM=
WQD SA 0300 AUTO8 M M M M/-04/-07/3012/M/ M 90MM=
WQE NIL=
WQF NIL=
WQH SA 0300 AUTO8 M M M 215/-02/-03/0503/M/     SOG 01 3003 72MM=
WQK SA 0300 AUTO8 M M M 072/06/03/2302/M/ 6037 16MM=
WQL SA 0300 AUTO8 M M M 065/-01/-09/2628/M/M PK WND 2637 0259Z 8013 68MM=
WQM SA 0300 AUTO8 M M M M/-07/-09/0000/M/ M 73MM=
WQO SA 0300 AUTO8 M M M M/-03/-06/2318/M/ PK WND 2425 0209Z M 35MM=
WQP SA 0300 AUTO8 M M M 148/07/04/1316/M/     PK WND 1318 0256Z PRESFR 8021 66MM=
WQQ SA 0300 AUTO8 M M M 008/-09/-14/1603/M/     8017 99MM=
WQR SA 0300 AUTO8 M M M M/-04/-07/2117/M/ PK WND 2121 0258Z M 51MM=
WQS NIL=
WQU NIL=
WQV SA 0300 AUTO8 M M M M/-07/-10/2904/M/ M 76MM=
WQW NIL=
WQY SA 0300 AUTO8 M M M 965/-16/-18/0708/M/     SOG 08 6005 85MM=
WQZ NIL=
WRA SA 0300 AUTO8 M M M 252/-07/-10/3408/M/     0001 87MM=
WRD SA 0300 AUTO8 M M M 921/-07/-10/1307/M/0005 SOG 18 7028 23MM=
WRE NIL=
WRJ SA 0300 AUTO8 M M M 034/-10/-14/2603/M/     8014 34MM=
WRK SA 0300 AUTO8 M M M 156/01/00/1802/M/     SOG 10 8017 61MM=
WRM SA 0300 AUTO8 M M M 974/00/-13/2509+15/M/     SOG 11 8018 19MM=
WRR NIL=
WRT SA 0300 AUTO8 M M M 099/-04/-11/2912+23/M/ PK WND 2926 0239Z 5014 84MM=
WRU NIL=
WRV SA 0300 AUTO8 M M M 982/-05/-12/2105/M/     SOG 13 8019 54MM=
WRY SA 0300 AUTO8 M M M 077/-04/-11/2511+16/M/     PK WND 2717 0200Z SOG 07 8016 78MM=
WRZ SA 0300 AUTO8 M M M 205/-03/-06/2220/M/ PK WND 2227 0219Z 7015 56MM=
WSB SA 0300 AUTO8 M M M 047/06/04/0928+36/M/M PK WND 0936 0253Z 8046 88MM=
WSD SA 0300 AUTO8 M M M 233/-02/-05/1914/M/     PK WND 2019 0234Z SOG 01 5014 77MM=
WSF SA 0300 AUTO8 M M M 190/-06/-11/3003/M/     5011 53MM=
WSG SA 0300 AUTO8 M M M 195/-06/-09/2006/M/     5004 01MM=
WSK SA 0300 AUTO8 M M M 063/01/01/2601/M/0067 PCPN 2.1MM PAST HR 8051 96MM=
WSL SA 0300 AUTO8 M M M 103/-02/-03/1603/M/     SOG 02 8025 13MM=
WSN SA 0300 AUTO8 M M M 101/04/02/MMMM/M/     8041 21MM=
WSP SA 0300 AUTO8 M M M 072/06/05/3202/M/0064 PCPN 5.0MM PAST HR 6037 33MM=
WSQ NIL=
WSR SA 0300 AUTO8 M M M 989/-07/-14/2412/M/     PK WND 2417 0223Z SOG 18 7015 58MM=
WST NIL=
WSU SA 0300 AUTO8 M M M 086/-11/-12/2302/M/     SOG 11 5011 62MM=
WSV SA 0300 AUTO8 M M M 071/-04/-05/1801/M/0011 PCPN 0.3MM PAST HR SOG 31 8028 52MM=
WSX NIL=
WSY SA 0300 AUTO8 M M M 944/-22/-25/0901/M/     SOG 10 6005 40MM=


383 
SABO10 SABM 110300
METAR SLLP 110300Z VRB02KT 9999 FEW004 FEW017CB SCT070 BKN200 06/06
Q1035=
METAR SLVR 110300Z 35005KT 9999 FEW030CB SCT200 27/22 Q1006=


384 
SACN97 CWAO 110300
XAT SA 0300 AUTO8 M M M 090/-23/-27/MM05/M/     SOG 02 6007 76MM=
XBK NIL=
XBO SA 0300 AUTO8 M M M M/-05/-07/2502/M/0002 PCPN 0.2MM PAST HR M 08MM=
XCA SA 0300 AUTO8 M M M 101/-06/-07/2701/M/     SOG 15 5019 30MM=
XCH NIL=
XCK SA 0300 AUTO8 M M M 763/-20/-22/0000/M/     SOG 28 1001 94MM=
XDE SA 0300 AUTO8 M M M 852/-18/-21/MMMM/M/     SOG 23 8012 47MM=
XDI SA 0300 AUTO8 M M M 108/04/02/1202/M/     8036 22MM=
XDW SA 0300 AUTO8 M M M 081/-10/-13/2406/M/     SOG 02 8005 14MM=
XEA SA 0300 AUTO8 M M M 053/-11/-12/0000/M/     SOG 29 8012 02MM=
XEC SA 0300 AUTO8 M M M 967/-03/-12/2205/M/     8021 27MM=
XEG SA 0300 AUTO8 M M M 976/-07/-12/1909/M/     SOG 08 8020 62MM=
XET SA 0300 AUTO8 M M M 136/01/00/1206/M/     8030 53MM=
XFA SA 0300 AUTO8 M M M 979/04/02/1211+20/M/0068 PCPN 2.0MM PAST HR PK WND 1621 0243Z 8051 60MM=
XGH SA 0300 AUTO8 M M M 055/-11/-14/2309/M/ 8010 77MM=
XHA SA 0300 AUTO8 M M M 053/08/07/1408/M/0038 PCPN 3.1MM PAST HR 6051 76MM=
XHF SA 0300 AUTO8 M M M M/-03/-04/MMMM/M/     M 21MM=
XHI NIL=
XIB SA 0300 AUTO8 M M M 246/-04/-08/2304/M/     SOG 29 6020 23MM=
XLC NIL=
XLL NIL=
XLT SA 0300 AUTO8 M M M 206/-08/-10/14MM/M/ 1020 51MM=
XMD SA 0300 AUTO8 M M M 081/-09/-13/2707/M/     PK WND 2518 0226Z SOG 05 6007 61MM=
XMI SA 0300 AUTO8 M M M 240/04/00/2010/M/ 8015 7-2MM=
XMM SA 0300 AUTO8 M M M 941/-15/-17/1004/M/     SOG 32 6025 41MM=
XMP SA 0300 AUTO8 M M M M/-02/-05/1709/M/ PK WND 1717 0217Z M 04MM=
XMW SA 0300 AUTO8 M M M 056/-05/-10/2209/M/     PK WND 2617 0210Z 8016 86MM=
XMY SA 0300 AUTO8 M M M M/-05/-06/MMMM/M/     M 67MM=
XNM SA 0300 AUTO8 M M M M/-07/-11/2210+16/M/0009 PCPN 0.9MM PAST HR SOG 31 M 14MM=
XOX SA 0300 AUTO8 M M M 980/-11/-13/2102/M/     SOG 25 8011 49MM=
XQT NIL=
XRH SA 0300 AUTO8 M M M 232/-06/-10/1902/M/     SOG 05 6011 69MM=
XSH SA 0300 AUTO8 M M M 213/-06/-08/0302/M/ 2008 48MM=
XSR NIL=
XTL SA 0300 AUTO8 M M M 931/01/-02/1614+27/M/     PK WND 1533 0223Z SOG 01 6019 21MM=
XTN NIL=
XTP SA 0300 AUTO8 M M M 240/-11/-12/2505/M/     1001 44MM=
XTV NIL=
XVG NIL=
XWN SA 0300 AUTO8 M M M 071/-07/-12/2402/M/     8011 45MM=


385 
SAUY10 SABM 110300
METAR SUMU 110300Z 07004KT CAVOK 18/14 Q1010 NOSIG=


386 
SACN66 CWAO 110300
PIF SA 0300 AUTO8 M M M 988/-12/-16/3302/M/     SOG 35 8002 10MM=
PIL SA 0300 AUTO8 M M M 973/-05/-11/1905/M/     SOG 29 6019 49MM=
PJM SA 0300 AUTO8 M M M 100/-14/-16/2306/M/     8005 52MM=
PLS SA 0300 AUTO8 M M M 984/-22/-24/2201/M/     SOG 34 6007 61MM=
PMK NIL=
POX SA 0300 AUTO8 M M M 023/-08/-13/2109/M/     SOG 04 8013 48MM=
PPR SA 0300 AUTO8 M M M 007/-13/-15/2303/M/     SOG 23 8009 54MM=
PQW SA 0300 AUTO8 M M M 012/-08/-14/2508/M/     SOG 10 6014 00MM=
PRJ SA 0300 AUTO8 M M M 048/-08/-13/2411/M/     SOG 09 8012 42MM=
PUN SA 0300 AUTO8 M M M 028/-12/-15/2309/M/     SOG 05 8012 73MM=
PWX SA 0300 AUTO8 M M M 013/-08/-14/2209/M/     SOG 20 8022 65MM=
PYS SA 0300 AUTO8 M M M 080/-10/-15/2312/M/     SOG 06 8011 51MM=
WBD SA 0300 AUTO8 M M M 061/-10/-15/2310/M/     PK WND 2117 0218Z SOG 01 6010 97MM=
WBU SA 0300 AUTO8 M M M 004/-13/-17/2306/M/     SOG 17 6008 86MM=
WDC SA 0300 AUTO8 M M M 994/-26/-29/0705/M/     SOG 30 6009 19MM=
WEH SA 0300 AUTO8 M M M 077/-11/-14/2513/M/     8016 33MM=
WIK SA 0300 AUTO8 M M M 068/-11/-15/2208/M/     SOG 01 8013 16MM=
WKO SA 0300 AUTO8 M M M 098/-10/-14/2416/M/     PK WND 2519 0250Z 8011 65MM=
WOY SA 0300 AUTO8 M M M 036/-08/-14/2312/M/     PK WND 2319 0205Z SOG 09 8009 56MM=
XBK SA 0300 AUTO8 M M M 077/-15/-18/2210/M/     SOG 02 6009 89MM=
ZHB SA 0300 AUTO8 M M M 011/-14/-16/2203/M/     SOG 13 8007 16MM=


387 
SAZZ40 KAWN 110300 RRP
METAR DAUT 110300Z 00000KT CAVOK 06/M00 Q1019=
METAR DAUU 110300Z 00000KT CAVOK 11/01 Q1014=
METAR DBBB 110300Z 23008KT 9999 FEW011 28/25 Q1007 NOSIG=
METAR DFFD 110300Z 03005KT CAVOK 21/00 Q1010 NOSIG=
METAR DTTG 110300Z 23015KT 5000 NSC 10/01 Q1011 NOSIG=
METAR KCVS 110256Z AUTO 32021G27KT 10SM CLR 07/M08 A2994 RMK AO2 PK
      WND 29036/32 PRESRR SLP120 T00661085 52048=
METAR KDMA 110256Z 25004KT 10SM SCT180 11/05 A3010 RMK AO2 SLP181 T01090050
      52015 $=
METAR KMTC 110256Z 13012KT 5SM -RA OVC018 08/05 A2969 RMK AO2A SLP068
      ALSTG/SLP ESTMD P0006 60006 57052 $=
METAR KVOK 110256Z 04006KT 7SM -SN OVC007 M00/M02 A2944 RMK AO2A SLP983
      60020 57054=
METAR LPLA 110300Z /////KT 9999 FEW014 SCT022 17/15 Q1026=
METAR MKJP 110300Z 30005KT 9999 FEW022 26/21 Q1014=
METAR NSFA 110300Z 01013KT 9999 FEW022 BKN180 33/26 Q1009=
METAR ORER 110300Z 32003KT 8000 NSC 03/00 Q1025=
METAR PHNG 110257Z 08012G18KT 10SM FEW025 25/19 A3003 RMK AO2 SLP164
      T02500189 53003 $=
METAR RJAW 110300Z 03017KT 9999 FEW015 BKN020 22/11 Q1018 RMK 1CU015
      5CU020 A3008=
METAR TNCM 110300Z 05017KT 9999 SCT018 27/22 Q1016=
METAR TTCP 110300Z 06004KT 9999 FEW017 26/22 Q1010 NOSIG=
METAR TTPP 110300Z 00000KT 9999 FEW016 25/23 Q1010 NOSIG=
METAR UACC 110300Z 07003MPS CAVOK M15/M20 Q1027 NOSIG RMK QFE738/0985=
METAR UATT 110300Z 05004MPS CAVOK M06/M10 Q1019 NOSIG RMK QFE745/0993=
METAR UUYY 110300Z 22003MPS 9999 FEW005 M19/M21 Q1038 R18/420345 NOSIG
      RMK QBB150 QFE770/1027=
METAR YBDV 110300Z AUTO 09007KT 070V180 9999 // NCD 33/04 Q1010=
METAR ZWSH 110300Z 32004MPS 9999 FEW040 M05/M14 Q1036 NOSIG=


388 
SACN74 CWAO 110300
NBB SA 0300 AUTO8 M M M 074/-16/-19/0605/M/     6010 97MM=
NBI NIL=
NCD SA 0300 AUTO8 M M M 067/-15/-17/0704/M/     6011 16MM=
NCO SA 0300 AUTO8 M M M 953/-20/-25/1706/M/     SOG 05 0001 86MM=
NDT SA 0300 AUTO8 M M M 086/-27/-31/2006/M/     SOG 11 6007 20MM=
NEK SA 0300 AUTO8 M M M 077/-22/-24/0103/M/     SOG 27 6006 11MM=
NFR NIL=
NGC SA 0300 AUTO8 M M M 050/-17/-19/0000/M/     SOG 03 6007 48MM=
NGH NIL=
NPL NIL=
NSG NIL=
NZS NIL=
WIC NIL=
XBL SA 0300 AUTO8 M M M 968/-11/-13/0625+30/M/     PK WND 0631 0219Z SOG 01 8004 50MM=
XCM SA 0300 AUTO8 M M M 034/-21/-24/0407/M/     SOG 06 6010 30MM=
XFB SA 0300 AUTO8 M M M 070/-17/-20/3408/M/     SOG 10 6008 71MM=
XUX SA 0300 AUTO8 M M M 078/-25/-27/2909/M/     SOG 06 6004 61MM=
ZCY NIL=
ZHK SA 0300 AUTO8 M M M 057/-18/-20/1105/M/     SOG 45 6005 98MM=
ZLT SA 0300 AUTO8 M M M 096/-21/-24/0000/M/     SOG 06 1001 50MM=
ZVM SA 0300 AUTO8 M M M 051/-19/-22/MM07/M/     SOG 31 6008 71MM=


389 
SACN96 CWAO 110300
WXL SA 0300 AUTO8 M M M 065/-03/-09/2716/M/     PK WND 2722 0203Z 8014 50MM=
WXN SA 0300 AUTO8 M M M M/-07/-15/MMMM/M/     M 54MM=
WXP SA 0300 AUTO8 M M M 040/-17/-20/1405/M/     SOG 50 6011 49MM=
WXS SA 0300 AUTO8 M M M 215/-06/-09/1905/M/     8018 87MM=
WXW NIL=
WYA NIL=
WYE SA 0300 AUTO8 M M M 042/-07/-12/2413/M/     PK WND 2318 0210Z 8012 67MM=
WYF NIL=
WYH SA 0300 AUTO8 M M M 930/-25/-28/1102/M/     SOG 20 8013 43MM=
WYI SA 0300 AUTO8 M M M M/M/M/2910/M/ 0002 MMMM=
WYJ SA 0300 AUTO8 M M M 076/06/04/1604/M/0005 PCPN 0.3MM PAST HR 6039 21MM=
WYL SA 0300 AUTO8 M M M 088/-10/-11/2718/M/     PK WND 2523 0242Z SOG 69 8009 34MM=
WYQ SA 0300 AUTO8 M M M 202/-06/-09/1908/M/0001 3006 66MM=
WYW NIL=
WYY SA 0300 AUTO8 M M M 139/00/-04/1706/M/     SOG 04 8025 18MM=
WZA SA 0300 AUTO8 M M M 082/03/02/3303/M/0012 PCPN 0.5MM PAST HR 6046 84MM=
WZE SA 0300 AUTO8 M M M 081/-13/-15/2105/M/     SOG 03 8009 80MM=
WZL NIL=
WZO SA 0300 AUTO8 M M M M/M/M/1824+31/M/ PK WND 1634 0228Z M MMMM=
WZQ SA 0300 AUTO8 M M M 250/-03/-12/1911/M/ 8009 11MM=
WZR NIL=
WZS NIL=
WZT SA 0300 AUTO8 M M M 044/-06/-13/2209/M/0001 PCPN 0.1MM PAST HR PK WND 2218 0243Z SOG 11 7015 30MM=
WZV NIL=
WZY NIL=
XBD SA 0300 AUTO8 M M M 964/-04/-12/2004/M/     SOG 17 6022 43MM=
XBQ NIL=
XEL NIL=
XFV SA 0300 AUTO8 M M M 918/-17/-19/0903/M/     SOG 24 6029 99MM=
XGM SA 0300 AUTO8 M M M 218/04/04/MM03/M/M SOG 07 6007 17MM=
XHM SA 0300 AUTO8 M M M 122/05/02/0604/M/     8039 65MM=
XKA SA 0300 AUTO8 M M M 125/-06/-08/1805/M/     SOG 24 8018 06MM=
XKE SA 0300 AUTO8 M M M 178/-03/-05/0802/M/     SOG 02 8007 92MM=
XND SA 0300 AUTO8 M M M 974/-03/-14/2608+18/M/     PK WND 3120 0249Z SOG 17 6015 51MM=
XOA SA 0300 AUTO8 M M M 184/-03/-06/0806/M/     SOG 04 8011 16MM=
XPS SA 0300 AUTO8 M M M 972/-02/-13/2308/M/     SOG 18 8021 38MM=
XPT SA 0300 AUTO8 M M M 053/08/07/MMMM/M/0008 PCPN 0.8MM PAST HR 8050 89MM=
XWF SA 0300 AUTO8 M M M 169/-03/-04/1601/M/0004 PCPN 0.4MM PAST HR SOG 07 8015 45MM=
ZGH SA 0300 AUTO8 M M M 846/-24/-27/1301/M/     SOG 33 3003 31MM=
ZOC NIL=
ZPK NIL=
ZQT NIL=
ZUB SA 0300 AUTO8 M M M 896/-25/-28/0404/M/M SOG 10 5001 41MM=
ZWN SA 0300 AUTO8 M M M 000/-09/-15/2008/M/     SOG 03 6022 36MM=


391 
SACN70 CWAO 110300
PBO SA 0300 AUTO8 M M M 089/-14/-16/2407/M/     SOG 08 8004 93MM=
PGF SA 0300 AUTO8 M M M 074/-11/-13/2102/M/     SOG 07 8011 98MM=
PGH SA 0300 AUTO8 M M M 064/-13/-15/2006/M/     SOG 01 8011 94MM=
PJP SA 0300 AUTO8 M M M M/-09/-11/2202/M/ M 99MM=
PLE SA 0300 AUTO8 M M M 984/-22/-25/2805/M/     SOG 28 8004 13MM=
POY SA 0300 AUTO8 M M M 084/-11/-14/2308/M/     SOG 07 7009 66MM=
PQD SA 0300 AUTO8 M M M 001/-07/-11/2606/M/     SOG 17 6007 49MM=
PSU SA 0300 AUTO8 M M M 081/-03/-04/3414+20/M/0018 PCPN 0.7MM PAST HR PK WND 3220 0255Z SOG 09 0005 26MM=
PTG SA 0300 AUTO8 M M M 075/-12/-14/2106/M/     SOG 02 8013 44MM=
PTO SA 0300 AUTO8 M M M 984/-11/-14/2807/M/     SOG 22 5000 07MM=
PYQ SA 0300 AUTO8 M M M 904/-17/-19/2311/M/     SOG 03 7006 34MM=
WEX SA 0300 AUTO8 M M M 094/-11/-12/2104/M/     SOG 01 6015 08MM=
WGX SA 0300 AUTO8 M M M 950/-10/-13/2710/M/0002 PK WND 2718 0227Z SOG 18 5002 53MM=
WJD NIL=
WOO SA 0300 AUTO8 M M M 043/-04/-13/2411+18/M/     PK WND 2421 0232Z SOG 14 8015 69MM=
WSZ SA 0300 AUTO8 M M M 061/-10/-13/2109/M/     SOG 08 8012 92MM=
XMN SA 0300 AUTO8 M M M M/-07/-10/2312/M/     PK WND 2119 0212Z M 85MM=
XWG SA 0300 AUTO8 M M M 076/-12/-15/2104/M/     SOG 07 8010 96MM=


392 
SACN60 CWAO 110300
CFP7 NIL=
NES SA 0300 AUTO8 M M M M/-03/-12/1905/M/     M 29MM=
NTL SA 0300 AUTO8 M M M M/-18/-20/MMMM/M/     M 98MM=
PAC SA 0300 AUTO8 M M M M/-09/-13/2412/M/     M 80MM=
PAF SA 0300 AUTO8 M M M 948/-03/-10/2209/M/     8024 05MM=
PAT SA 0300 AUTO8 M M M M/-07/-12/2213/M/     M 49MM=
PAV SA 0300 AUTO8 M M M M/-04/-10/2210/M/     PK WND 2725 0213Z M 95MM=
PAZ SA 0300 AUTO8 M M M M/-04/-14/MMMM/M/     M 91MM=
PBB SA 0300 AUTO8 M M M M/-05/-12/MMMM/M/     M 25MM=
PBC SA 0300 AUTO8 M M M M/00/-08/1909/M/     M 47MM=
PBD SA 0300 AUTO8 M M M M/-06/-14/1909/M/     M 44MM=
PBM SA 0300 AUTO8 M M M 086/-03/-11/2418+35/M/     PK WND 2435 0300Z SOG 04 6008 04MM=
PBN SA 0300 AUTO8 M M M M/-04/-08/1805/M/     M 86MM=
PBU SA 0300 AUTO8 M M M M/-05/-09/2311/M/     M 84MM=
PCC SA 0300 AUTO8 M M M M/-02/-14/2314/M/     PK WND 2319 0257Z M 33MM=
PCE SA 0300 AUTO8 M M M M/-13/-16/2209/M/     M 18MM=
PCF SA 0300 AUTO8 M M M M/-02/-11/2207/M/     M 94MM=
PCH SA 0300 AUTO8 M M M 975/-20/-23/1006/M/0002 SOG 44 6023 26MM=
PCI SA 0300 AUTO8 M M M 030/-02/-15/2912+18/M/     PK WND 2825 0203Z SOG 03 5012 87MM=
PCK SA 0300 AUTO8 M M M 081/-03/-11/2631+39/M/0008 PCPN 0.8MM PAST HR PK WND 2550 0223Z 6021 69MM=
PCL SA 0300 AUTO8 M M M M/-09/-13/2311/M/M M 11MM=
PCN SA 0300 AUTO8 M M M M/-08/-13/2207/M/     M 49MM=
PCS SA 0300 AUTO8 M M M M/00/-06/2415/M/     PK WND 2423 0245Z M -35MM=
PCY SA 0300 AUTO8 M M M 062/-02/-14/2214+22/M/     PK WND 2027 0241Z SOG 05 8004 36MM=
PDA SA 0300 AUTO8 M M M M/-05/-13/1809/M/     M 71MM=
PDB SA 0300 AUTO8 M M M M/-05/-10/2504/M/     M 52MM=
PDO SA 0300 AUTO8 M M M M/00/-06/2115/M/     PK WND 2123 0258Z M -34MM=
PDU SA 0300 AUTO8 M M M M/-04/-10/MMMM/M/     M 08MM=
PEL SA 0300 AUTO8 M M M M/-01/-07/1911/M/     M 09MM=
PET NIL=
PFA SA 0300 AUTO8 M M M M/-07/-13/MMMM/M/     M 44MM=
PFB SA 0300 AUTO8 M M M M/-07/-14/2304/M/     M 87MM=
PFE SA 0300 AUTO8 M M M M/-09/-14/2308/M/     M 69MM=
PFF SA 0300 AUTO8 M M M M/-09/-13/2315/M/M PK WND 2317 0259Z M 94MM=
PFM SA 0300 AUTO8 M M M M/-02/-09/2325/M/     PK WND 2433 0245Z M 84MM=
PFR SA 0300 AUTO8 M M M M/-02/-12/2112/M/     M 44MM=
PGB SA 0300 AUTO8 M M M M/-14/-17/1902/M/     M 52MM=
PGC SA 0300 AUTO8 M M M M/-03/-12/2006/M/M M 55MM=
PGI SA 0300 AUTO8 M M M M/-07/-13/2111/M/     M 03MM=
PGT SA 0300 AUTO8 M M M M/-08/-11/MMMM/M/     M 04MM=
PHA SA 0300 AUTO8 M M M M/-08/-13/MMMM/M/     M 69MM=
PHE SA 0300 AUTO8 M M M M/-10/-14/2111/M/     M 32MM=
PHJ SA 0300 AUTO8 M M M 899/-16/-18/1503/M/     SOG 32 8033 55MM=
PHR SA 0300 AUTO8 M M M M/-05/-13/2410/M/     M 42MM=
PHU SA 0300 AUTO8 M M M M/-11/-14/MMMM/M/     M 19MM=
PHW SA 0300 AUTO8 M M M M/-15/-16/2003/M/     M 76MM=
PIA SA 0300 AUTO8 M M M M/-03/-09/2519/M/     PK WND 2523 0235Z M 73MM=
PII SA 0300 AUTO8 M M M 946/-05/-11/1903/M/     SOG 06 8026 00MM=
PJT SA 0300 AUTO8 M M M M/-02/-08/1810/M/     M 82MM=
PKA SA 0300 AUTO8 M M M M/-07/-13/MMMM/M/M M 20MM=
PKG SA 0300 AUTO8 M M M M/-21/-23/0902/M/     M 62MM=
PKI SA 0300 AUTO8 M M M M/-06/-12/MMMM/M/     M 84MM=
PKK SA 0300 AUTO8 M M M M/-03/-10/1910/M/     M 33MM=
PKO SA 0300 AUTO8 M M M M/-02/-13/2814/M/     PK WND 2818 0217Z M 26MM=
PKR SA 0300 AUTO8 M M M M/-05/-12/2511/M/     M 68MM=
PKY SA 0300 AUTO8 M M M M/-16/-18/MMMM/M/     M 50MM=
PLA SA 0300 AUTO8 M M M M/-05/-11/2312/M/     M 13MM=
PLC SA 0300 AUTO8 M M M M/-19/-21/0605/M/     M 78MM=
PLF SA 0300 AUTO8 M M M M/-03/-12/2311/M/     M 66MM=
PLG SA 0300 AUTO8 M M M M/-01/-07/1906/M/     M 01MM=
PLY SA 0300 AUTO8 M M M M/-03/-09/MMMM/M/     M 34MM=
PLZ SA 0300 AUTO8 M M M M/-08/-12/3602/M/     M 44MM=
PMA SA 0300 AUTO8 M M M M/-05/-12/MMMM/M/     M 06MM=
PMB SA 0300 AUTO8 M M M 083/-08/-11/MMMM/M/     8015 69MM=
PML SA 0300 AUTO8 M M M M/-05/-13/1713/M/     PK WND 1817 0253Z M 79MM=
PMN NIL=
PNB SA 0300 AUTO8 M M M M/-03/-14/2105/M/     M 95MM=
PNS SA 0300 AUTO8 M M M M/-07/-13/MMMM/M/     M 56MM=
PNU SA 0300 AUTO8 M M M M/-15/-18/1910/M/     M 25MM=
PNX SA 0300 AUTO8 M M M 988/-05/-11/2311/M/     PK WND 2517 0214Z SOG 03 6017 40MM=
PPL SA 0300 AUTO8 M M M M/-07/-10/2513/M/     PK WND 2417 0207Z M 73MM=
PPN SA 0300 AUTO8 M M M M/-07/-11/2212/M/     M 88MM=
PPT SA 0300 AUTO8 M M M M/-06/-11/2213/M/     M 71MM=
PPV SA 0300 AUTO8 M M M M/-05/-10/1507/M/     M 84MM=
PRD NIL=
PRF SA 0300 AUTO8 M M M M/-01/-07/1910/M/     M 46MM=
PRH SA 0300 AUTO8 M M M M/-04/-10/MMMM/M/     M 68MM=
PRS SA 0300 AUTO8 M M M M/-11/-14/1909/M/     M 20MM=
PRV SA 0300 AUTO8 M M M 896/-03/-09/2107/M/     PK WND 2117 0211Z SOG 07 7028 37MM=
PRW SA 0300 AUTO8 M M M M/-03/-10/MMMM/M/M M 75MM=
PSA SA 0300 AUTO8 M M M M/-08/-13/2311/M/     M 07MM=
PSH SA 0300 AUTO8 M M M M/-06/-12/MMMM/M/     M 18MM=
PSL SA 0300 AUTO8 M M M M/-03/-10/MMMM/M/     M 53MM=
PSQ NIL=
PSR SA 0300 AUTO8 M M M M/-04/-11/2108/M/     M 97MM=
PSW SA 0300 AUTO8 M M M M/-01/-06/2216/M/     PK WND 2321 0224Z M 45MM=
PTA SA 0300 AUTO8 M M M M/-04/-12/MMMM/M/     M 35MM=
PTC SA 0300 AUTO8 M M M M/-01/-08/1911/M/     M 23MM=
PTE SA 0300 AUTO8 M M M M/-07/-11/2007/M/     M 86MM=
PVI NIL=
PVR SA 0300 AUTO8 M M M M/-08/-13/2108/M/     M 37MM=
PWT SA 0300 AUTO8 M M M M/-04/-11/2107/M/     M 34MM=
PXB SA 0300 AUTO8 M M M M/-06/-11/2315/M/     PK WND 2319 0207Z M 30MM=
PXC SA 0300 AUTO8 M M M M/-03/-13/MM13/M/     PK WND MM22 0241Z M 99MM=
PXH SA 0300 AUTO8 M M M M/-09/-14/2612/M/     M 81MM=
PXS SA 0300 AUTO8 M M M M/-11/-15/2411/M/     M 72MM=
PXX SA 0300 AUTO8 M M M M/-04/-09/2415/M/     PK WND 2418 0243Z M 11MM=
PXZ SA 0300 AUTO8 M M M M/-01/-09/MMMM/M/     M 33MM=
PYT SA 0300 AUTO8 M M M M/-09/-13/2209/M/     M 39MM=
PZC SA 0300 AUTO8 M M M 952/-03/-13/2104/M/     SOG 13 6023 89MM=
PZH SA 0300 AUTO8 M M M 936/-08/-10/1304/M/     SOG 13 6029 95MM=
PZK SA 0300 AUTO8 M M M M/-07/-14/2208/M/     M 75MM=
PZL SA 0300 AUTO8 M M M M/-05/-12/2315/M/     PK WND 2318 0259Z M 02MM=
PZN SA 0300 AUTO8 M M M M/-05/-10/2515/M/     PK WND 2519 0215Z M 92MM=
PZW SA 0300 AUTO8 M M M M/-03/-10/2618/M/     PK WND 2725 0210Z M 21MM=


394 
SACN85 CWAO 110300
WBK NIL=
WHO NIL=
WPK SA 0300 AUTO8 M M M 198/-07/-08/1402/M/     SOG 27 1007 10MM=
WWE SA 0300 AUTO8 M M M 243/05/02/1919+24/M/     PK WND 1824 0256Z SOG 07 8012 98MM=
YGS NIL=


395 
SACN86 CWAO 110300
WBE NIL=
WNL NIL=
WPO SA 0300 AUTO8 M M M 097/-15/-18/2306/M/     SOG 05 8007 46MM=
WPS NIL=
WSI NIL=
WWX NIL=
WWZ NIL=


399 
SACN89 CWAO 110300
WAF SA 0300 AUTO8 M M M M/-03/-05/MMMM/M/ M 99MM=
WAG SA 0300 AUTO8 M M M 223/-11/-14/2505/M/     8009 67MM=
WAQ SA 0300 AUTO8 M M M 097/-11/-14/2406/M/     SOG 02 8009 14MM=
WAS SA 0300 AUTO8 M M M 063/03/02/3413/M/0014 PCPN 0.6MM PAST HR 8053 23MM=
WAV NIL=
WAY NIL=
WBA SA 0300 AUTO8 M M M M/-01/-02/1604/M/     SOG 21 M 23MM=
WBG NIL=
WBJ NIL=
WBM SA 0300 AUTO8 M M M 895/-03/-09/1302/M/     SOG 05 7037 02MM=
WBO SA 0300 AUTO8 M M M 046/-06/-11/2406/M/     8017 69MM=
WBS SA 0300 AUTO8 M M M M/-05/-06/0306/M/ M 79MM=
WBT SA 0300 AUTO8 M M M 190/-05/-07/1907/M/0005 PCPN 0.4MM PAST HR 6020 72MM=
WBY SA 0300 AUTO8 M M M 195/-06/-09/2210+15/M/0004 PCPN 0.1MM PAST HR 6012 76MM=
WBZ SA 0300 AUTO8 M M M 193/-03/-04/0505/M/     1004 63MM=
WCF SA 0300 AUTO8 M M M 023/-08/-12/1908/M/     SOG 12 6016 30MM=
WCG NIL=
WCH SA 0300 AUTO8 M M M 100/-10/-11/0000/M/     SOG 17 6012 98MM=
WCI NIL=
WCJ SA 0300 AUTO8 M M M 105/-01/-03/1403/M/     SOG 17 5026 22MM=
WCO SA 0300 AUTO8 M M M 128/03/01/1504/M/     6031 99MM=
WCQ NIL=
WDB NIL=
WDD NIL=
WDE NIL=
WDF NIL=
WDI SA 0300 AUTO8 M M M 257/-20/-22/2301/M/     SOG 12 6011 58MM=
WDJ SA 0300 AUTO8 M M M 070/-11/-16/2511/M/     8012 11MM=
WDK SA 0300 AUTO8 M M M 062/-03/-12/2413/M/     PK WND 2637 0210Z 5012 00MM=
WDN NIL=
WDP NIL=
WDQ SA 0300 AUTO8 M M M 218/-06/-08/1001/M/     SOG 15 3013 37MM=
WDR SA 0300 AUTO8 M M M 058/07/04/1718/M/ PK WND 1623 0219Z 6037 34MM=
WDT NIL=
WDU SA 0300 AUTO8 M M M M/-04/-15/2507/M/M PK WND 2822 0200Z M 03MM=
WDV SA 0300 AUTO8 M M M 095/-09/-10/1801/M/     SOG 25 5014 43MM=
WDW SA 0300 AUTO8 M M M 204/-10/-16/MMMM/M/M 5003 35MM=
WDZ SA 0300 AUTO8 M M M 044/-09/-14/1702/M/ 6015 87MM=


400 
SACN59 CWAO 110300
NLB SA 0300 AUTO8 M M M M/-05/-11/2407/M/     M 77MM=
NLD SA 0300 AUTO8 M M M M/-08/-13/1606/M/     M 89MM=
NNR SA 0300 AUTO8 M M M M/-05/-14/2617/M/     PK WND 2524 0250Z M 59MM=
NPK NIL=
NTK SA 0300 AUTO8 M M M M/-04/-13/2206/M/     M 59MM=
PAA SA 0300 AUTO8 M M M M/-07/-13/2316/M/     PK WND 2220 0227Z M 99MM=
PAH SA 0300 AUTO8 M M M M/-08/-12/MMMM/M/     M 87MM=
PBA SA 0300 AUTO8 M M M M/-04/-10/2317/M/     PK WND 2322 0247Z M 63MM=
PBE SA 0300 AUTO8 M M M M/-07/-13/1802/M/     M 87MM=
PBH NIL=
PBL NIL=
PBR NIL=
PBS SA 0300 AUTO8 M M M M/-09/-13/2414/M/     M 14MM=
PBT SA 0300 AUTO8 M M M M/-02/-10/2722/M/     PK WND 2737 0202Z M 94MM=
PBV SA 0300 AUTO8 M M M M/-10/-14/MMMM/M/     M 54MM=
PCA SA 0300 AUTO8 M M M M/-10/-15/2210/M/     M 49MM=
PCM SA 0300 AUTO8 M M M M/-07/-13/2315/M/     PK WND 2217 0255Z M 02MM=
PCR NIL=
PEA SA 0300 AUTO8 M M M M/-07/-14/2107/M/     M 00MM=
PEH SA 0300 AUTO8 M M M M/-04/-10/0000/M/     M 51MM=
PFI SA 0300 AUTO8 M M M M/-02/-09/2715/M/     PK WND 2824 0206Z M 98MM=
PFO SA 0300 AUTO8 M M M 993/-06/-13/2311/M/     7020 88MM=
PGE SA 0300 AUTO8 M M M M/-07/-13/2411/M/     M 99MM=
PGL SA 0300 AUTO8 M M M M/-03/-08/2517/M/     PK WND 2422 0225Z M 52MM=
PIR SA 0300 AUTO8 M M M M/-02/-08/2523/M/     PK WND 2631 0254Z M 43MM=
PMR NIL=
PQL SA 0300 AUTO8 M M M M/-01/-09/2328/M/     PK WND 2142 0256Z M 36MM=
PQU NIL=
PRA SA 0300 AUTO8 M M M M/-10/-14/MMMM/M/     M 88MM=
PRE SA 0300 AUTO8 M M M M/-06/-11/2410/M/     M 00MM=
PRL SA 0300 AUTO8 M M M M/-05/-12/2211/M/     M 48MM=
PRO SA 0300 AUTO8 M M M M/-07/-12/2311/M/     M 76MM=
PRR NIL=
PRY SA 0300 AUTO8 M M M M/-02/-10/2620/M/     PK WND 2629 0223Z M 41MM=
PSD SA 0300 AUTO8 M M M 018/-04/-13/2413/M/     PK WND 2218 0240Z 7019 40MM=
PSP SA 0300 AUTO8 M M M M/-07/-13/MMMM/M/     M 88MM=
PST SA 0300 AUTO8 M M M M/-08/-13/2209/M/     M 94MM=
PSV SA 0300 AUTO8 M M M M/-05/-09/2113/M/     M 50MM=
PTH SA 0300 AUTO8 M M M M/-03/-12/MMMM/M/     M 18MM=
PTR NIL=
PTU SA 0300 AUTO8 M M M M/-05/-11/MMMM/M/     M 26MM=
PVA SA 0300 AUTO8 M M M M/-06/-11/MMMM/M/     M 22MM=
PWB SA 0300 AUTO8 M M M M/-06/-15/MMMM/M/     M 06MM=
PXL SA 0300 AUTO8 M M M M/-03/-09/0000/M/     M 73MM=
WCT SA 0300 AUTO8 M M M 025/-12/-16/2311/M/     6021 85MM=
WLB SA 0300 AUTO8 M M M 956/-04/-11/2306/M/     SOG 08 8020 80MM=
XAK SA 0300 AUTO8 M M M M/-07/-12/2108/M/     M 24MM=
XDB SA 0300 AUTO8 M M M M/-04/-11/2521/M/     PK WND 2526 0246Z M 38MM=
XFM SA 0300 AUTO8 M M M M/-08/-12/2904/M/     M 41MM=
XHD SA 0300 AUTO8 M M M M/-07/-12/2209/M/     M 80MM=
XHP SA 0300 AUTO8 M M M M/01/-09/2210/M/     PK WND 2320 0245Z M 12MM=
XMG SA 0300 AUTO8 M M M M/-07/-10/1411/M/M M 55MM=
XMO SA 0300 AUTO8 M M M M/-11/-14/1907/M/M M 07MM=
XOL SA 0300 AUTO8 M M M M/-05/-14/2214/M/     PK WND 2218 0256Z M 77MM=
XPL SA 0300 AUTO8 M M M M/-14/-15/2209/M/     M 39MM=
XSC SA 0300 AUTO8 M M M M/-07/-10/2314/M/M M 78MM=
XSL SA 0300 AUTO8 M M M M/-04/-10/2204/M/     M 64MM=
XSP SA 0300 AUTO8 M M M M/-05/-10/2110/M/     M 60MM=
XTH SA 0300 AUTO8 M M M M/-05/-10/2210/M/     PK WND 2217 0202Z M 99MM=
XVM SA 0300 AUTO8 M M M M/-06/-12/2307/M/     M 88MM=
XVW SA 0300 AUTO8 M M M 915/-02/-09/1510/M/     6022 96MM=
ZMU NIL=
ZOL SA 0300 AUTO8 M M M M/-03/-11/2204/M/M M 13MM=
ZPS NIL=


401 
SACN82 CWAO 110300
EUQ NIL=
GAH NIL=
GBC SA 0300 AUTO8 M M M 196/-07/-09/2803/M/     SOG 22 3002 10MM=
GCH SA 0300 AUTO8 M M M 188/-10/-12/2103/M/     SOG 31 3011 55MM=
GKL NIL=
GKM NIL=
GMG SA 0300 AUTO8 M M M 173/-10/-11/1805/M/     SOG 30 3001 87MM=
GRQ SA 0300 AUTO8 M M M 214/-06/-07/0404/M/     SOG 09 0007 99MM=
GSA SA 0300 AUTO8 M M M 215/-06/-07/2402/M/     SOG 29 1007 34MM=
GVO NIL=
MAN NIL=
MBR NIL=
MCT NIL=
MCW NIL=
MFJ NIL=
MFM SA 0300 AUTO8 M M M 196/-07/-08/21MM/M/     SOG 37 3006 66MM=
MFX NIL=
MGB SA 0300 AUTO8 M M M 201/01/-02/0000/M/     SOG 01 1006 08MM=
MGZ SA 0300 AUTO8 M M M 202/-07/-09/2701/M/     SOG 35 3014 61MM=
MHB NIL=
MHN NIL=
MHW NIL=
MIN NIL=
MJI SA 0300 AUTO8 M M M 200/-06/-09/1906/M/0002 SOG 09 3003 87MM=
MJK SA 0300 AUTO8 M M M 971/-05/-06/2311/M/0005 PK WND 1517 0200Z SOG 22 6004 19MM=
MLA NIL=
MLI NIL=
MLT NIL=
MLU SA 0300 AUTO8 M M M 210/-06/-07/0303/M/     1005 58MM=
MMY NIL=
MNT SA 0300 AUTO8 M M M 203/-04/-06/1807/M/     8023 55MM=
MPD NIL=
MPL NIL=
MQK NIL=
MQL NIL=
MQP NIL=
MQQ NIL=
MQU NIL=
MQV NIL=
MRF NIL=
MRI NIL=
MRU NIL=
MRY NIL=
MSB NIL=
MSC NIL=
MSI SA 0300 AUTO8 M M M 202/-02/-04/0102/M/     SOG 02 1007 49MM=
MSR NIL=
MSX NIL=
MTH SA 0300 AUTO8 M M M 209/-03/-04/2102/M/     SOG 16 3006 98MM=
MUS SA 0300 AUTO8 M M M 211/-03/-03/2006/M/0001 PCPN 0.1MM PAST HR SOG 08 1005 64MM=
MWD NIL=
MYT NIL=
NSQ NIL=
WDM NIL=
WHP NIL=


402 
SACN87 CWAO 110300
WEK NIL=
WEQ SA 0300 AUTO8 M M M 021/-06/-12/2310/M/     SOG 12 8013 30MM=
WJD SA 0300 AUTO8 M M M 003/-08/-11/2304/M/     SOG 27 8009 51MM=
WLP SA 0300 AUTO8 M M M 905/05/04/1238+43/M/0084 PCPN 3.2MM PAST HR PK WND 1243 0257Z PRESFR 8065 11MM=
WPU NIL=
WRO SA 0300 AUTO8 M M M 850/00/M/2108/M/M 8009 -0MMM=
WWL NIL=
WWS NIL=
WZG SA 0300 AUTO8 M M M 079/-06/-14/2507/M/     PK WND 2517 0219Z SOG 17 8009 89MM=


404 
SACN58 CWAO 110300
ERU SA 0300 AUTO8 M M M 256/-03/-03/2001/M/     SOG 13 5009 55MM=
EWS NIL=
STH NIL=
WDH NIL=
WLT NIL=
WZB NIL=
XWT NIL=
ZHD NIL=
ZQA NIL=
ZXR NIL=


405 
SACN91 CWAO 110300
WGR SA 0300 AUTO8 M M M 237/-02/-06/2012+19/M/     PK WND 2320 0233Z 6006 72MM=
WGT SA 0300 AUTO8 M M M 011/06/04/1336+42/M/ PK WND 1342 0259Z 8040 71MM=
WGW SA 0300 AUTO8 M M M 150/-03/-09/1609+15/M/     PK WND 1719 0201Z SOG 05 5003 50MM=
WGY SA 0300 AUTO8 M M M 029/-07/-13/2117/M/     PK WND 2121 0206Z SOG 05 7021 83MM=
WHD NIL=
WHI SA 0300 AUTO8 M M M M/-05/-12/2513/M/     M 35MM=
WHL SA 0300 AUTO8 M M M 856/02/00/2614+22/M/0006 PCPN 0.2MM PAST HR PK WND 3022 0257Z 6008 04MM=
WHQ SA 0300 AUTO8 M M M M/-06/-07/2901/M/     M 91MM=
WHT SA 0300 AUTO8 M M M 760/-16/-18/1002/M/M SOG 17 3007 77MM=
WHV SA 0300 AUTO8 M M M 210/-05/-06/1601/M/     1006 13MM=
WID SA 0300 AUTO8 M M M 883/-17/-19/1103/M/ 6030 78MM=
WIG NIL=
WII SA 0300 AUTO8 M M M 065/-07/-12/2216/M/ PK WND 2220 0253Z 8013 56MM=
WIJ SA 0300 AUTO8 M M M 965/-17/-19/1210/M/     SOG 34 6013 97MM=
WIN NIL=
WIO NIL=
WIP NIL=
WIS SA 0300 AUTO8 M M M 193/-08/-08/20MM/M/     SOG 48 3005 94MM=
WIT SA 0300 AUTO8 M M M 193/-02/-04/0402/M/     0009 75MM=
WIW SA 0300 AUTO8 M M M 037/-08/-14/2511/M/     SOG 03 8009 16MM=
WIX NIL=
WIZ SA 0300 AUTO8 M M M M/-03/-04/0203/M/     M 80MM=
WJB SA 0300 AUTO8 M M M M/-05/M/2002/M/     SOG 17 M 4MMM=
WJC SA 0300 AUTO8 M M M 905/-12/-14/0115/M/     PK WND 0118 0212Z SOG 05 1001 16MM=
WJH SA 0300 AUTO8 M M M 990/-18/-20/2602/M/     SOG 43 6003 82MM=


406 
SACN78 CWAO 110300
OGE SA 0300 AUTO8 M M M 102/-09/-10/1901/M/     SOG 30 6019 98MM=
OKN SA 0300 AUTO8 M M M 132/02/00/1106/M/     8030 92MM=
OSL SA 0300 AUTO8 M M M 079/-12/-14/2002/M/     SOG 29 6013 72MM=
OTL SA 0300 AUTO8 M M M 037/-10/-12/2208/M/     SOG 21 8006 82MM=
OTR SA 0300 AUTO8 M M M 100/-03/-04/0000/M/     SOG 11 5025 39MM=
TAE NIL=
TAG SA 0300 AUTO8 M M M 098/-09/-10/1802/M/     SOG 09 6010 65MM=
TAL NIL=
TBF NIL=
TBO SA 0300 AUTO8 M M M 180/-02/-03/0603/M/     0000 81MM=
TBT SA 0300 AUTO8 M M M 139/01/01/0804/M/     SOG 15 8021 31MM=
TCK SA 0300 AUTO8 M M M 191/-03/-05/0805/M/ SOG 03 8001 32MM=
TCW NIL=
TGT SA 0300 AUTO8 M M M M/03/01/09MM/M/     M 56MM=
TKG SA 0300 AUTO8 M M M 188/03/01/0807/M/     8010 18MM=
TKR SA 0300 AUTO8 M M M 077/-09/-10/1905/M/     SOG 16 6009 81MM=
TLS SA 0300 AUTO8 M M M 115/-07/-07/1502/M/     SOG 39 6033 63MM=
TMS SA 0300 AUTO8 M M M 141/-08/-09/1202/M/     SOG 29 8019 11MM=
TNK SA 0300 AUTO8 M M M 156/00/00/1002/M/     SOG 13 8016 2-1MM=
TPM SA 0300 AUTO8 M M M 171/-03/-04/1303/M/     SOG 08 8013 84MM=
TPQ NIL=
TRA NIL=
TRY SA 0300 AUTO8 M M M 128/01/00/1104/M/     SOG 01 8033 0-1MM=
TSB SA 0300 AUTO8 M M M M/-02/-02/1107/M/     7023 13MM=
TTR SA 0300 AUTO8 M M M 111/03/01/1005/M/     SOG 08 6040 76MM=
TUX NIL=
TWL SA 0300 AUTO8 M M M 119/04/02/0905/M/     8036 03MM=
TWN NIL=
TXR NIL=
TZE SA 0300 AUTO8 M M M 111/01/00/0909/M/     SOG 06 6036 3-4MM=
TZN SA 0300 AUTO8 M M M 146/-02/-03/0805/M/     SOG 18 8015 07MM=
TZR SA 0300 AUTO8 M M M 062/06/05/1214/M/0003 PCPN 0.3MM PAST HR PK WND 1218 0223Z PRESFR 8053 18MM=
WAJ SA 0300 AUTO8 M M M M/M/M/0915/M/ PK WND 0822 0212Z 8050 MMMM=
WBE SA 0300 AUTO8 M M M 125/01/00/0911+16/M/ 6035 05MM=
WKK NIL=
WLS SA 0300 AUTO8 M M M 109/02/00/1108+15/M/     SOG 02 6038 81MM=
WNB NIL=
WNL NIL=
WPC SA 0300 AUTO8 M M M 124/06/03/0909/M/ 8034 41MM=
WPS NIL=
WWX NIL=
XBI SA 0300 AUTO8 M M M 145/02/01/1207/M/     SOG 22 8023 26MM=
XRG SA 0300 AUTO8 M M M 072/07/06/1011+19/M/0005 PCPN 0.3MM PAST HR PK WND 1219 0205Z PRESFR 8046 48MM=
XZC SA 0300 AUTO8 M M M 114/-07/-09/2003/M/     SOG 22 8008 17MM=
YLH NIL=
ZEL SA 0300 AUTO8 M M M 127/02/00/0909/M/     SOG 03 6035 9-1MM=


407 
SACN93 CWAO 110300
GCL NIL=
MJN SA 0300 AUTO8 M M M 209/-05/-08/1802/M/0003 SOG 05 6020 54MM=
WMU NIL=
WMX SA 0300 AUTO8 M M M M/-19/-22/09MM/M/     SOG 21 M 38MM=
WMY NIL=
WMZ NIL=
WNC SA 0300 AUTO8 M M M 139/05/02/0704/M/     8026 55MM=
WND NIL=
WNE SA 0300 AUTO8 M M M 220/-03/-06/1807/M/     7015 25MM=
WNH SA 0300 AUTO8 M M M 203/-06/-08/1904/M/     SOG 20 3005 09MM=
WNK SA 0300 AUTO8 M M M 078/-13/-15/2606/M/     8008 32MM=
WNM NIL=
WNP SA 0300 AUTO8 M M M 136/-02/-03/1503/M/0002 PCPN 0.2MM PAST HR SOG 04 8013 01MM=
WNQ SA 0300 AUTO8 M M M 211/-05/-06/0504/M/     0008 16MM=
WNR SA 0300 AUTO8 M M M M/-14/-18/2475+90/M/ PK WND 2490 0259Z M 78MM=
WNT NIL=
WNV NIL=
WNX NIL=
WNZ SA 0300 AUTO8 M M M 108/-05/-06/1604/M/     SOG 33 8021 03MM=
WOC SA 0300 AUTO8 M M M 212/-05/-07/2107/M/0008 7015 32MM=
WOD SA 0300 AUTO8 M M M 203/-10/-11/2204/M/     SOG 13 2016 63MM=
WOE SA 0300 AUTO8 M M M 081/-06/-11/27MM/M/     SOG 01 8012 28MM=
WOI NIL=
WOJ SA 0300 AUTO8 M M M 066/-08/-12/2314/M/     SOG 01 8006 39MM=
WOK SA 0300 AUTO8 M M M 037/-06/-10/2509/M/     PK WND 2517 0209Z SOG 02 8015 88MM=
WON SA 0300 AUTO8 M M M 779/-14/-16/2701/M/     SOG 32 1008 75MM=
WOQ NIL=
WOV SA 0300 AUTO8 M M M M/-02/-14/2004/M/     M 40MM=
WOW NIL=
WPA SA 0300 AUTO8 M M M 914/-02/-14/2206+21/M/0002 PK WND 2521 0254Z SOG 25 6032 06MM=
WPD SA 0300 AUTO8 M M M 198/-08/-08/21MM/M/     3008 75MM=
WPE SA 0300 AUTO8 M M M 218/07/04/2107/M/M 6012 68MM=
WPF SA 0300 AUTO8 M M M 072/07/03/1707/M/0008 PCPN 0.4MM PAST HR 6039 92MM=
WPG SA 0300 AUTO8 M M M 072/-09/-13/2309/M/     SOG 02 8010 87MM=
WPL SA 0300 AUTO8 M M M 066/-11/-12/2006/M/     SOG 11 8015 24MM=
WPR SA 0300 AUTO8 M M M 091/-04/-07/0303/M/     SOG 09 8031 07MM=
WPZ SA 0300 AUTO8 M M M 834/00/-01/1303/M/0003 PCPN 0.3MM PAST HR SOG 05 6029 29MM=
WQA NIL=


408 
SACN88 CWAO 110300
AAW SA 0300 AUTO8 M M M 256/03/00/1707/M/     SOG 10 8015 1-4MM=
ABB NIL=
ABF SA 0300 AUTO8 M M M 249/-06/-08/0102/M/M SOG 19 6012 54MM=
ABH NIL=
ABR SA 0300 AUTO8 M M M 254/-03/-04/3101/M/ 6013 09MM=
ABT NIL=
ACM SA 0300 AUTO8 M M M 238/-10/-12/2102/M/0009 PCPN 0.3MM PAST HR SOG 04 6013 06MM=
ACP SA 0300 AUTO8 M M M 242/06/03/1817/M/     PK WND 1823 0201Z 6009 53MM=
ACQ NIL=
ADL SA 0300 AUTO8 M M M 224/-04/-10/2811+18/M/     PK WND 2718 0259Z 6013 62MM=
ADN NIL=
ADS NIL=
AEI SA 0300 AUTO8 M M M 252/-01/-05/2110/M/     SOG 23 6015 98MM=
AFC SA 0300 AUTO8 M M M 229/-05/-06/3401/M/     SOG 02 M 42MM=
AFY SA 0300 AUTO8 M M M M/-02/-02/3302/M/0020 PCPN 1.5MM PAST HR SOG 07 M 94MM=
AGL NIL=
AHD SA 0300 AUTO8 M M M 252/03/-01/1402/M/ 7014 20MM=
AHK SA 0300 AUTO8 M M M 248/02/-01/2008/M/     8015 22MM=
AHR NIL=
AHT SA 0300 AUTO8 M M M 265/-03/-11/1803/M/     SOG 11 8009 36MM=
AHV NIL=
AHW SA 0300 AUTO8 M M M 252/01/-02/1401/M/M SOG 14 7014 01MM=
AJT SA 0300 AUTO8 M M M 245/-06/-09/0704/M/     SOG 08 6008 23MM=
AJW SA 0300 AUTO8 M M M 245/-06/-12/3006/M/     SOG 07 0004 55MM=
AKC SA 0300 AUTO8 M M M 234/-05/-07/2102/M/     SOG 01 5011 76MM=
AMR SA 0300 AUTO8 M M M 272/-12/-13/1903/M/     SOG 42 6011 64MM=
AMS SA 0300 AUTO8 M M M 238/-03/-03/1906/M/0006 PCPN 0.6MM PAST HR SOG 12 5004 34MM=
ANH SA 0300 AUTO8 M M M M/-02/-06/1906/M/     SOG 09 M 98MM=
AOH SA 0300 AUTO8 M M M 244/-05/-08/0503/M/     8019 32MM=
AOS SA 0300 AUTO8 M M M 246/04/-01/2019+24/M/     PK WND 2024 0253Z 8017 18MM=
APB SA 0300 AUTO8 M M M 254/-02/-06/2210/M/     6014 95MM=
APR SA 0300 AUTO8 M M M 239/-01/-02/1404/M/M SOG 08 M 43MM=
AQY SA 0300 AUTO8 M M M 265/-05/-08/2204/M/     SOG 08 6014 08MM=
ARP SA 0300 AUTO8 M M M 221/-08/M/2004/M/     SOG 03 8015 7MMM=
ASB NIL=
ASF SA 0300 AUTO8 M M M 225/-01/-02/3402/M/     SOG 03 6013 95MM=
AUU NIL=
AVA SA 0300 AUTO8 M M M 238/-06/-08/2817/M/     PK WND 2924 0204Z SOG 26 0002 65MM=
AWR SA 0300 AUTO8 M M M M/-02/-14/2009/M/M 6014 17MM=
EDA NIL=
EQI SA 0300 AUTO8 M M M 237/05/03/1808/M/     SOG 06 6009 39MM=
ERM SA 0300 AUTO8 M M M 214/-08/-10/1503/M/     SOG 21 0001 19MM=
ESB SA 0300 AUTO8 M M M 263/04/02/1904/M/     SOG 18 6011 31MM=
EWD SA 0300 AUTO8 M M M 226/-08/-09/0601/M/     SOG 02 8003 13MM=
OSM SA 0300 AUTO8 M M M 094/00/-02/0809/M/     SOG 14 8041 48MM=
WAR NIL=
WBK SA 0300 AUTO8 M M M 245/-02/-05/2009+16/M/     6018 06MM=
WBV SA 0300 AUTO8 M M M M/03/-02/2020/M/ PK WND 1924 0228Z M 48MM=
WDA SA 0300 AUTO8 M M M M/-07/M/3011/M/M M 4MMM=
WDO NIL=
WHO SA 0300 AUTO8 M M M 141/-13/-18/MM13+21/M/M PK WND MM23 0200Z 6005 25MM=
WNS SA 0300 AUTO8 M M M 253/-06/-08/3502/M/     SOG 19 8008 59MM=
WRN SA 0300 AUTO8 M M M 263/00/-04/1910/M/ 6016 29MM=
WSS SA 0300 AUTO8 M M M 228/-02/-03/2603/M/M 3001 06MM=
WXI SA 0300 AUTO8 M M M 205/-05/-13/2816+21/M/     PK WND 2823 0207Z 5007 59MM=
WZF NIL=
WZN SA 0300 AUTO8 M M M 250/-03/-10/3014/M/ PK WND 2819 0232Z 5005 35MM=
WZU SA 0300 AUTO8 M M M 252/04/00/1906/M/     8015 8-1MM=
XGD SA 0300 AUTO8 M M M 245/-10/-12/2507/M/     SOG 14 5003 76MM=
XKT SA 0300 AUTO8 M M M 237/00/-01/2004/M/     SOG 13 6013 32MM=
XNP SA 0300 AUTO8 M M M 232/-02/-04/1707/M/     SOG 07 6015 31MM=
ZCR SA 0300 AUTO8 M M M 209/-09/-11/2403/M/0002 PCPN 0.2MM PAST HR SOG 13 6013 08MM=
ZDB SA 0300 AUTO8 M M M 250/-04/-06/0401/M/0001 SOG 11 8017 05MM=
ZSP SA 0300 AUTO8 M M M 246/-04/-08/1708/M/     SOG 04 8011 86MM=


409 
SACN90 CWAO 110300
WEA SA 0300 AUTO8 M M M 067/-09/-11/2203/M/     SOG 09 8014 56MM=
WEB SA 0300 AUTO8 M M M 994/08/M/1929+34/M/0089 PCPN 2.8MM PAST HR PK WND 1934 0251Z PRESFR 8053 7MMM=
WEC SA 0300 AUTO8 M M M 095/-02/-04/3005/M/ 5015 77MM=
WEE NIL=
WEF NIL=
WEI SA 0300 AUTO8 M M M 098/-14/-16/1905/M/     8002 07MM=
WEL SA 0300 AUTO8 M M M 043/07/05/1428+33/M/0016 PCPN 1.0MM PAST HR PK WND 1433 0253Z 6049 61MM=
WEO NIL=
WEP SA 0300 AUTO8 M M M 243/-01/-07/2014+22/M/     PK WND 2022 0253Z SOG 32 8007 04MM=
WER SA 0300 AUTO8 M M M M/M/M/2504/M/ M MMMM=
WEW SA 0300 AUTO8 M M M 213/-05/-06/0302/M/     SOG 06 3001 61MM=
WEZ SA 0300 AUTO8 M M M 066/07/05/1832+38/M/0008 PK WND 1740 0232Z 6043 16MM=
WFE SA 0300 AUTO8 M M M 963/-03/-11/2303/M/     SOG 16 8021 89MM=
WFF SA 0300 AUTO8 M M M 010/-10/-14/2310/M/     SOG 16 8010 45MM=
WFJ SA 0300 AUTO8 M M M M/-01/-12/2613+25/M/     PK WND 2525 0250Z M 01MM=
WFO SA 0300 AUTO8 M M M 999/-09/-12/2506/M/     SOG 25 6005 51MM=
WFP SA 0300 AUTO8 M M M 120/-16/-20/MMMM/M/M 6009 44MM=
WFQ SA 0300 AUTO8 M M M 198/01/-03/1603/M/     SOG 02 3005 08MM=
WFW SA 0300 AUTO8 M M M 189/-08/-09/2805/M/0002 5001 57MM=
WFX SA 0300 AUTO8 M M M 865/-20/-23/0603/M/     SOG 39 8005 26MM=
WFZ SA 0300 AUTO8 M M M 982/-28/-30/1202/M/M SOG 24 8008 63MM=
WGB SA 0300 AUTO8 M M M 039/06/M/1219+26/M/0078 PCPN 3.2MM PAST HR PK WND 1228 0200Z 6042 9MMM=
WGD SA 0300 AUTO8 M M M 090/04/01/1115+20/M/     PK WND 0821 0243Z 8053 02MM=
WGF NIL=
WGH SA 0300 AUTO8 M M M 182/03/-01/0901/M/ 8001 61MM=
WGL SA 0300 AUTO8 M M M 123/01/00/1007/M/ 8022 3-2MM=
WGM SA 0300 AUTO8 M M M M/-03/-10/2231+52/M/M PK WND 2052 0257Z M 04MM=
WGN SA 0300 AUTO8 M M M 079/-10/-14/2203/M/     SOG 02 6009 76MM=


410 
SACN92 CWAO 110300
VKU SA 0300 AUTO8 M M M 111/00/-04/MMMM/M/     SOG 05 8024 -43MM=
WJI SA 0300 AUTO8 M M M 080/-11/-16/2313/M/     8012 55MM=
WJK NIL=
WJL SA 0300 AUTO8 M M M 836/-23/-26/0000/M/     SOG 54 8025 85MM=
WJM NIL=
WJN NIL=
WJO NIL=
WJR NIL=
WJT SA 0300 AUTO8 M M M 200/-03/-04/0201/M/     1005 58MM=
WJU NIL=
WJV SA 0300 AUTO8 M M M 110/-02/-04/2001/M/     8020 02MM=
WJW SA 0300 AUTO8 M M M 033/-03/-10/0904/M/     SOG 14 6024 43MM=
WJX SA 0300 AUTO8 M M M 046/-09/-13/2212/M/     8018 83MM=
WKA SA 0300 AUTO8 M M M M/M/M/1134+42/M/ PK WND 1245 0243Z M MMMM=
WKB SA 0300 AUTO8 M M M 228/-08/-11/1703/M/ 5009 78MM=
WKD NIL=
WKF SA 0300 AUTO8 M M M 992/05/-02/MMMM/M/0002 6056 53MM=
WKG SA 0300 AUTO8 M M M 243/-01/-01/1903/M/     SOG 22 5006 70MM=
WKH SA 0300 AUTO8 M M M 058/02/02/MMMM/M/0040 PCPN 2.4MM PAST HR 8038 32MM=
WKX SA 0300 AUTO8 M M M 818/-10/-10/3401/M/     SOG 27 3003 15MM=
WLC SA 0300 AUTO8 M M M M/01/00/2004/M/ PK WND 1476 0203Z M 7-1MM=
WLE SA 0300 AUTO8 M M M 045/-08/-13/2417/M/     PK WND 2420 0249Z SOG 01 8016 89MM=
WLF SA 0300 AUTO8 M M M 073/-11/-12/2104/M/     SOG 19 6008 12MM=
WLG NIL=
WLJ SA 0300 AUTO8 M M M 982/-05/-09/2312/M/     SOG 29 6016 04MM=
WLK NIL=
WLM SA 0300 AUTO8 M M M 072/06/03/1409/M/0002 6039 34MM=
WLQ NIL=
WLU NIL=
WLV SA 0300 AUTO8 M M M 993/-12/-14/2305/M/     SOG 31 7013 80MM=
WME NIL=
WMF NIL=
WMI SA 0300 AUTO8 M M M 212/-05/-07/2208/M/M 8018 29MM=
WMJ SA 0300 AUTO8 M M M 186/-03/-04/0403/M/     SOG 12 8007 53MM=
WMM SA 0300 AUTO8 M M M 083/05/03/1503/M/0010 PCPN 0.1MM PAST HR PRESFR M 91MM=
WMQ SA 0300 AUTO8 M M M 070/-04/-10/2410/M/     8016 14MM=


563 
SANV20 NVVV 110306
METAR NVSC 110300Z 00000KT 9999 SCT020 32/27 Q1006=
METAR NVSG 110300Z NIL=
METAR NVSS 110306Z NIL=
METAR NVSL 110306Z NIL=
METAR NVVV 110306Z NIL=
METAR NVVW 110306Z NIL=
METAR NVVA 110300Z 09006KT 9999 SCT020 BKN300 31/24
Q1008=


688 
SAAK41 KNKA 110307
SPECI PACD 110305Z AUTO 32035G41KT 3SM -SN FEW029 OVC036 M04/M08 
    A2981 RMK AO2 PK WND 33042/0254 P0000 T10391078 TSNO=
METAR PAFB 110258Z 24009KT 2 1/2SM BR SCT005 OVC034 M13/M15 A2902 RMK
      AO2A SLP839 WND DATA ESTMD ALSTG/SLP ESTMD P0000 60000
      T11341152 52023 $=
SPECI PATQ 110306Z AUTO 07003KT 3SM -SN BR OVC028 M19/M21 A2938 RMK 
    AO2 P0000 FZRANO TSNO=


691 
SACN98 CWAO 110300
XAF SA 0300 AUTO8 M M M M/-05/-11/2106/M/     M 59MM=
XAG SA 0300 AUTO8 M M M M/-04/-10/2308/M/     M 78MM=
XAJ SA 0300 AUTO8 M M M M/-06/-11/1701/M/     SOG 25 M 37MM=
XBA SA 0300 AUTO8 M M M M/-10/-15/1605/M/     M 49MM=
XBR SA 0300 AUTO8 M M M M/-02/-11/2423/M/     PK WND 2437 0240Z M 07MM=
XBW SA 0300 AUTO8 M M M M/-02/-08/2524/M/     PK WND 2530 0257Z M 85MM=
XCD SA 0300 AUTO8 M M M M/-13/-14/0302/M/     M 03MM=
XCP SA 0300 AUTO8 M M M M/-08/-13/2008/M/     M 61MM=
XCS SA 0300 AUTO8 M M M M/-10/-15/2316/M/     PK WND 2218 0253Z M 11MM=
XDK NIL=
XDP NIL=
XFR SA 0300 AUTO8 M M M M/-02/-06/1908/M/     M 80MM=
XHR SA 0300 AUTO8 M M M M/-08/-14/2313/M/     M 34MM=
XKI SA 0300 AUTO8 M M M 151/-12/-13/MMMM/M/     SOG 28 8019 79MM=
XKM SA 0300 AUTO8 M M M M/-07/-12/2409/M/M M 30MM=
XLB SA 0300 AUTO8 M M M 236/04/01/2009/M/ 8010 32MM=
XOY SA 0300 AUTO8 M M M M/-10/-12/2310/M/     M 74MM=
XPA SA 0300 AUTO8 M M M M/-02/-07/1304/M/     M 86MM=
XPC SA 0300 AUTO8 M M M 126/01/00/MMMM/M/     8026 73MM=
XRB SA 0300 AUTO8 M M M 068/-23/-25/1002/M/     SOG 02 7003 62MM=
XRL SA 0300 AUTO8 M M M M/-04/-11/2305/M/     M 27MM=
XSE NIL=
XTD SA 0300 AUTO8 M M M M/-02/-07/1809/M/     M 48MM=
XTO SA 0300 AUTO8 M M M 130/05/02/MMMM/M/     8028 98MM=
XVN SA 0300 AUTO8 M M M 117/05/02/0903/M/     8039 75MM=
XWB NIL=
XWM SA 0300 AUTO8 M M M M/-06/-11/2410/M/     PK WND 2621 0200Z M 60MM=
XYH NIL=
XZV SA 0300 AUTO8 M M M 185/-08/-10/3104/M/0016 SOG 26 5013 37MM=
ZKD SA 0300 AUTO8 M M M 953/-11/-13/2907/M/0002 PCPN 0.2MM PAST HR SOG 33 1002 98MM=
ZLW NIL=
ZMJ SA 0300 AUTO8 M M M 073/-09/-14/2417+22/M/     PK WND 2325 0232Z 8008 61MM=
ZPR NIL=
ZQZ NIL=
ZRP NIL=
ZTB SA 0300 AUTO8 M M M 108/-07/-08/2803/M/     SOG 09 5012 80MM=
ZZJ SA 0300 AUTO8 M M M 968/-01/-13/2505/M/     SOG 22 6025 53MM=
ZZP NIL=


701 
SAET20 HAAB 110300
NIL

717 
SAHW31 KMSC 110307
METAR PKWA 110300Z AUTO 07009KT 10SM CLR 29/23 A2976 RMK AO2 T02910225=
SPECI PGSN 110305Z 05011G17KT 10SM BKN022 30/25 A2982 RMK AO2 
    T03000250 $=


719 
SASV01 FDMS 110300
NIL

836 
SAHW40 PHFO 110307 COR
MTRBKH
SPECI PHBK 110305Z AUTO 03004KT 4SM -RA OVC036 24/21 A3004 RMK AO2 
P0000 T02390206


897 
SAAG05 SABM 110300
METAR SAAR 110300Z 04001KT CAVOK 19/17 Q1009 RMK PP000=
METAR SABE 110300Z 10006KT CAVOK 22/17 Q1009 NOSIG RMK PP000=
METAR SACO 110300Z VRB02KT 9999 OVC032 18/17 Q1010 NOSIG RMK PP000=
METAR SADF 110300Z 07006KT CAVOK 21/18 Q1009 RMK PP000=
METAR SAEZ 110300Z 10004KT CAVOK 20/17 Q1009 NOSIG RMK PP000=
METAR SAME 110300Z  36005KT 9999  FEW040  22/17
Q1009=
METAR SANT 110300Z  27005KT 5000 TS BR SCT045
FEW050CB BKN060  21/20 Q1010=
METAR SAOC 110300Z NIL=
METAR SARC 110300Z  14005KT CAVOK 24/16 Q1006=
METAR SARE 110300Z  14009KT CAVOK 25/15 Q1007 RMK PP///=
METAR SARF 110300Z  16007KT CAVOK 26/19 Q1006=
METAR SARI 110300Z  00000KT CAVOK 23/16 Q1007=
METAR SARL 110300Z  25002KT CAVOK 21/19 Q1007=
METAR SARP 110300Z  14008KT CAVOK 27/18 Q1007=
METAR SASA 110300Z  00000KT 9000 -RA SCT012 OVC040
19/18 Q1013=
METAR SASJ 110300Z  32006KT 9999  FEW050 OVC120
21/19 Q1012=
METAR SAVC 110300Z 17009KT 8000 SCT006 BKN008 14/12 Q1003 RMK PP000=
METAR SAWE 110300Z 11011KT 9999 BKN006 09/08 Q1009=
METAR SAWG 110300Z  VRB04KT CAVOK 11/07 Q1008=
METAR SAWH 110300Z  09013KT 9999  FEW015 BKN025
08/06 Q1010=
METAR SAZM 110300Z NIL=
METAR SAZN 110300Z  05008KT CAVOK 26/14 Q1004=
METAR SAZS 110300Z  30016KT CAVOK 17/07 Q1008 RMK PP///=


417 
SPCN42 CWAO 110307
SPECI CYDB 110307Z AUTO 30007KT 9SM -SN BKN120 M18/M21 A2865 RMK SLP772=


418 
SPCN42 CWAO 110307
SPECI CYZP 110307Z AUTO 23015KT 170V240 9SM -RA SCT066 SCT084 BKN100 BKN120 02/00 A2912 RMK SLP864=


920 
SAAF34 KWBC 110300 RRA
METAR
FALA 110300Z AUTO 10008KT //// // ////// 19/13 Q1021=


921 
SACN59 KWBC 110308
METAR CPBT 110300Z AUTO 27022KT M02/M10 RMK AO1 PK WND 27037/0202
T10191104=
METAR CPEH 110300Z AUTO 00000KT M04/M10 RMK AO1 T10351101=
METAR CPFI 110300Z AUTO 27015KT M02/M09 RMK AO1 PK WND 28024/0206
T10191088=
METAR CPIR 110300Z AUTO 25023KT M02/M08 RMK AO1 PK WND 26031/0254
T10241083=
METAR CPRO 110300Z AUTO 23011KT M07/M12 RMK AO1 T10671116=
METAR CPRY 110300Z AUTO 26020KT M02/M10 RMK AO1 PK WND 26029/0223
T10241101=
METAR CPST 110300Z AUTO 22009KT M08/M13 RMK AO1 T10791134=
METAR CPSV 110300Z AUTO 21013KT M05/M09 RMK AO1 T10451090=
METAR CPXL 110300Z AUTO 00000KT M03/M09 RMK AO1 T10271093=
METAR CXAK 110300Z AUTO 21008KT M07/M12 RMK AO1 T10721124=
METAR CXDB 110300Z AUTO 25021KT M04/M11 RMK AO1 PK WND 25026/0246
T10431108=
METAR CXFM 110300Z AUTO 29004KT M08/M12 RMK AO1 T10841121=
METAR CXHD 110300Z AUTO 22009KT M07/M12 RMK AO1 T10681120=
METAR CXHP 110300Z AUTO 22010KT 01/M09 RMK AO1 PK WND 23020/0245
T00111092=
METAR CXMG 110300Z AUTO 14011KT M07/M10 RMK AO1 T10651095=
METAR CXMO 110300Z AUTO 19007KT M11/M14 RMK AO1 T11101137=
METAR CXOL 110300Z AUTO 22014KT M05/M14 RMK AO1 PK WND 22018/0256
T10471137=
METAR CXPL 110300Z AUTO 22009KT M14/M15 RMK AO1 T11431149=
METAR CXSC 110300Z AUTO 23014KT M07/M10 RMK AO1 T10671098=
METAR CXSL 110300Z AUTO 22004KT M04/M10 RMK AO1 T10361104=
METAR CXSP 110300Z AUTO 21010KT M05/M10 RMK AO1 T10461100=
METAR CXTH 110300Z AUTO 22010KT M05/M10 RMK AO1 PK WND 22017/0202
T10491099=
METAR CXVM 110300Z AUTO 23007KT M06/M12 RMK AO1 T10581118=
METAR CXVW 110300Z AUTO 15010KT M02/M09 RMK AO1 SLP915 T10191086
56022=
CZMU RMK NIL=
METAR CZOL 110300Z AUTO 22004KT M03/M11 RMK AO1 T10311113=
CZPS RMK NIL=
METAR CXAK 110300Z AUTO 21008KT M07/M12 RMK AO1 T10721124=
METAR CXDB 110300Z AUTO 25021KT M04/M11 RMK AO1 PK WND 25026/0246
T10431108=
METAR CXFM 110300Z AUTO 29004KT M08/M12 RMK AO1 T10841121=
METAR CXHD 110300Z AUTO 22009KT M07/M12 RMK AO1 T10681120=
METAR CXHP 110300Z AUTO 22010KT 01/M09 RMK AO1 PK WND 23020/0245
T00111092=
METAR CXMG 110300Z AUTO 14011KT M07/M10 RMK AO1 T10651095=
METAR CXMO 110300Z AUTO 19007KT M11/M14 RMK AO1 T11101137=
METAR CXOL 110300Z AUTO 22014KT M05/M14 RMK AO1 PK WND 22018/0256
T10471137=
METAR CXPL 110300Z AUTO 22009KT M14/M15 RMK AO1 T11431149=
METAR CXSC 110300Z AUTO 23014KT M07/M10 RMK AO1 T10671098=
METAR CXSL 110300Z AUTO 22004KT M04/M10 RMK AO1 T10361104=
METAR CXSP 110300Z AUTO 21010KT M05/M10 RMK AO1 T10461100=
METAR CXTH 110300Z AUTO 22010KT M05/M10 RMK AO1 PK WND 22017/0202
T10491099=
METAR CXVM 110300Z AUTO 23007KT M06/M12 RMK AO1 T10581118=
METAR CXVW 110300Z AUTO 15010KT M02/M09 RMK AO1 SLP915 T10191086
56022=
CZMU RMK NIL=
METAR CZOL 110300Z AUTO 22004KT M03/M11 RMK AO1 T10311113=
CZPS RMK NIL=
METAR CXAK 110300Z AUTO 21008KT M07/M12 RMK AO1 T10721124=
METAR CXDB 110300Z AUTO 25021KT M04/M11 RMK AO1 PK WND 25026/0246
T10431108=
METAR CXFM 110300Z AUTO 29004KT M08/M12 RMK AO1 T10841121=
METAR CXHD 110300Z AUTO 22009KT M07/M12 RMK AO1 T10681120=
METAR CXHP 110300Z AUTO 22010KT 01/M09 RMK AO1 PK WND 23020/0245
T00111092=
METAR CXMG 110300Z AUTO 14011KT M07/M10 RMK AO1 T10651095=
METAR CXMO 110300Z AUTO 19007KT M11/M14 RMK AO1 T11101137=
METAR CXOL 110300Z AUTO 22014KT M05/M14 RMK AO1 PK WND 22018/0256
T10471137=
METAR CXPL 110300Z AUTO 22009KT M14/M15 RMK AO1 T11431149=
METAR CXSC 110300Z AUTO 23014KT M07/M10 RMK AO1 T10671098=
METAR CXSL 110300Z AUTO 22004KT M04/M10 RMK AO1 T10361104=
METAR CXSP 110300Z AUTO 21010KT M05/M10 RMK AO1 T10461100=
METAR CXTH 110300Z AUTO 22010KT M05/M10 RMK AO1 PK WND 22017/0202
T10491099=


923 
SPXX60 KWBC 110308 CCA
SPECI
PHBK 110305Z AUTO 03004KT 4SM -RA OVC036 24/21 A3004 RMK AO2 P0000
     T02390206=


003 
SPUS70 KWBC 110308
SPECI
KEAU 110304Z AUTO 03007KT 1/2SM SN FZFG VV006 M02/M03 A2957 RMK
     AO2 P0000 T10171028=
KECG 110304Z AUTO 14006KT 10SM BKN029 BKN035 OVC085 13/11 A3011
     RMK AO2 T01330111=
KENW 110304Z AUTO 01003KT 1 1/2SM +RA BR FEW003 OVC007 08/07 A2937
     RMK AO2 P0005 T00780067=
KFSM 110304Z 21014G23KT 10SM BKN065 21/13 A2958 RMK AO2 LTG DSNT
     NE-SE T02060133=
KGRI 110304Z AUTO 34025G33KT 6SM -SN FEW014 OVC031 M02/M04 A2975
     RMK AO2 PK WND 34033/0304 P0000 T10171044=
KMKT 110305Z AUTO 01018KT 1SM -SN OVC005 A2959 RMK AO2 P0000
     FZRANO $=
KMVY 110304Z AUTO 00000KT 3/4SM R24/1200V1800FT BR VV003 01/01
     A3015 RMK AO2 T00060006=
KSLN 110304Z 29019G25KT 10SM FEW023 SCT029 01/M03 A2975 RMK AO2
     PRESRR T00061033=
KTQE 110304Z AUTO 33023G33KT 3/4SM HZ M01/M03 A2962 RMK AO2 PK WND
     34033/0257 T10061033 PWINO FZRANO $=
PAGS 110305Z AUTO 12010KT 1SM -SN BR BKN005 BKN012 OVC085 M01/M02
     A2887 RMK AO2 CIG 003V009 P0000 FZRANO RVRNO=
PAMK 110305Z AUTO 33016KT 10SM SCT013 BKN041 M19/M22 A2966 RMK AO2
     FZRANO=
PATO 110304Z AUTO 27007G16KT 2SM -SN BR OVC031 M04/M07 A2877 RMK
     AO2 P0000 T10441067 TSNO=
PFYU 110305Z 04008KT 1 1/2SM -SN BR BKN014 BKN021 OVC028 M14/M16
     A2902 RMK AO2 P0000=
KASE 110305Z AUTO 00000KT 6SM -SN BR BKN012 M13/M15 A3002 RMK AO2
     P0000 T11331150=
KCGI 110306Z AUTO 21025G38KT 2 1/2SM +TSRA BR FEW019 BKN050 OVC100
     22/19 A2958 RMK AO2 PK WND 21038/0303 VIS 1 1/2V4 LTG DSNT
     ALQDS TSB00 PRESRR P0010 T02170194=
KDEC 110305Z 19017G25KT 2 1/2SM TSRA BR BKN008 OVC014 18/18 A2942
     RMK AO2 LTG DSNT ALQDS TSB0259 P0008 T01780178=
KHRO 110305Z AUTO 24009G15KT 170V280 10SM VCTS FEW019 SCT055 18/14
     A2954 RMK AO2 LTG DSNT NE RAE0257 TSE0259 P0000 T01780144=
KLHQ 110305Z AUTO 16007KT 10SM OVC007 13/12 A2978 RMK AO2
     T01280122=
KMNM 110306Z AUTO 07020G24KT 2SM -SN BR OVC004 01/01 A2957 RMK AO2
     P0000 FZRANO $=
KMSP 110305Z 01015KT 1SM R30L/P6000FT -SN BR VV009 M02/M03 A2963
     RMK AO2 P0000 T10171033=
KPNS 110305Z 17011KT 8SM OVC004 23/23 A3003 RMK AO2 T02330228=
KUZA 110305Z AUTO 20005KT 1 3/4SM BR OVC002 11/11 A3011 RMK AO2
     T01110106=
PATQ 110306Z AUTO 07003KT 3SM -SN BR OVC028 M19/M21 A2938 RMK AO2
     P0000 FZRANO TSNO=
PATQ 110306Z AUTO 07003KT 3SM -SN BR OVC028 M19/M21 A2938 RMK AO2
     P0000 FZRANO TSNO=


004 
SPUS80 KWBC 110308
SPECI
KJAN 110305Z 18011KT 10SM SCT022 BKN029 OVC047 23/19 A2988 RMK AO2
     T02280194=
PACD 110305Z AUTO 32035G41KT 3SM -SN FEW029 OVC036 M04/M08 A2981
     RMK AO2 PK WND 33042/0254 P0000 T10391078 TSNO=


005 
SACN87 KWBC 110308
METAR CWCT 110300Z AUTO 23011KT M12/M16 RMK AO1 SLP025 T11181155
56021=
METAR CWLB 110300Z AUTO 23006KT M04/M11 RMK AO1 SOG 08 8020 SLP956
T10381110=
METAR CWCT 110300Z AUTO 23011KT M12/M16 RMK AO1 SLP025 T11181155
56021=
METAR CWLB 110300Z AUTO 23006KT M04/M11 RMK AO1 SOG 08 8020 SLP956
T10381110=
METAR CWCT 110300Z AUTO 23011KT M12/M16 RMK AO1 SLP025 T11181155
56021=
METAR CWLB 110300Z AUTO 23006KT M04/M11 RMK AO1 SOG 08 8020 SLP956
T10381110=
METAR CWDC 110300Z AUTO 07005KT M26/M29 RMK AO1 SOG 30 6009 SLP994
T12611289=
METAR CWEH 110300Z AUTO 25013KT M11/M14 RMK AO1 SLP077 T11131143
58016=
METAR CWKO 110300Z AUTO 24016KT M10/M14 RMK AO1 PK WND 25019/0250
SLP098 T10961135 58011=
METAR CWOY 110300Z AUTO 23012KT M08/M14 RMK AO1 SOG 09 8009 PK WND
23019/0205 SLP036 T10751136=
METAR CWCT 110300Z AUTO 23011KT M12/M16 RMK AO1 SLP025 T11181155
56021=
METAR CWLB 110300Z AUTO 23006KT M04/M11 RMK AO1 SOG 08 8020 SLP956
T10381110=
METAR CWCT 110300Z AUTO 23011KT M12/M16 RMK AO1 SLP025 T11181155
56021=
METAR CWLB 110300Z AUTO 23006KT M04/M11 RMK AO1 SOG 08 8020 SLP956
T10381110=
METAR CWCT 110300Z AUTO 23011KT M12/M16 RMK AO1 SLP025 T11181155
56021=
METAR CWLB 110300Z AUTO 23006KT M04/M11 RMK AO1 SOG 08 8020 SLP956
T10381110=
CWEK RMK NIL=
METAR CWEQ 110300Z AUTO 23010KT M06/M12 RMK AO1 SOG 12 8013 SLP021
T10631120=
METAR CWJD 110300Z AUTO 23004KT M08/M11 RMK AO1 SOG 27 8009 SLP003
T10751111=
METAR CWLP 110300Z AUTO 12038G43KT 05/04 RMK AO1 2PAST HR PRESFR
8065 PK WND 12043/0257 SLP905 P0012 T00510041 50084=
CWPU RMK NIL=
METAR CWRO 110300Z AUTO 21008KT 00/ RMK AO1 SLP850 T0000 58009=
CWWL RMK NIL=
CWWS RMK NIL=
METAR CWZG 110300Z AUTO 25007KT M06/M14 RMK AO1 SOG 17 8009 PK WND
25017/0219 SLP079 T10581139=
METAR CWCT 110300Z AUTO 23011KT M12/M16 RMK AO1 SLP025 T11181155
56021=
METAR CWLB 110300Z AUTO 23006KT M04/M11 RMK AO1 SOG 08 8020 SLP956
T10381110=
METAR CWLP 110300Z AUTO 12038G43KT 05/04 RMK AO1 2PAST HR PRESFR
8065 PK WND 12043/0257 SLP905 P0012 T00510041 50084=
CWPU RMK NIL=
METAR CWRO 110300Z AUTO 21008KT 00/ RMK AO1 SLP850 T0000 58009=
CWWL RMK NIL=
CWWS RMK NIL=
METAR CWZG 110300Z AUTO 25007KT M06/M14 RMK AO1 SOG 17 8009 PK WND
25017/0219 SLP079 T10581139=
METAR CWCT 110300Z AUTO 23011KT M12/M16 RMK AO1 SLP025 T11181155
56021=
METAR CWLB 110300Z AUTO 23006KT M04/M11 RMK AO1 SOG 08 8020 SLP956
T10381110=
CWME RMK NIL=
CWQS RMK NIL=
METAR CWRM 110300Z AUTO 25009G15KT M00/M13 RMK AO1 SOG 11 8018
SLP974 T10011129=
CWRU RMK NIL=
METAR CWVT 110300Z AUTO 18002KT M17/M18 RMK AO1 SOG 15 8016 SLP982
T11651183=
CWZW RMK NIL=
METAR CWVT 110300Z AUTO 18002KT M17/M18 RMK AO1 SOG 15 8016 SLP982
T11651183=
CWZW RMK NIL=
CWZW RMK NIL=
CWZW RMK NIL=
CWZW RMK NIL=


007 
SACN86 KWBC 110308
CTAE RMK NIL=
CTAL RMK NIL=
METAR CTCK 110300Z AUTO 08005KT M03/M05 RMK AO1 SOG 03 8001 SLP191
T10331052=
CTCW RMK NIL=
CTWN RMK NIL=
METAR CWAJ 110300Z AUTO 09015KT RMK AO1 PK WND 08022/0212 58050=
METAR CWBE 110300Z AUTO 09011G16KT 01/01 RMK AO1 SLP125 T00100005
56035=
METAR CWLS 110300Z AUTO 11008G15KT 02/M00 RMK AO1 SOG 02 6038
SLP109 T00181001=
CWNB RMK NIL=
CWNL RMK NIL=
METAR CWPC 110300Z AUTO 09009KT 06/03 RMK AO1 SLP124 T00640031
58034=
CWPS RMK NIL=
CWWX RMK NIL=
METAR CTCK 110300Z AUTO 08005KT M03/M05 RMK AO1 SOG 03 8001 SLP191
T10331052=
CTCW RMK NIL=
CTWN RMK NIL=
METAR CWAJ 110300Z AUTO 09015KT RMK AO1 PK WND 08022/0212 58050=
METAR CWBE 110300Z AUTO 09011G16KT 01/01 RMK AO1 SLP125 T00100005
56035=
METAR CWLS 110300Z AUTO 11008G15KT 02/M00 RMK AO1 SOG 02 6038
SLP109 T00181001=
CWNB RMK NIL=
CWNL RMK NIL=
METAR CWPC 110300Z AUTO 09009KT 06/03 RMK AO1 SLP124 T00640031
58034=
CWPS RMK NIL=
CWWX RMK NIL=
METAR CWAJ 110300Z AUTO 09015KT RMK AO1 PK WND 08022/0212 58050=
METAR CWBE 110300Z AUTO 09011G16KT 01/01 RMK AO1 SLP125 T00100005
56035=
METAR CWLS 110300Z AUTO 11008G15KT 02/M00 RMK AO1 SOG 02 6038
SLP109 T00181001=
CWNB RMK NIL=
CWNL RMK NIL=
METAR CWPC 110300Z AUTO 09009KT 06/03 RMK AO1 SLP124 T00640031
58034=
CWPS RMK NIL=
CWWX RMK NIL=
CWHP RMK NIL=
METAR CWAJ 110300Z AUTO 09015KT RMK AO1 PK WND 08022/0212 58050=
METAR CWBE 110300Z AUTO 09011G16KT 01/01 RMK AO1 SLP125 T00100005
56035=
METAR CWLS 110300Z AUTO 11008G15KT 02/M00 RMK AO1 SOG 02 6038
SLP109 T00181001=
CWNB RMK NIL=
CWNL RMK NIL=
METAR CWPC 110300Z AUTO 09009KT 06/03 RMK AO1 SLP124 T00640031
58034=
CWPS RMK NIL=
CWWX RMK NIL=
CWHP RMK NIL=
METAR CWAJ 110300Z AUTO 09015KT RMK AO1 PK WND 08022/0212 58050=
METAR CWBE 110300Z AUTO 09011G16KT 01/01 RMK AO1 SLP125 T00100005
56035=
METAR CWLS 110300Z AUTO 11008G15KT 02/M00 RMK AO1 SOG 02 6038
SLP109 T00181001=
CWNB RMK NIL=
CWNL RMK NIL=
METAR CWPC 110300Z AUTO 09009KT 06/03 RMK AO1 SLP124 T00640031
58034=
CWPS RMK NIL=
CWWX RMK NIL=
CWHP RMK NIL=
METAR CWAJ 110300Z AUTO 09015KT RMK AO1 PK WND 08022/0212 58050=
METAR CWBE 110300Z AUTO 09011G16KT 01/01 RMK AO1 SLP125 T00100005
56035=
METAR CWLS 110300Z AUTO 11008G15KT 02/M00 RMK AO1 SOG 02 6038
SLP109 T00181001=
CWNB RMK NIL=
CWNL RMK NIL=
METAR CWPC 110300Z AUTO 09009KT 06/03 RMK AO1 SLP124 T00640031
58034=
CWPS RMK NIL=
CWWX RMK NIL=
CWBE RMK NIL=
CWNL RMK NIL=
METAR CWPO 110300Z AUTO 23006KT M15/M18 RMK AO1 SOG 05 8007 SLP097
T11541176=
CWPS RMK NIL=
CWSI RMK NIL=
CWWX RMK NIL=
CWWZ RMK NIL=
CWHP RMK NIL=
METAR CWAJ 110300Z AUTO 09015KT RMK AO1 PK WND 08022/0212 58050=
METAR CWBE 110300Z AUTO 09011G16KT 01/01 RMK AO1 SLP125 T00100005
56035=
METAR CWLS 110300Z AUTO 11008G15KT 02/M00 RMK AO1 SOG 02 6038
SLP109 T00181001=
CWNB RMK NIL=
CWNL RMK NIL=
METAR CWPC 110300Z AUTO 09009KT 06/03 RMK AO1 SLP124 T00640031
58034=
CWPS RMK NIL=
CWWX RMK NIL=
METAR CWDQ 110300Z AUTO 10001KT M06/M08 RMK AO1 SOG 15 3013 SLP218
T10631077=
METAR CWDV 110300Z AUTO 18001KT M09/M10 RMK AO1 SOG 25 5014 SLP095
T10941103=
METAR CWNC 110300Z AUTO 07004KT 05/02 RMK AO1 SLP139 T00450015
58026=
METAR CWNZ 110300Z AUTO 16004KT M05/M06 RMK AO1 SOG 33 8021 SLP108
T10501063=
METAR CWWB 110300Z AUTO 04009KT 05/03 RMK AO1 SLP124 T00520033
58037=
METAR CWWB 110300Z AUTO 04009KT 05/03 RMK AO1 SLP124 T00520033
58037=


008 
SACN85 KWBC 110308 RRA
METAR CWBV 110300Z AUTO 20020KT 03/M02 RMK AO1 PK WND 19024/0228
T00341018=
CWDO RMK NIL=
METAR CWHO 110300Z AUTO M13/M18 RMK AO1 23 0200Z 6005 SLP141
T11321175=
METAR CWRN 110300Z AUTO 19010KT M00/M04 RMK AO1 SLP263 T10021039
56016=
METAR CWSS 110300Z AUTO 26003KT M02/M03 RMK AO1 SLP228 T10201026
53001=


009 
SACN92 KWBC 110308
METAR CWJI 110300Z AUTO 23013KT M11/M16 RMK AO1 SLP080 T11051155
58012=
CWJM RMK NIL=
CWJO RMK NIL=
CWJR RMK NIL=
METAR CWJT 110300Z AUTO 02001KT M03/M04 RMK AO1 SLP200 T10251038
51005=
CWJU RMK NIL=
METAR CWJV 110300Z AUTO 20001KT M02/M04 RMK AO1 SLP110 T10201042
58020=
METAR CWJW 110300Z AUTO 09004KT M03/M10 RMK AO1 SOG 14 6024 SLP033
T10341103=
METAR CWJX 110300Z AUTO 22012KT M09/M13 RMK AO1 SLP046 T10881133
58018=
CWKD RMK NIL=
METAR CWKG 110300Z AUTO 19003KT M01/M01 RMK AO1 SOG 22 5006 SLP243
T10071010=
METAR CWKH 110300Z AUTO 02/02 RMK AO1 4PAST HR 8038 SLP058 P0009
T00230022 50040=
METAR CWKX 110300Z AUTO 34001KT M10/M10 RMK AO1 SOG 27 3003 SLP818
T11011095=
METAR CWLC 110300Z AUTO 20004KT 01/M00 RMK AO1 PK WND 14076/0203
T00071001=
METAR CWLE 110300Z AUTO 24017KT M08/M13 RMK AO1 SOG 01 8016 PK WND
24020/0249 SLP045 T10781129=
METAR CWLM 110300Z AUTO 14009KT 06/03 RMK AO1 6039 SLP072
T00630034 50002=
CWLU RMK NIL=
METAR CWMJ 110300Z AUTO 04003KT M03/M04 RMK AO1 SOG 12 8007 SLP186
T10251043=
METAR CWMM 110300Z AUTO 15003KT 05/03 RMK AO1 1PAST HR PRESFR M
SLP083 P0000 T00490031 50010=
METAR CWMQ 110300Z AUTO 24010KT M04/M10 RMK AO1 SLP070 T10411104
58016=


010 
SPPQ50 KWBC 110308
SPECI
PGSN 110305Z 05011G17KT 10SM BKN022 30/25 A2982 RMK AO2 T03000250
     $=


011 
SPXX60 KWBC 110308
SPECI
PHBK 110305Z AUTO 03004KT 4SM -RA OVC036 24/21 A3004 RMK AO2 P0000
     T02390206=


013 
SAUS70 KWBC 110308
METAR
K2C8 110315Z AUTO 10SM CLR M08/M11 A2970 RMK AO2=
K2J9 110315Z AUTO 17004KT 7SM OVC003 20/20 A3011 RMK AO2=
KGPH 110315Z AUTO 30014G24KT 10SM BKN018 05/01 A2947 RMK AO2=
KLDJ 110315Z AUTO 00000KT 10SM SCT055 SCT070 BKN090 07/01 A3012
     RMK AO2 T00690005=
KW13 110315Z AUTO 00000KT 10SM BKN060 BKN090 07/07 A3003 RMK AO1
     T00720065=
KLQK 110315Z AUTO 00000KT 1 1/2SM BR OVC004 10/10 A3009 RMK AO2
     T01000100=
KSPA 110315Z AUTO 00000KT 3/4SM BR OVC002 10/09 A3010 RMK AO2=
KW75 110315Z AUTO 20005KT 1 3/4SM OVC003 11/M04 A3009 RMK AO1
     T01081036=


014 
SACN91 KWBC 110308
METAR CWGR 110300Z AUTO 20012G19KT M02/M06 RMK AO1 PK WND
23020/0233 SLP237 T10171062 56006=
METAR CWGT 110300Z AUTO 13036G42KT 06/04 RMK AO1 PK WND 13042/0259
SLP011 T00570041 58040=
METAR CWGW 110300Z AUTO 16009G15KT M03/M09 RMK AO1 SOG 05 5003 PK
WND 17019/0201 SLP150 T10251090=
METAR CWGY 110300Z AUTO 21017KT M07/M13 RMK AO1 SOG 05 7021 PK WND
21021/0206 SLP029 T10681133=
CWHD RMK NIL=
METAR CWHI 110300Z AUTO 25013KT M05/M12 RMK AO1 T10531115=
METAR CWHL 110300Z AUTO 26014G22KT 02/M00 RMK AO1 2PAST HR 6008 PK
WND 30022/0257 SLP856 P0001 T00201004 50006=
METAR CWHQ 110300Z AUTO 29001KT M06/M07 RMK AO1 T10591071=
METAR CWHT 110300Z AUTO 10002KT M16/M18 RMK AO1 SOG 17 3007 SLP760
T11571177=
METAR CWHV 110300Z AUTO 16001KT M05/M06 RMK AO1 SLP210 T10511063
51006=
METAR CWID 110300Z AUTO 11003KT M17/M19 RMK AO1 SLP883 T11671188
56030=
CWIG RMK NIL=
METAR CWII 110300Z AUTO 22016KT M07/M12 RMK AO1 PK WND 22020/0253
SLP065 T10651116 58013=
METAR CWIJ 110300Z AUTO 12010KT M17/M19 RMK AO1 SOG 34 6013 SLP965
T11691187=
CWIN RMK NIL=
CWIO RMK NIL=
CWIP RMK NIL=
METAR CWIS 110300Z AUTO 00020KT M08/M08 RMK AO1 SOG 48 3005 SLP193
T10791084=
METAR CWIT 110300Z AUTO 04002KT M02/M04 RMK AO1 SLP193 T10171035
50009=
METAR CWIW 110300Z AUTO 25011KT M08/M14 RMK AO1 SOG 03 8009 SLP037
T10811136=
CWIX RMK NIL=
METAR CWIZ 110300Z AUTO 02003KT M03/M04 RMK AO1 T10281040=
METAR CWJB 110300Z AUTO 20002KT M05/ RMK AO1 SOG 17 T1054=
METAR CWJC 110300Z AUTO 01015KT M12/M14 RMK AO1 SOG 05 1001 PK WND
01018/0212 SLP905 T11211136=
METAR CWJH 110300Z AUTO 26002KT M18/M20 RMK AO1 SOG 43 6003 SLP990
T11781202=


015 
SAUS80 KWBC 110300 RRE
METAR
KINW 110256Z AUTO 36004KT 10SM CLR M01/M10 A3018 RMK AO2 SLP230
     T10061100 51028=
KLZZ 110255Z AUTO 28007KT 10SM CLR 21/17 A2978 RMK AO2
     T02130171=
KMHS 110256Z AUTO 00000KT 8SM CLR M01/M06 A3016 RMK AO2 SLP254
     T10111061 56002=
KSDB 110253Z AUTO 06016KT 10SM CLR 04/M04 A3017 RMK AO2 SLP209
     T00441039 53010=
KSXT 110256Z AUTO 16013KT 10SM BKN110 01/M03 A3010 RMK AO2 SLP220
     T00061033 58010=


016 
SACN82 KWBC 110308
CMBR RMK NIL=
CMCT RMK NIL=
CMCW RMK NIL=
METAR CMFM 110300Z AUTO 00021KT M07/M08 RMK AO1 SOG 37 3006 SLP196
T10661076=
METAR CMGB 110300Z AUTO 00000KT 01/M02 RMK AO1 SOG 01 1006 SLP201
T00101018=
CMHB RMK NIL=
CMHN RMK NIL=
CMHW RMK NIL=
CMLA RMK NIL=
CMLI RMK NIL=
CMPD RMK NIL=
CMPL RMK NIL=
CMRI RMK NIL=
CMRU RMK NIL=
CMRY RMK NIL=
CMSB RMK NIL=
CMSC RMK NIL=
CMSX RMK NIL=
CMWD RMK NIL=
CMYT RMK NIL=
CMBR RMK NIL=
CMCT RMK NIL=
CMCW RMK NIL=
METAR CMFM 110300Z AUTO 00021KT M07/M08 RMK AO1 SOG 37 3006 SLP196
T10661076=
METAR CMGB 110300Z AUTO 00000KT 01/M02 RMK AO1 SOG 01 1006 SLP201
T00101018=
CMHB RMK NIL=
CMHN RMK NIL=
CMHW RMK NIL=
CMLA RMK NIL=
CMLI RMK NIL=
CMPD RMK NIL=
CMPL RMK NIL=
CMRI RMK NIL=
CMRU RMK NIL=
CMRY RMK NIL=
CMSB RMK NIL=
CMSC RMK NIL=
CMSX RMK NIL=
CMWD RMK NIL=
CMYT RMK NIL=
METAR CMFM 110300Z AUTO 00021KT M07/M08 RMK AO1 SOG 37 3006 SLP196
T10661076=
METAR CMGB 110300Z AUTO 00000KT 01/M02 RMK AO1 SOG 01 1006 SLP201
T00101018=
CMHB RMK NIL=
CMHN RMK NIL=
CMHW RMK NIL=
CMLA RMK NIL=
CMLI RMK NIL=
CMPD RMK NIL=
CMPL RMK NIL=
CMRI RMK NIL=
CMRU RMK NIL=
CMRY RMK NIL=
CMSB RMK NIL=
CMSC RMK NIL=
CMSX RMK NIL=
CMWD RMK NIL=
CMYT RMK NIL=
METAR CMFM 110300Z AUTO 00021KT M07/M08 RMK AO1 SOG 37 3006 SLP196
T10661076=
METAR CMGB 110300Z AUTO 00000KT 01/M02 RMK AO1 SOG 01 1006 SLP201
T00101018=
CMHB RMK NIL=
CMHN RMK NIL=
CMHW RMK NIL=
CMLA RMK NIL=
CMLI RMK NIL=
CMPD RMK NIL=
CMPL RMK NIL=
CMRI RMK NIL=
CMRU RMK NIL=
CMRY RMK NIL=
CMSB RMK NIL=
CMSC RMK NIL=
CMSX RMK NIL=
CMWD RMK NIL=
CMYT RMK NIL=


017 
SPAK31 KWBC 110308
SPECI
PFYU 110305Z 04008KT 1 1/2SM -SN BR BKN014 BKN021 OVC028 M14/M16
A2902=


018 
SAXX60 KWBC 110300 RRK
METAR
KHLR 110258Z AUTO 23006KT 6SM HZ CLR 23/18 A2977 RMK AO2 SLP071
     T02290180 52022=
K1J0 110258Z AUTO 17008KT 10SM BKN010 BKN014 OVC023 22/21 A3007
     RMK AO2 SLP141 T02220206 53005=
KCVS 110256Z AUTO 32021G27KT 10SM CLR 07/M08 A2994 RMK AO2 PK WND
     29036/32 PRESRR SLP120 T00661085 52048=
KDMA 110256Z 25004KT 10SM SCT180 11/05 A3010 RMK AO2 SLP181
     T01090050 52015 $=
KMTC 110256Z 13012KT 5SM -RA OVC018 08/05 A2969 RMK AO2A SLP068
     ALSTG/SLP ESTMD P0006 60006 57052 $=
KVOK 110256Z 04006KT 7SM -SN OVC007 M00/M02 A2944 RMK AO2A SLP983
     60020 57054=
PHNG 110257Z 08012G18KT 10SM FEW025 25/19 A3003 RMK AO2 SLP164
     T02500189 53003 $=
TTPP 110300Z 00000KT 9999 FEW016 25/23 Q1010 NOSIG=
KDMA 110256Z 25004KT 10SM SCT180 11/05 A3010 RMK AO2 SLP181
     T01090050 52015 $=
KNUW 110256Z 15024G35KT 10SM SCT020 BKN025 OVC040 08/04 A2980 RMK
     AO2 PK WND 15040/0205 SLP092 T00830044 56048 PNO=
KNXP 110256Z AUTO 28004KT 10SM CLR 07/M11 A3026 RMK AO2 SLP237
     T00671111 51013=
KNZY 110252Z 31003KT 10SM FEW035 12/09 A3013 RMK AO2 SLP202
     T01220089 50006=
PAFB 110258Z 24009KT 2 1/2SM BR SCT005 OVC034 M13/M15 A2902 RMK
     AO2A SLP839 WND DATA ESTMD ALSTG/SLP ESTMD P0000 60000
     T11341152 52023 $=
PKWA 110300Z AUTO 07009KT 10SM CLR 29/23 A2976 RMK AO2
     T02910225=


019 
SAUS70 KWBC 110300 RRX
METAR
KBBG 110255Z AUTO 21010G15KT 10SM FEW048 BKN055 OVC120 19/12 A2953
     RMK AO2 LTG DSNT NE AND E=
KISO 110256Z 00000KT 10SM SCT060 OVC075 12/11 A3014=
KUXL 110255Z AUTO 5SM OVC007 24/23 A2988 RMK AO2 T02370226
     PWINO=
K2V6 110254Z AUTO 30014KT 10SM CLR M05/M08 A2989 RMK AO2=
K5SM 110255Z AUTO OVC002 A2995 RMK AO2 PWINO=
K6P9 110255Z AUTO 28004KT 10SM SCT120 21/04 A2980 RMK AO2
     T02050037=
K7BM 110255Z AUTO 26016G30KT 220V290 10SM SCT028 SCT036 OVC060
     M13/M21 A2984 RMK AO2=
KAFO 110250Z AUTO 16003KT OVC031 M10/M12 A3008 RMK AO2 PWINO=
KBMT 110250Z AUTO 17008KT 7SM OVC010 25/23 A2985 RMK AO2
     T02470234=
KCFD 110255Z AUTO 17010KT 10SM OVC014 24/23 A2979 RMK AO2
     T02370225=
KCPW 110251Z AUTO 24006KT M21/M22 A2993 RMK AO2 PWINO=
KCVB 110254Z AUTO 31006KT 5SM HZ CLR 20/17 A2980 RMK AO2=
KCZT 110250Z AUTO 00000KT 10SM CLR 21/13 A2977 RMK AO2=


020 
SACN93 KWBC 110308
CWMZ RMK NIL=
METAR CWNE 110300Z AUTO 18007KT M03/M06 RMK AO1 SLP220 T10321055
57015=
METAR CWNK 110300Z AUTO 26006KT M13/M15 RMK AO1 SLP078 T11331152
58008=
CWNM RMK NIL=
METAR CWNP 110300Z AUTO 15003KT M02/M03 RMK AO1 2PAST HR SOG 04
8013 SLP136 P0001 T10201031 50002=
METAR CWNQ 110300Z AUTO 05004KT M05/M06 RMK AO1 SLP211 T10511056
50008=
CWNX RMK NIL=
METAR CWOC 110300Z AUTO 21007KT M05/M07 RMK AO1 7015 SLP212
T10531072 50008=
METAR CWOD 110300Z AUTO 22004KT M10/M11 RMK AO1 SOG 13 2016 SLP203
T10961113=
METAR CWOE 110300Z AUTO 00027KT M06/M11 RMK AO1 SOG 01 8012 SLP081
T10621108=
CWOQ RMK NIL=
METAR CWPD 110300Z AUTO 00021KT M08/M08 RMK AO1 SLP198 T10771075
53008=
METAR CWPE 110300Z AUTO 21007KT 07/04 RMK AO1 SLP218 T00660038
56012=
METAR CWPF 110300Z AUTO 17007KT 07/03 RMK AO1 4PAST HR 6039 SLP072
P0002 T00690032 50008=
METAR CWPR 110300Z AUTO 03003KT M04/M07 RMK AO1 SOG 09 8031 SLP091
T10401067=
METAR CWPZ 110300Z AUTO 13003KT M00/M01 RMK AO1 3PAST HR SOG 05
6029 SLP834 P0001 T10021009 50003=
CWQA RMK NIL=


021 
SAPQ50 KWBC 110300 RRB
METAR
PTPN 110258Z 09010KT 15SM BKN018TCU OVC300 31/25 A2973 RMK TCU
     SE-S AND W LAST=
PTPN 110258Z 09010KT 15SM BKN018TCU OVC300 31/25 A2973 RMK TCU
     SE-S AND W LAST=


022 
SACN94 KWBC 110308
METAR CWQH 110300Z AUTO 05003KT M02/M03 RMK AO1 SOG 01 3003 SLP215
T10171032=
METAR CWQK 110300Z AUTO 23002KT 06/03 RMK AO1 SLP072 T00610026
56037=
METAR CWQO 110300Z AUTO 23018KT M03/M06 RMK AO1 PK WND 24025/0209
T10331055=
METAR CWQP 110300Z AUTO 13016KT 07/04 RMK AO1 PRESFR PK WND
13018/0256 SLP148 T00660036 58021=
METAR CWQR 110300Z AUTO 21017KT M04/M07 RMK AO1 PK WND 21021/0258
T10351071=
METAR CWQV 110300Z AUTO 29004KT M07/M10 RMK AO1 T10671096=
METAR CWRJ 110300Z AUTO 26003KT M10/M14 RMK AO1 SLP034 T11031144
58014=
METAR CWRK 110300Z AUTO 18002KT 01/M00 RMK AO1 SOG 10 8017 SLP156
T00061001=
METAR CWRT 110300Z AUTO 29012G23KT M04/M11 RMK AO1 PK WND
29026/0239 SLP099 T10381114 55014=
METAR CWRY 110300Z AUTO 25011G16KT M04/M11 RMK AO1 SOG 07 8016 PK
WND 27017/0200 SLP077 T10371108=
METAR CWRZ 110300Z AUTO 22020KT M03/M06 RMK AO1 PK WND 22027/0219
SLP205 T10251056 57015=
METAR CWSD 110300Z AUTO 19014KT M02/M05 RMK AO1 SOG 01 5014 PK WND
20019/0234 SLP233 T10171047=
METAR CWSG 110300Z AUTO 20006KT M06/M09 RMK AO1 SLP195 T10601091
55004=
METAR CWSK 110300Z AUTO 26001KT 01/01 RMK AO1 1PAST HR 8051 SLP063
P0008 T00090006 50067=
METAR CWSL 110300Z AUTO 16003KT M02/M03 RMK AO1 SOG 02 8025 SLP103
T10211033=
METAR CWSP 110300Z AUTO 32002KT 06/05 RMK AO1 0PAST HR 6037 SLP072
P0020 T00630053 50064=
METAR CWSR 110300Z AUTO 24012KT M07/M14 RMK AO1 SOG 18 7015 PK WND
24017/0223 SLP989 T10651138=
CWST RMK NIL=
CWND RMK NIL=
METAR CWSL 110300Z AUTO 16003KT M02/M03 RMK AO1 SOG 02 8025 SLP103
T10211033=
METAR CWSP 110300Z AUTO 32002KT 06/05 RMK AO1 0PAST HR 6037 SLP072
P0020 T00630053 50064=
METAR CWSR 110300Z AUTO 24012KT M07/M14 RMK AO1 SOG 18 7015 PK WND
24017/0223 SLP989 T10651138=
CWST RMK NIL=


023 
SACN97 KWBC 110308
METAR CXBK 110300Z AUTO 22010KT M15/M18 RMK AO1 SOG 02 6009 SLP077
T11481179=
METAR CXKT 110300Z AUTO 20004KT M00/M01 RMK AO1 SOG 13 6013 SLP237
T10031012=
METAR CXKT 110300Z AUTO 20004KT M00/M01 RMK AO1 SOG 13 6013 SLP237
T10031012=
METAR CXKT 110300Z AUTO 20004KT M00/M01 RMK AO1 SOG 13 6013 SLP237
T10031012=
METAR CXKT 110300Z AUTO 20004KT M00/M01 RMK AO1 SOG 13 6013 SLP237
T10031012=
METAR CXKT 110300Z AUTO 20004KT M00/M01 RMK AO1 SOG 13 6013 SLP237
T10031012=
METAR CXKT 110300Z AUTO 20004KT M00/M01 RMK AO1 SOG 13 6013 SLP237
T10031012=
METAR CXKT 110300Z AUTO 20004KT M00/M01 RMK AO1 SOG 13 6013 SLP237
T10031012=
METAR CXKT 110300Z AUTO 20004KT M00/M01 RMK AO1 SOG 13 6013 SLP237
T10031012=
METAR CXAT 110300Z AUTO M23/M27 RMK AO1 SOG 02 6007 SLP090
T12271266=
CXBK RMK NIL=
METAR CXBO 110300Z AUTO 25002KT M05/M07 RMK AO1 2PAST HR M P0001
T10501068 50002=
METAR CXCA 110300Z AUTO 27001KT M06/M07 RMK AO1 SOG 15 5019 SLP101
T10631070=
CXCH RMK NIL=
METAR CXCK 110300Z AUTO 00000KT M20/M22 RMK AO1 SOG 28 1001 SLP763
T11991224=
METAR CXDE 110300Z AUTO M18/M21 RMK AO1 SOG 23 8012 SLP852
T11841207=
METAR CXDI 110300Z AUTO 12002KT 04/02 RMK AO1 SLP108 T00420022
58036=
METAR CXDW 110300Z AUTO 24006KT M10/M13 RMK AO1 SOG 02 8005 SLP081
T11011134=
METAR CXEA 110300Z AUTO 00000KT M11/M12 RMK AO1 SOG 29 8012 SLP053
T11101122=
METAR CXEC 110300Z AUTO 22005KT M03/M12 RMK AO1 SLP967 T10321117
58021=
METAR CXEG 110300Z AUTO 19009KT M07/M12 RMK AO1 SOG 08 8020 SLP976
T10661122=
METAR CXET 110300Z AUTO 12006KT 01/M00 RMK AO1 SLP136 T00051003
58030=
METAR CXGH 110300Z AUTO 23009KT M11/M14 RMK AO1 SLP055 T11071137
58010=
METAR CXHA 110300Z AUTO 14008KT 08/07 RMK AO1 1PAST HR 6051 SLP053
P0012 T00770066 50038=
METAR CXHF 110300Z AUTO M03/M04 RMK AO1 T10321041=
METAR CXIB 110300Z AUTO 23004KT M04/M08 RMK AO1 SOG 29 6020 SLP246
T10421083=
CXLC RMK NIL=
CXLL RMK NIL=
METAR CXMD 110300Z AUTO 27007KT M09/M13 RMK AO1 SOG 05 6007 PK WND
25018/0226 SLP081 T10861131=
METAR CXMI 110300Z AUTO 20010KT 04/M00 RMK AO1 SLP240 T00371002
58015=
METAR CXMM 110300Z AUTO 10004KT M15/M17 RMK AO1 SOG 32 6025 SLP941
T11541171=
METAR CXMY 110300Z AUTO M05/M06 RMK AO1 T10461057=
METAR CXNM 110300Z AUTO 22010G16KT M07/M11 RMK AO1 9PAST HR SOG 31
M P0004 T10711114 50009=
METAR CXOX 110300Z AUTO 21002KT M11/M13 RMK AO1 SOG 25 8011 SLP980
T11141129=
CXQT RMK NIL=
METAR CXRH 110300Z AUTO 19002KT M06/M10 RMK AO1 SOG 05 6011 SLP232
T10561099=
METAR CXSH 110300Z AUTO 03002KT M06/M08 RMK AO1 SLP213 T10641078
52008=
CXSR RMK NIL=
CXTN RMK NIL=
METAR CXTP 110300Z AUTO 25005KT M11/M12 RMK AO1 SLP240 T11141124
51001=
CXTV RMK NIL=
METAR CXWN 110300Z AUTO 24002KT M07/M12 RMK AO1 SLP071 T10741115
58011=
METAR CXKT 110300Z AUTO 20004KT M00/M01 RMK AO1 SOG 13 6013 SLP237
T10031012=
CXSR RMK NIL=
CXTN RMK NIL=
METAR CXTP 110300Z AUTO 25005KT M11/M12 RMK AO1 SLP240 T11141124
51001=
CXTV RMK NIL=
METAR CXWN 110300Z AUTO 24002KT M07/M12 RMK AO1 SLP071 T10741115
58011=
METAR CXKT 110300Z AUTO 20004KT M00/M01 RMK AO1 SOG 13 6013 SLP237
T10031012=


024 
SACN90 KWBC 110308
METAR CWEB 110300Z AUTO 19029G34KT 08/ RMK AO1 8PAST HR PRESFR
8053 PK WND 19034/0251 SLP994 P0011 T0077 50089=
CWEE RMK NIL=
METAR CWEL 110300Z AUTO 14028G33KT 07/05 RMK AO1 0PAST HR 6049 PK
WND 14033/0253 SLP043 P0004 T00660051 50016=
METAR CWEW 110300Z AUTO 03002KT M05/M06 RMK AO1 SOG 06 3001 SLP213
T10461061=
METAR CWEZ 110300Z AUTO 18032G38KT 07/05 RMK AO1 6043 PK WND
17040/0232 SLP066 T00710046 50008=
METAR CWFF 110300Z AUTO 23010KT M10/M14 RMK AO1 SOG 16 8010 SLP010
T11041135=
METAR CWFJ 110300Z AUTO 26013G25KT M01/M12 RMK AO1 PK WND
25025/0250 T10101121=
METAR CWFQ 110300Z AUTO 16003KT 01/M03 RMK AO1 SOG 02 3005 SLP198
T00101028=
METAR CWGB 110300Z AUTO 12019G26KT 06/ RMK AO1 2PAST HR 6042 PK
WND 12028/0200 SLP039 P0012 T0059 50078=
METAR CWGD 110300Z AUTO 11015G20KT 04/01 RMK AO1 PK WND 08021/0243
SLP090 T00400012 58053=
METAR CWGH 110300Z AUTO 09001KT 03/M01 RMK AO1 SLP182 T00261011
58001=
METAR CWGL 110300Z AUTO 10007KT 01/M00 RMK AO1 SLP123 T00131002
58022=
METAR CWGM 110300Z AUTO 22031G52KT M03/M10 RMK AO1 PK WND
20052/0257 T10301104=
METAR CWGD 110300Z AUTO 11015G20KT 04/01 RMK AO1 PK WND 08021/0243
SLP090 T00400012 58053=
METAR CWGH 110300Z AUTO 09001KT 03/M01 RMK AO1 SLP182 T00261011
58001=
METAR CWGL 110300Z AUTO 10007KT 01/M00 RMK AO1 SLP123 T00131002
58022=
METAR CWGM 110300Z AUTO 22031G52KT M03/M10 RMK AO1 PK WND
20052/0257 T10301104=


025 
SACN88 KWBC 110308 RRA
METAR CWZN 110300Z AUTO 30014KT M03/M10 RMK AO1 PK WND 28019/0232
SLP250 T10331095 55005=
METAR CXNP 110300Z AUTO 17007KT M02/M04 RMK AO1 SOG 07 6015 SLP232
T10231041=
METAR CZCR 110300Z AUTO 24003KT M09/M11 RMK AO1 2PAST HR SOG 13
6013 SLP209 P0001 T10901108 50002=
METAR CZDB 110300Z AUTO 04001KT M04/M06 RMK AO1 SOG 11 8017 SLP250
T10401055 50001=
METAR CZSP 110300Z AUTO 17008KT M04/M08 RMK AO1 SOG 04 8011 SLP246
T10381076=
METAR CWDA 110300Z AUTO 30011KT M07/ RMK AO1 T1074=
METAR CWXI 110300Z AUTO 28016G21KT M05/M13 RMK AO1 PK WND
28023/0207 SLP205 T10451129 55007=
METAR CWZN 110300Z AUTO 30014KT M03/M10 RMK AO1 PK WND 28019/0232
SLP250 T10331095 55005=
METAR CXNP 110300Z AUTO 17007KT M02/M04 RMK AO1 SOG 07 6015 SLP232
T10231041=
METAR CZCR 110300Z AUTO 24003KT M09/M11 RMK AO1 2PAST HR SOG 13
6013 SLP209 P0001 T10901108 50002=
METAR CZDB 110300Z AUTO 04001KT M04/M06 RMK AO1 SOG 11 8017 SLP250
T10401055 50001=
METAR CZSP 110300Z AUTO 17008KT M04/M08 RMK AO1 SOG 04 8011 SLP246
T10381076=
METAR CWDA 110300Z AUTO 30011KT M07/ RMK AO1 T1074=
METAR CWXI 110300Z AUTO 28016G21KT M05/M13 RMK AO1 PK WND
28023/0207 SLP205 T10451129 55007=
METAR CWZN 110300Z AUTO 30014KT M03/M10 RMK AO1 PK WND 28019/0232
SLP250 T10331095 55005=
METAR CXNP 110300Z AUTO 17007KT M02/M04 RMK AO1 SOG 07 6015 SLP232
T10231041=
METAR CZCR 110300Z AUTO 24003KT M09/M11 RMK AO1 2PAST HR SOG 13
6013 SLP209 P0001 T10901108 50002=
METAR CZDB 110300Z AUTO 04001KT M04/M06 RMK AO1 SOG 11 8017 SLP250
T10401055 50001=
METAR CZSP 110300Z AUTO 17008KT M04/M08 RMK AO1 SOG 04 8011 SLP246
T10381076=
METAR CWDA 110300Z AUTO 30011KT M07/ RMK AO1 T1074=
METAR CWXI 110300Z AUTO 28016G21KT M05/M13 RMK AO1 PK WND
28023/0207 SLP205 T10451129 55007=
METAR CWZN 110300Z AUTO 30014KT M03/M10 RMK AO1 PK WND 28019/0232
SLP250 T10331095 55005=
METAR CXNP 110300Z AUTO 17007KT M02/M04 RMK AO1 SOG 07 6015 SLP232
T10231041=
METAR CZCR 110300Z AUTO 24003KT M09/M11 RMK AO1 2PAST HR SOG 13
6013 SLP209 P0001 T10901108 50002=
METAR CZDB 110300Z AUTO 04001KT M04/M06 RMK AO1 SOG 11 8017 SLP250
T10401055 50001=
METAR CZSP 110300Z AUTO 17008KT M04/M08 RMK AO1 SOG 04 8011 SLP246
T10381076=
METAR CWDA 110300Z AUTO 30011KT M07/ RMK AO1 T1074=
METAR CWXI 110300Z AUTO 28016G21KT M05/M13 RMK AO1 PK WND
28023/0207 SLP205 T10451129 55007=
METAR CWZN 110300Z AUTO 30014KT M03/M10 RMK AO1 PK WND 28019/0232
SLP250 T10331095 55005=
METAR CXNP 110300Z AUTO 17007KT M02/M04 RMK AO1 SOG 07 6015 SLP232
T10231041=
METAR CZCR 110300Z AUTO 24003KT M09/M11 RMK AO1 2PAST HR SOG 13
6013 SLP209 P0001 T10901108 50002=
METAR CZDB 110300Z AUTO 04001KT M04/M06 RMK AO1 SOG 11 8017 SLP250
T10401055 50001=
METAR CZSP 110300Z AUTO 17008KT M04/M08 RMK AO1 SOG 04 8011 SLP246
T10381076=


026 
SACN89 KWBC 110308
METAR CWAF 110300Z AUTO M03/M05 RMK AO1 T10291049=
METAR CWAQ 110300Z AUTO 24006KT M11/M14 RMK AO1 SOG 02 8009 SLP097
T11111144=
CWAV RMK NIL=
METAR CWBA 110300Z AUTO 16004KT M01/M02 RMK AO1 SOG 21 T10121023=
CWBG RMK NIL=
METAR CWBO 110300Z AUTO 24006KT M06/M11 RMK AO1 SLP046 T10561109
58017=
METAR CWBS 110300Z AUTO 03006KT M05/M06 RMK AO1 T10471059=
METAR CWBT 110300Z AUTO 19007KT M05/M07 RMK AO1 4PAST HR 6020
SLP190 P0002 T10471072 50005=
METAR CWBZ 110300Z AUTO 05005KT M03/M04 RMK AO1 SLP193 T10261043
51004=
METAR CWCF 110300Z AUTO 19008KT M08/M12 RMK AO1 SOG 12 6016 SLP023
T10831120=
CWCG RMK NIL=
CWCI RMK NIL=
METAR CWCJ 110300Z AUTO 14003KT M01/M03 RMK AO1 SOG 17 5026 SLP105
T10121032=
METAR CWCO 110300Z AUTO 15004KT 03/01 RMK AO1 SLP128 T00290009
56031=
CWCQ RMK NIL=
CWDD RMK NIL=
CWDF RMK NIL=
METAR CWDJ 110300Z AUTO 25011KT M11/M16 RMK AO1 SLP070 T11111161
58012=
METAR CWDK 110300Z AUTO 24013KT M03/M12 RMK AO1 PK WND 26037/0210
SLP062 T10301120 55012=
CWDT RMK NIL=
METAR CWDZ 110300Z AUTO 17002KT M09/M14 RMK AO1 SLP044 T10881137
56015=
METAR CWDZ 110300Z AUTO 17002KT M09/M14 RMK AO1 SLP044 T10881137
56015=


027 
SACN88 KWBC 110308
CWBK RMK NIL=
CAHR RMK NIL=
METAR CERM 110300Z AUTO 15003KT M08/M10 RMK AO1 SOG 21 0001 SLP214
T10811099=
CWAR RMK NIL=
METAR CWBK 110300Z AUTO 20009G16KT M02/M05 RMK AO1 SLP245
T10201046 56018=
METAR CWDA 110300Z AUTO 30011KT M07/ RMK AO1 T1074=
METAR CWXI 110300Z AUTO 28016G21KT M05/M13 RMK AO1 PK WND
28023/0207 SLP205 T10451129 55007=
METAR CWZN 110300Z AUTO 30014KT M03/M10 RMK AO1 PK WND 28019/0232
SLP250 T10331095 55005=
METAR CXNP 110300Z AUTO 17007KT M02/M04 RMK AO1 SOG 07 6015 SLP232
T10231041=
METAR CZCR 110300Z AUTO 24003KT M09/M11 RMK AO1 2PAST HR SOG 13
6013 SLP209 P0001 T10901108 50002=
METAR CZDB 110300Z AUTO 04001KT M04/M06 RMK AO1 SOG 11 8017 SLP250
T10401055 50001=
METAR CZSP 110300Z AUTO 17008KT M04/M08 RMK AO1 SOG 04 8011 SLP246
T10381076=
METAR CERM 110300Z AUTO 15003KT M08/M10 RMK AO1 SOG 21 0001 SLP214
T10811099=
CWAR RMK NIL=
METAR CWBK 110300Z AUTO 20009G16KT M02/M05 RMK AO1 SLP245
T10201046 56018=
METAR CWDA 110300Z AUTO 30011KT M07/ RMK AO1 T1074=
METAR CWXI 110300Z AUTO 28016G21KT M05/M13 RMK AO1 PK WND
28023/0207 SLP205 T10451129 55007=
METAR CWZN 110300Z AUTO 30014KT M03/M10 RMK AO1 PK WND 28019/0232
SLP250 T10331095 55005=
METAR CXNP 110300Z AUTO 17007KT M02/M04 RMK AO1 SOG 07 6015 SLP232
T10231041=
METAR CZCR 110300Z AUTO 24003KT M09/M11 RMK AO1 2PAST HR SOG 13
6013 SLP209 P0001 T10901108 50002=
METAR CZDB 110300Z AUTO 04001KT M04/M06 RMK AO1 SOG 11 8017 SLP250
T10401055 50001=
METAR CZSP 110300Z AUTO 17008KT M04/M08 RMK AO1 SOG 04 8011 SLP246
T10381076=
METAR CERM 110300Z AUTO 15003KT M08/M10 RMK AO1 SOG 21 0001 SLP214
T10811099=
CWAR RMK NIL=
METAR CWBK 110300Z AUTO 20009G16KT M02/M05 RMK AO1 SLP245
T10201046 56018=
METAR CWDA 110300Z AUTO 30011KT M07/ RMK AO1 T1074=
METAR CWXI 110300Z AUTO 28016G21KT M05/M13 RMK AO1 PK WND
28023/0207 SLP205 T10451129 55007=
METAR CWZN 110300Z AUTO 30014KT M03/M10 RMK AO1 PK WND 28019/0232
SLP250 T10331095 55005=
METAR CXNP 110300Z AUTO 17007KT M02/M04 RMK AO1 SOG 07 6015 SLP232
T10231041=
METAR CZCR 110300Z AUTO 24003KT M09/M11 RMK AO1 2PAST HR SOG 13
6013 SLP209 P0001 T10901108 50002=
METAR CZDB 110300Z AUTO 04001KT M04/M06 RMK AO1 SOG 11 8017 SLP250
T10401055 50001=
METAR CZSP 110300Z AUTO 17008KT M04/M08 RMK AO1 SOG 04 8011 SLP246
T10381076=
METAR CWDA 110300Z AUTO 30011KT M07/ RMK AO1 T1074=
METAR CWXI 110300Z AUTO 28016G21KT M05/M13 RMK AO1 PK WND
28023/0207 SLP205 T10451129 55007=
METAR CWZN 110300Z AUTO 30014KT M03/M10 RMK AO1 PK WND 28019/0232
SLP250 T10331095 55005=
METAR CXNP 110300Z AUTO 17007KT M02/M04 RMK AO1 SOG 07 6015 SLP232
T10231041=
METAR CZCR 110300Z AUTO 24003KT M09/M11 RMK AO1 2PAST HR SOG 13
6013 SLP209 P0001 T10901108 50002=
METAR CZDB 110300Z AUTO 04001KT M04/M06 RMK AO1 SOG 11 8017 SLP250
T10401055 50001=
METAR CZSP 110300Z AUTO 17008KT M04/M08 RMK AO1 SOG 04 8011 SLP246
T10381076=
METAR CWDA 110300Z AUTO 30011KT M07/ RMK AO1 T1074=
METAR CWXI 110300Z AUTO 28016G21KT M05/M13 RMK AO1 PK WND
28023/0207 SLP205 T10451129 55007=
METAR CWZN 110300Z AUTO 30014KT M03/M10 RMK AO1 PK WND 28019/0232
SLP250 T10331095 55005=
METAR CXNP 110300Z AUTO 17007KT M02/M04 RMK AO1 SOG 07 6015 SLP232
T10231041=
METAR CZCR 110300Z AUTO 24003KT M09/M11 RMK AO1 2PAST HR SOG 13
6013 SLP209 P0001 T10901108 50002=
METAR CZDB 110300Z AUTO 04001KT M04/M06 RMK AO1 SOG 11 8017 SLP250
T10401055 50001=
METAR CZSP 110300Z AUTO 17008KT M04/M08 RMK AO1 SOG 04 8011 SLP246
T10381076=
METAR CWDA 110300Z AUTO 30011KT M07/ RMK AO1 T1074=
METAR CWXI 110300Z AUTO 28016G21KT M05/M13 RMK AO1 PK WND
28023/0207 SLP205 T10451129 55007=


028 
SACN85 KWBC 110308
CWDM RMK NIL=
CWHO RMK NIL=
METAR CWPK 110300Z AUTO 14002KT M07/M08 RMK AO1 SOG 27 1007 SLP198
T10711080=
METAR CWWE 110300Z AUTO 19019G24KT 05/02 RMK AO1 SOG 07 8012 PK
WND 18024/0256 SLP243 T00490018=
CYGS RMK NIL=
CWDM RMK NIL=
CWDM RMK NIL=
CWDM RMK NIL=
METAR CWBV 110300Z AUTO 20020KT 03/M02 RMK AO1 PK WND 19024/0228
T00341018=
CWDO RMK NIL=
METAR CWHO 110300Z AUTO M13/M18 RMK AO1 23 0200Z 6005 SLP141
T11321175=
METAR CWRN 110300Z AUTO 19010KT M00/M04 RMK AO1 SLP263 T10021039
56016=
METAR CWSS 110300Z AUTO 26003KT M02/M03 RMK AO1 SLP228 T10201026
53001=
METAR CWBY 110300Z AUTO 22010G15KT M06/M09 RMK AO1 1PAST HR 6012
SLP195 P0000 T10571086 50004=
CWEF RMK NIL=
METAR CWEP 110300Z AUTO 20014G22KT M01/M07 RMK AO1 SOG 32 8007 PK
WND 20022/0253 SLP243 T10101074=
METAR CWER 110300Z AUTO 25004KT RMK AO1 =
METAR CWBV 110300Z AUTO 20020KT 03/M02 RMK AO1 PK WND 19024/0228
T00341018=
CWDO RMK NIL=
METAR CWHO 110300Z AUTO M13/M18 RMK AO1 23 0200Z 6005 SLP141
T11321175=
METAR CWRN 110300Z AUTO 19010KT M00/M04 RMK AO1 SLP263 T10021039
56016=
METAR CWSS 110300Z AUTO 26003KT M02/M03 RMK AO1 SLP228 T10201026
53001=
METAR CWBV 110300Z AUTO 20020KT 03/M02 RMK AO1 PK WND 19024/0228
T00341018=
CWDO RMK NIL=
METAR CWHO 110300Z AUTO M13/M18 RMK AO1 23 0200Z 6005 SLP141
T11321175=
METAR CWRN 110300Z AUTO 19010KT M00/M04 RMK AO1 SLP263 T10021039
56016=
METAR CWSS 110300Z AUTO 26003KT M02/M03 RMK AO1 SLP228 T10201026
53001=
METAR CWRA 110300Z AUTO 34008KT M07/M10 RMK AO1 SLP252 T10681097
50001=
METAR CWSF 110300Z AUTO 30003KT M06/M11 RMK AO1 SLP190 T10551113
55011=
METAR CWBV 110300Z AUTO 20020KT 03/M02 RMK AO1 PK WND 19024/0228
T00341018=
CWDO RMK NIL=
METAR CWHO 110300Z AUTO M13/M18 RMK AO1 23 0200Z 6005 SLP141
T11321175=
METAR CWRN 110300Z AUTO 19010KT M00/M04 RMK AO1 SLP263 T10021039
56016=
METAR CWSS 110300Z AUTO 26003KT M02/M03 RMK AO1 SLP228 T10201026
53001=
METAR CWNH 110300Z AUTO 19004KT M06/M08 RMK AO1 SOG 20 3005 SLP203
T10601079=
METAR CWBV 110300Z AUTO 20020KT 03/M02 RMK AO1 PK WND 19024/0228
T00341018=
CWDO RMK NIL=
METAR CWHO 110300Z AUTO M13/M18 RMK AO1 23 0200Z 6005 SLP141
T11321175=
METAR CWRN 110300Z AUTO 19010KT M00/M04 RMK AO1 SLP263 T10021039
56016=
METAR CWSS 110300Z AUTO 26003KT M02/M03 RMK AO1 SLP228 T10201026
53001=
CWWE RMK NIL=
METAR CWBV 110300Z AUTO 20020KT 03/M02 RMK AO1 PK WND 19024/0228
T00341018=
CWDO RMK NIL=
METAR CWHO 110300Z AUTO M13/M18 RMK AO1 23 0200Z 6005 SLP141
T11321175=
METAR CWRN 110300Z AUTO 19010KT M00/M04 RMK AO1 SLP263 T10021039
56016=
METAR CWSS 110300Z AUTO 26003KT M02/M03 RMK AO1 SLP228 T10201026
53001=
CWWE RMK NIL=
METAR CWBV 110300Z AUTO 20020KT 03/M02 RMK AO1 PK WND 19024/0228
T00341018=
CWDO RMK NIL=
METAR CWHO 110300Z AUTO M13/M18 RMK AO1 23 0200Z 6005 SLP141
T11321175=
METAR CWRN 110300Z AUTO 19010KT M00/M04 RMK AO1 SLP263 T10021039
56016=
METAR CWSS 110300Z AUTO 26003KT M02/M03 RMK AO1 SLP228 T10201026
53001=
METAR CWBV 110300Z AUTO 20020KT 03/M02 RMK AO1 PK WND 19024/0228
T00341018=
CWDO RMK NIL=
METAR CWHO 110300Z AUTO M13/M18 RMK AO1 23 0200Z 6005 SLP141
T11321175=
METAR CWRN 110300Z AUTO 19010KT M00/M04 RMK AO1 SLP263 T10021039
56016=
METAR CWSS 110300Z AUTO 26003KT M02/M03 RMK AO1 SLP228 T10201026
53001=
METAR CWBV 110300Z AUTO 20020KT 03/M02 RMK AO1 PK WND 19024/0228
T00341018=
CWDO RMK NIL=
METAR CWHO 110300Z AUTO M13/M18 RMK AO1 23 0200Z 6005 SLP141
T11321175=
METAR CWRN 110300Z AUTO 19010KT M00/M04 RMK AO1 SLP263 T10021039
56016=
METAR CWSS 110300Z AUTO 26003KT M02/M03 RMK AO1 SLP228 T10201026
53001=


029 
SACN63 KWBC 110308
METAR CWMT 110300Z AUTO 10006KT M26/M29 RMK AO1 SOG 17 6018 SLP920
T12591287=
METAR CZEV 110300Z AUTO 35005KT M25/M28 RMK AO1 SOG 22 3001 SLP883
T12471275=
METAR CZFS 110300Z AUTO 12008KT M16/M18 RMK AO1 SOG 28 6023 SLP853
T11611180=
METAR CZHY 110300Z AUTO 09003KT M19/M22 RMK AO1 SOG 14 6032 SLP899
T11931216=
METAR CZSM 110300Z AUTO 11003KT M18/M19 RMK AO1 SOG 32 8020 SLP949
T11761194=


030 
SACN59 KWBC 110308 RRB
METAR CXFM 110300Z AUTO 29004KT M08/M12 RMK AO1 T10841121=
METAR CXHD 110300Z AUTO 22009KT M07/M12 RMK AO1 T10681120=
METAR CXHP 110300Z AUTO 22010KT 01/M09 RMK AO1 PK WND 23020/0245
T00111092=
METAR CXMG 110300Z AUTO 14011KT M07/M10 RMK AO1 T10651095=
METAR CXMO 110300Z AUTO 19007KT M11/M14 RMK AO1 T11101137=
METAR CXOL 110300Z AUTO 22014KT M05/M14 RMK AO1 PK WND 22018/0256
T10471137=
METAR CXPL 110300Z AUTO 22009KT M14/M15 RMK AO1 T11431149=
METAR CXSC 110300Z AUTO 23014KT M07/M10 RMK AO1 T10671098=
METAR CXSL 110300Z AUTO 22004KT M04/M10 RMK AO1 T10361104=
METAR CXSP 110300Z AUTO 21010KT M05/M10 RMK AO1 T10461100=
METAR CXTH 110300Z AUTO 22010KT M05/M10 RMK AO1 PK WND 22017/0202
T10491099=
METAR CXVM 110300Z AUTO 23007KT M06/M12 RMK AO1 T10581118=
METAR CXVW 110300Z AUTO 15010KT M02/M09 RMK AO1 SLP915 T10191086
56022=
CZMU RMK NIL=
METAR CZOL 110300Z AUTO 22004KT M03/M11 RMK AO1 T10311113=
CZPS RMK NIL=
METAR CXAK 110300Z AUTO 21008KT M07/M12 RMK AO1 T10721124=
METAR CXDB 110300Z AUTO 25021KT M04/M11 RMK AO1 PK WND 25026/0246
T10431108=
METAR CXFM 110300Z AUTO 29004KT M08/M12 RMK AO1 T10841121=
METAR CXHD 110300Z AUTO 22009KT M07/M12 RMK AO1 T10681120=
METAR CXHP 110300Z AUTO 22010KT 01/M09 RMK AO1 PK WND 23020/0245
T00111092=
METAR CXMG 110300Z AUTO 14011KT M07/M10 RMK AO1 T10651095=
METAR CXMO 110300Z AUTO 19007KT M11/M14 RMK AO1 T11101137=
METAR CXOL 110300Z AUTO 22014KT M05/M14 RMK AO1 PK WND 22018/0256
T10471137=
METAR CXPL 110300Z AUTO 22009KT M14/M15 RMK AO1 T11431149=
METAR CXSC 110300Z AUTO 23014KT M07/M10 RMK AO1 T10671098=
METAR CXSL 110300Z AUTO 22004KT M04/M10 RMK AO1 T10361104=
METAR CXSP 110300Z AUTO 21010KT M05/M10 RMK AO1 T10461100=
METAR CXTH 110300Z AUTO 22010KT M05/M10 RMK AO1 PK WND 22017/0202
T10491099=
METAR CXVM 110300Z AUTO 23007KT M06/M12 RMK AO1 T10581118=
METAR CXVW 110300Z AUTO 15010KT M02/M09 RMK AO1 SLP915 T10191086
56022=
CZMU RMK NIL=
METAR CZOL 110300Z AUTO 22004KT M03/M11 RMK AO1 T10311113=
CZPS RMK NIL=


031 
SACA31 KWBC 110300 RRA
METAR
MKJP 110300Z 30005KT 9999 FEW022 26/21 Q1014=


032 
SACN96 KWBC 110308
METAR CWXL 110300Z AUTO 27016KT M03/M09 RMK AO1 PK WND 27022/0203
SLP065 T10251090 58014=
METAR CWYJ 110300Z AUTO 16004KT 06/04 RMK AO1 3PAST HR 6039 SLP076
P0001 T00620041 50005=
METAR CWYL 110300Z AUTO 27018KT M10/M11 RMK AO1 SOG 69 8009 PK WND
25023/0242 SLP088 T11031114=
METAR CWYY 110300Z AUTO 17006KT M00/M04 RMK AO1 SOG 04 8025 SLP139
T10011038=
METAR CWZA 110300Z AUTO 33003KT 03/02 RMK AO1 5PAST HR 6046 SLP082
P0002 T00280024 50012=
CWZL RMK NIL=
METAR CWZO 110300Z AUTO 18024G31KT RMK AO1 PK WND 16034/0228=
METAR CWZQ 110300Z AUTO 19011KT M03/M12 RMK AO1 SLP250 T10311121
58009=
CWZS RMK NIL=
CWZV RMK NIL=
METAR CXHM 110300Z AUTO 06004KT 05/02 RMK AO1 SLP122 T00460015
58039=
METAR CXKA 110300Z AUTO 18005KT M06/M08 RMK AO1 SOG 24 8018 SLP125
T10601076=
METAR CXKE 110300Z AUTO 08002KT M03/M05 RMK AO1 SOG 02 8007 SLP178
T10291052=


033 
SACN66 KWBC 110308
METAR CWBU 110300Z AUTO 23006KT M13/M17 RMK AO1 SOG 17 6008 SLP004
T11281166=
METAR CWIK 110300Z AUTO 22008KT M11/M15 RMK AO1 SOG 01 8013 SLP068
T11111146=


034 
SACN95 KWBC 110308
METAR CWTA 110300Z AUTO 36004KT M04/M05 RMK AO1 SOG 04 1003 SLP201
T10391054=
METAR CWTG 110300Z AUTO 25021KT M04/M06 RMK AO1 PK WND 23026/0204
SLP187 T10391063 55007=
METAR CWTN 110300Z AUTO 25002KT M06/M07 RMK AO1 SLP212 T10561068
51005=
METAR CWTT 110300Z AUTO 27002KT 00/M03 RMK AO1 T00001034=
METAR CWTY 110300Z AUTO 01004KT M05/M07 RMK AO1 SLP215 T10541068
50006=
METAR CWUS 110300Z AUTO 16018G29KT 02/M04 RMK AO1 SOG 12 6034 PK
WND 17029/0259 SLP109 T00151035=
CWUX RMK NIL=
METAR CWVF 110300Z AUTO 15030G36KT 07/05 RMK AO1 PK WND 16036/0257
T00690051=
METAR CWVI 110300Z AUTO 22008KT M04/M11 RMK AO1 SOG 11 8019 SLP977
T10411106=
METAR CWVN 110300Z AUTO 22012KT M11/M14 RMK AO1 SOG 03 8010 SLP109
T11091141=
METAR CWVP 110300Z AUTO 26008G16KT M06/M14 RMK AO1 SOG 04 8013
SLP051 T10561138=
METAR CWVQ 110300Z AUTO 02004KT M04/M06 RMK AO1 SOG 03 0003 SLP202
T10411060=
METAR CWVU 110300Z AUTO 18008KT 06/04 RMK AO1 SOG 02 5008 SLP228
T00640038=
CWVZ RMK NIL=
METAR CWWA 110300Z AUTO 08004KT 04/04 RMK AO1 2PAST HR 8041 SLP078
P0005 T00410037 50038=
METAR CWWF 110300Z AUTO 24006KT M10/M15 RMK AO1 SOG 03 8009 SLP080
T11031150=
METAR CWWK 110300Z AUTO 16011G19KT 07/04 RMK AO1 7047 PK WND
16023/0244 SLP078 T00670040 50002=
METAR CWXA 110300Z AUTO 25014G28KT M03/M15 RMK AO1 PK WND
28034/0216 SLP045 T10331151 56025=
CWXC RMK NIL=
METAR CWTN 110300Z AUTO 25002KT M06/M07 RMK AO1 SLP212 T10561068
51005=
METAR CWTT 110300Z AUTO 27002KT 00/M03 RMK AO1 T00001034=
METAR CWTY 110300Z AUTO 01004KT M05/M07 RMK AO1 SLP215 T10541068
50006=
METAR CWUS 110300Z AUTO 16018G29KT 02/M04 RMK AO1 SOG 12 6034 PK
WND 17029/0259 SLP109 T00151035=
CWUX RMK NIL=
METAR CWVF 110300Z AUTO 15030G36KT 07/05 RMK AO1 PK WND 16036/0257
T00690051=
METAR CWVI 110300Z AUTO 22008KT M04/M11 RMK AO1 SOG 11 8019 SLP977
T10411106=
METAR CWVN 110300Z AUTO 22012KT M11/M14 RMK AO1 SOG 03 8010 SLP109
T11091141=
METAR CWVP 110300Z AUTO 26008G16KT M06/M14 RMK AO1 SOG 04 8013
SLP051 T10561138=
METAR CWVQ 110300Z AUTO 02004KT M04/M06 RMK AO1 SOG 03 0003 SLP202
T10411060=
METAR CWVU 110300Z AUTO 18008KT 06/04 RMK AO1 SOG 02 5008 SLP228
T00640038=
CWVZ RMK NIL=
METAR CWWA 110300Z AUTO 08004KT 04/04 RMK AO1 2PAST HR 8041 SLP078
P0005 T00410037 50038=
METAR CWWF 110300Z AUTO 24006KT M10/M15 RMK AO1 SOG 03 8009 SLP080
T11031150=
METAR CWWK 110300Z AUTO 16011G19KT 07/04 RMK AO1 7047 PK WND
16023/0244 SLP078 T00670040 50002=
METAR CWXA 110300Z AUTO 25014G28KT M03/M15 RMK AO1 PK WND
28034/0216 SLP045 T10331151 56025=
CWXC RMK NIL=


035 
SACN78 KWBC 110308
METAR CTNK 110300Z AUTO 10002KT M00/M00 RMK AO1 SOG 13 8016 SLP156
T10021001=
CTRA RMK NIL=
CWKK RMK NIL=
METAR CXBI 110300Z AUTO 12007KT 02/01 RMK AO1 SOG 22 8023 SLP145
T00220006=
METAR CXZC 110300Z AUTO 20003KT M07/M09 RMK AO1 SOG 22 8008 SLP114
T10711087=
METAR CZEL 110300Z AUTO 09009KT 02/M00 RMK AO1 SOG 03 6035 SLP127
T00191001=
METAR CTNK 110300Z AUTO 10002KT M00/M00 RMK AO1 SOG 13 8016 SLP156
T10021001=
CTRA RMK NIL=
CWKK RMK NIL=
METAR CXBI 110300Z AUTO 12007KT 02/01 RMK AO1 SOG 22 8023 SLP145
T00220006=
METAR CXZC 110300Z AUTO 20003KT M07/M09 RMK AO1 SOG 22 8008 SLP114
T10711087=
METAR CZEL 110300Z AUTO 09009KT 02/M00 RMK AO1 SOG 03 6035 SLP127
T00191001=
CWKK RMK NIL=
METAR CXBI 110300Z AUTO 12007KT 02/01 RMK AO1 SOG 22 8023 SLP145
T00220006=
METAR CXZC 110300Z AUTO 20003KT M07/M09 RMK AO1 SOG 22 8008 SLP114
T10711087=
METAR CZEL 110300Z AUTO 09009KT 02/M00 RMK AO1 SOG 03 6035 SLP127
T00191001=
CWKK RMK NIL=
METAR CXBI 110300Z AUTO 12007KT 02/01 RMK AO1 SOG 22 8023 SLP145
T00220006=
METAR CXZC 110300Z AUTO 20003KT M07/M09 RMK AO1 SOG 22 8008 SLP114
T10711087=
METAR CZEL 110300Z AUTO 09009KT 02/M00 RMK AO1 SOG 03 6035 SLP127
T00191001=
CWKK RMK NIL=
METAR CXBI 110300Z AUTO 12007KT 02/01 RMK AO1 SOG 22 8023 SLP145
T00220006=
METAR CXZC 110300Z AUTO 20003KT M07/M09 RMK AO1 SOG 22 8008 SLP114
T10711087=
METAR CZEL 110300Z AUTO 09009KT 02/M00 RMK AO1 SOG 03 6035 SLP127
T00191001=
CWKK RMK NIL=
METAR CXBI 110300Z AUTO 12007KT 02/01 RMK AO1 SOG 22 8023 SLP145
T00220006=
METAR CXZC 110300Z AUTO 20003KT M07/M09 RMK AO1 SOG 22 8008 SLP114
T10711087=
METAR CZEL 110300Z AUTO 09009KT 02/M00 RMK AO1 SOG 03 6035 SLP127
T00191001=
CWKK RMK NIL=
METAR CXBI 110300Z AUTO 12007KT 02/01 RMK AO1 SOG 22 8023 SLP145
T00220006=
METAR CXZC 110300Z AUTO 20003KT M07/M09 RMK AO1 SOG 22 8008 SLP114
T10711087=
METAR CZEL 110300Z AUTO 09009KT 02/M00 RMK AO1 SOG 03 6035 SLP127
T00191001=


036 
SAPA32 KWBC 110300 RRA
METAR
NSFA 110300Z 01013KT 9999 FEW022 BKN180 33/26 Q1009=
NWWW 110300Z AUTO 02007KT 330V080 9999 FEW052 33/21 Q1008 TEMPO
     SHRA=


038 
SAGD31 TGPY 110300
METAR TGPY 110300Z 06006KT 9999 FEW017 26/22 Q1011=

039 
SAIO31 KWBC 110300 RRA
METAR
FMCZ 110300Z AUTO 03006KT 9999 FEW029 OVC086 27/22 Q1013 TEMPO
     04015G30KT 4000 SHRA SCT020TCU=
FMEE 110300Z AUTO 12009KT CAVOK 27/17 Q1016 NOSIG=


041 
SACN98 KWBC 110308
METAR CXAF 110300Z AUTO 21006KT M05/M11 RMK AO1 T10451109=
METAR CXAG 110300Z AUTO 23008KT M04/M10 RMK AO1 T10371098=
METAR CXAJ 110300Z AUTO 17001KT M06/M11 RMK AO1 SOG 25 T10631107=
METAR CXBA 110300Z AUTO 16005KT M10/M15 RMK AO1 T11041149=
METAR CXBR 110300Z AUTO 24023KT M02/M11 RMK AO1 PK WND 24037/0240
T10201107=
METAR CXBW 110300Z AUTO 25024KT M02/M08 RMK AO1 PK WND 25030/0257
T10181075=
METAR CXCD 110300Z AUTO 03002KT M13/M14 RMK AO1 T11301143=
METAR CXCP 110300Z AUTO 20008KT M08/M13 RMK AO1 T10761131=
METAR CXCS 110300Z AUTO 23016KT M10/M15 RMK AO1 PK WND 22018/0253
T11011151=
CXDK RMK NIL=
CXDP RMK NIL=
METAR CXFR 110300Z AUTO 19008KT M02/M06 RMK AO1 T10181060=
METAR CXHR 110300Z AUTO 23013KT M08/M14 RMK AO1 T10831144=
METAR CXKI 110300Z AUTO M12/M13 RMK AO1 SOG 28 8019 SLP151
T11171129=
METAR CXKM 110300Z AUTO 24009KT M07/M12 RMK AO1 T10731120=
METAR CXLB 110300Z AUTO 20009KT 04/01 RMK AO1 SLP236 T00430012
58010=
METAR CXOY 110300Z AUTO 23010KT M10/M12 RMK AO1 T10971124=
METAR CXPA 110300Z AUTO 13004KT M02/M07 RMK AO1 T10181066=
METAR CXPC 110300Z AUTO 01/M00 RMK AO1 SLP126 T00071003 58026=
METAR CXRB 110300Z AUTO 10002KT M23/M25 RMK AO1 SOG 02 7003 SLP068
T12261252=
METAR CXRL 110300Z AUTO 23005KT M04/M11 RMK AO1 T10421107=
CXSE RMK NIL=
METAR CXTD 110300Z AUTO 18009KT M02/M07 RMK AO1 T10241068=
METAR CXTO 110300Z AUTO 05/02 RMK AO1 SLP130 T00490018 58028=
METAR CXVN 110300Z AUTO 09003KT 05/02 RMK AO1 SLP117 T00470015
58039=
CXWB RMK NIL=
METAR CXWM 110300Z AUTO 24010KT M06/M11 RMK AO1 PK WND 26021/0200
T10561110=
CXYH RMK NIL=
METAR CXZV 110300Z AUTO 31004KT M08/M10 RMK AO1 SOG 26 5013 SLP185
T10831097 50016=
METAR CZKD 110300Z AUTO 29007KT M11/M13 RMK AO1 2PAST HR SOG 33
1002 SLP953 P0001 T11091128 50002=
CZLW RMK NIL=
METAR CZMJ 110300Z AUTO 24017G22KT M09/M14 RMK AO1 PK WND
23025/0232 SLP073 T10861141 58008=
CZQZ RMK NIL=
CZRP RMK NIL=
METAR CZTB 110300Z AUTO 28003KT M07/M08 RMK AO1 SOG 09 5012 SLP108
T10681080=
METAR CZZJ 110300Z AUTO 25005KT M01/M13 RMK AO1 SOG 22 6025 SLP968
T10051133=
CZZP RMK NIL=


042 
SAFR32 KWBC 110300 RRA
METAR
LFRO 110300Z AUTO 27004KT CAVOK 08/05 Q1018=


044 
SAPA31 KWBC 110300 RRA
METAR
PGSN 110305Z 05011G17KT 10SM BKN022 30/25 A2982 RMK AO2 T03000250
     $=


045 
SACA33 KWBC 110300 RRA
METAR
TNCC 110300Z AUTO 09008KT 9999 FEW016TCU BKN040 26/23 Q1012 TEMPO
     07010G25KT 5000 SHRA SCT015TCU BKN030=
TTCP 110300Z 06004KT 9999 FEW017 26/22 Q1010 NOSIG=
TTPP 110300Z 00000KT 9999 FEW016 25/23 Q1010 NOSIG=


046 
SAAL31 KWBC 110300 RRA
METAR
DAAG 110300Z 27018G28KT 9999 FEW020 SCT040 16/12 Q1016=
DAAT 110300Z 36004KT 330V030 CAVOK 10/M17 Q1020=
DABB 110300Z 36015KT 6000 SCT020 BKN033 11/09 Q1011=
DABC 110300Z 34018KT 8000 -SHRA SCT013 OVC023 09/07 Q1012=
DABS 110300Z 26014G24KT 9999 FEW040 BKN100 10/03 Q1009=
DAON 110300Z 21008KT 9999 BKN026 13/06 Q1022=
DAOO 110300Z 22012KT 9999 BKN026 14/11 Q1020=
DAUA 110300Z 05010KT CAVOK 07/M01 Q1019=
DAUG 110300Z 28010KT CAVOK 11/01 Q1017=
DAUH 110300Z 23007KT CAVOK 08/01 Q1015=
DAUZ 110300Z 33004KT CAVOK 03/M09 Q1018=


048 
SACN31 KWBC 110300 RRA
METAR
CYBG 110300Z 20003KT 15SM OVC018 M08/M10 A3011 RMK SC8 SLP210=
CYDQ 110300Z AUTO 13006KT 9SM CLR M02/M07 A2905 RMK PRESFR
     SLP870=
CYEG 110300Z 19010KT 20SM SCT160 BKN210 M07/M12 A2934 RMK AC3CI4
     SLP979=
CYFB 110300Z 33009KT 15SM -SN BKN018 M17/M21 A2972 RMK SC7
     SLP069=
CYFC 110300Z AUTO 00000KT 9SM OVC006 M05/M06 A3020 RMK ICE INTMT
     SLP230=
CYGL 110300Z 19006KT 15SM -SN BKN025 OVC052 M08/M10 A2978 RMK
     SC5SC3 SLP103=
CYHZ 110300Z 15007KT 15SM BKN023 OVC031 M01/M04 A3024 RMK SC6SC2
     SLP250=
CYJT 110300Z 06009KT 15SM -SN SCT023 BKN036 M06/M08 A3024 RMK
     SC3SC4 SLP244=
CYKL 110300Z AUTO 16008KT 6SM -SN BKN028 M18/M20 A2971 RMK
     SLP122=
CYMH 110300Z AUTO 25014KT 9SM CLR M13/M20 A3008 RMK SLP190=
CYOW 110300Z 05008KT 15SM SCT020 OVC034 M04/M06 A3005 RMK SC3SC5
     PRESFR SLP184=
CYPL 110300Z AUTO 20006KT 9SM CLR M11/M12 A2964 RMK SLP070=
CYQB 110300Z VRB02KT 10SM -SN OVC021 M06/M07 A3015 RMK SC8 -SN
     INTMT SLP216=
CYQG 110300Z AUTO 08007KT 310V120 1 1/4SM +RA BR OVC016 08/07
     A2970 RMK VIS VRB 3/4-1 1/2 SLP062=
CYQM 110300Z 18008KT 12SM OVC026 M02/M04 A3018 RMK SC8 SLP228=
CYQQ 110300Z 14022G33KT 3SM -RA BR FEW010 BKN021 OVC028 06/05
     A2956 RMK SF1SC5SC2 SLP011=
CYQX 110300Z 25007KT 20SM SCT250 M10/M12 A3021 RMK CI4 SLP243=
CYQY 110300Z 23004KT 15SM BKN052 OVC078 M05/M07 A3029 RMK SC6AC2
     SLP263=
CYRB 110300Z 11004KT 15SM IC OVC006 M22/M25 A2970 RMK ST8
     SLP071=
CYSJ 110300Z 20003KT 5SM -RA BR SCT005 BKN010 OVC020 02/02 A3018
     RMK SC4SC1SC3 SLP227=
CYTE 110300Z AUTO VRB03KT 1 3/4SM -SN OVC005 M15/M16 A2970 RMK
     SLP064=
CYTL 110300Z AUTO 23008KT 9SM -SN CLR M10/M12 A2959 RMK SLP041=
CYTR 110300Z AUTO 05005KT 2 1/4SM SCT041 01/00 A2998 RMK
     SLP156=
CYUL 110300Z 02007KT 15SM OVC032 M04/M06 A3012 RMK SC8 SLP203=
CYUY 110300Z 09003KT 15SM BKN170 M09/M10 A2994 RMK AC5 SLP163=
CYVP 110300Z 22005KT 15SM SCT100 OVC130 M18/M21 A2974 RMK AC3AS5
     SLP080=
CYVR 110300Z 13017G26KT 12SM -RA FEW010 BKN015 OVC038 06/05 A2974
     RMK CU1SC5NS2 PRESFR SLP073=
CYWG 110300Z 20003KT 15SM SKC M12/M14 A2969 RMK SLP075=
CYWK 110300Z 20009KT 10SM -SN SCT048 SCT070 BKN110 M14/M16 A2979
     RMK SC3AC1AC3 LAST STFD OBS/NEXT 111100 UTC SLP149=
CYXU 110300Z 09014G19KT 15SM OVC040 04/02 A2979 RMK SC8 CVCTV CLD
     EMBD PRESFR SLP098=
CYXX 110300Z 17015G24KT 15SM FEW027 SCT053 BKN080 OVC130 06/03
     A2976 RMK CU1SC2AS3AS2 PRESFR SLP081=
CYXY 110300Z 16011KT 15SM BKN160 M08/M10 A2866 RMK AS6 SLP751=
CYYC 110300Z 29006KT 15SM BKN200 M02/M15 A2946 RMK CI5 SLP029=
CYYJ 110300Z 16008KT 7SM RA FEW012 BKN020 OVC034 06/06 A2973 RMK
     SC2SC3NS3 SLP072=
CYYQ 110300Z 24012KT 15SM IC SKC M17/M20 A2924 RMK SLP906=
CYYR 110300Z 26005KT 15SM FEW110 SCT140 M16/M22 A3008 RMK AC2AC2
     SLP190=
CYYT 110300Z 00000KT 15SM SKC M07/M11 A3023 RMK SLP250=
CYYZ 110300Z 08007KT 15SM OVC050 04/01 A2988 RMK SC8 PRESFR
     SLP126=
CYZF 110300Z 09008KT 15SM FEW240 M25/M28 A2928 RMK CI2 SLP945=
CYZV 110300Z 34005KT 15SM -SN BKN025 OVC063 M09/M10 A3007 RMK
     SC5SC3 SLP190=
CYZX 110300Z 29007KT 15SM -SHSN SCT012 OVC026 M00/M02 A3024 RMK
     SC4SC4 PCPN VRY LGT SLP244=
CYZY 110300Z AUTO 16017G25KT 9SM BKN031 OVC060 M02/M06 A2906 RMK
     SLP876=
CZBF 110300Z AUTO 21006KT 9SM OVC055 M07/M10 A3015 RMK SLP217=


049 
SAJP41 KWBC 110300 RRA
METAR
RJAW 110300Z 03017KT 9999 FEW015 BKN020 22/11 Q1018 RMK 1CU015
     5CU020 A3008=


050 
SATS31 KWBC 110300 RRA
METAR
DTMB 110300Z 28004KT 230V010 8000 FEW020 13/09 Q1008=
DTTA 110300Z 25006KT 8000 -RA SCT020 BKN026 10/08 Q1008=
DTTB 110300Z 29016KT 7000 SCT020 BKN030 11/07 Q1007=
DTTD 110300Z AUTO 25015G27KT 210V290 NCD 12/M02 Q1013=
DTTG 110300Z 23015KT 5000 NSC 10/01 Q1011 NOSIG=
DTTJ 110300Z 26023KT CAVOK 15/05 Q1010=
DTTK 110300Z 29002KT 9999 BKN023 15/07 Q1007=
DTTL 110300Z 28003KT 8000 -RA SCT020 SCT030 10/10 Q1007=
DTTN 110300Z NIL=
DTTR 110300Z AUTO 18007KT NCD 07/M01 Q1016=
DTTX 110300Z 23007KT 8000 NSC 12/03 Q1008=
DTTZ 110300Z 26009KT CAVOK 10/02 Q1011=


051 
SAXX62 KWBC 110300 RRA
METAR
PHBK 110305Z AUTO 03004KT 4SM -RA OVC036 24/21 A3004 RMK AO2 P0000
     T02390206=


052 
SAVN42 KWBC 110300 RRA
METAR
SVSR 110303Z AUTO NIL=
SVVA 110303Z AUTO 35004KT NCD ///// Q1012=


053 
SASA41 KWBC 110300 RRA
METAR
SMJP 110300Z 10003KT 9999 FEW005 SCT008 BKN025 24/24 Q1009
     NOSIG=


054 
SACN59 KWBC 110308 RRA
METAR CXVM 110300Z AUTO 23007KT M06/M12 RMK AO1 T10581118=
METAR CXVW 110300Z AUTO 15010KT M02/M09 RMK AO1 SLP915 T10191086
56022=
CZMU RMK NIL=
METAR CZOL 110300Z AUTO 22004KT M03/M11 RMK AO1 T10311113=
CZPS RMK NIL=
METAR CXAK 110300Z AUTO 21008KT M07/M12 RMK AO1 T10721124=
METAR CXDB 110300Z AUTO 25021KT M04/M11 RMK AO1 PK WND 25026/0246
T10431108=
METAR CXFM 110300Z AUTO 29004KT M08/M12 RMK AO1 T10841121=
METAR CXHD 110300Z AUTO 22009KT M07/M12 RMK AO1 T10681120=
METAR CXHP 110300Z AUTO 22010KT 01/M09 RMK AO1 PK WND 23020/0245
T00111092=
METAR CXMG 110300Z AUTO 14011KT M07/M10 RMK AO1 T10651095=
METAR CXMO 110300Z AUTO 19007KT M11/M14 RMK AO1 T11101137=
METAR CXOL 110300Z AUTO 22014KT M05/M14 RMK AO1 PK WND 22018/0256
T10471137=
METAR CXPL 110300Z AUTO 22009KT M14/M15 RMK AO1 T11431149=
METAR CXSC 110300Z AUTO 23014KT M07/M10 RMK AO1 T10671098=
METAR CXSL 110300Z AUTO 22004KT M04/M10 RMK AO1 T10361104=
METAR CXSP 110300Z AUTO 21010KT M05/M10 RMK AO1 T10461100=
METAR CXTH 110300Z AUTO 22010KT M05/M10 RMK AO1 PK WND 22017/0202
T10491099=
METAR CXVM 110300Z AUTO 23007KT M06/M12 RMK AO1 T10581118=
METAR CXVW 110300Z AUTO 15010KT M02/M09 RMK AO1 SLP915 T10191086
56022=
CZMU RMK NIL=
METAR CZOL 110300Z AUTO 22004KT M03/M11 RMK AO1 T10311113=
CZPS RMK NIL=
METAR CXAK 110300Z AUTO 21008KT M07/M12 RMK AO1 T10721124=
METAR CXDB 110300Z AUTO 25021KT M04/M11 RMK AO1 PK WND 25026/0246
T10431108=
METAR CXFM 110300Z AUTO 29004KT M08/M12 RMK AO1 T10841121=
METAR CXHD 110300Z AUTO 22009KT M07/M12 RMK AO1 T10681120=
METAR CXHP 110300Z AUTO 22010KT 01/M09 RMK AO1 PK WND 23020/0245
T00111092=
METAR CXMG 110300Z AUTO 14011KT M07/M10 RMK AO1 T10651095=
METAR CXMO 110300Z AUTO 19007KT M11/M14 RMK AO1 T11101137=
METAR CXOL 110300Z AUTO 22014KT M05/M14 RMK AO1 PK WND 22018/0256
T10471137=
METAR CXPL 110300Z AUTO 22009KT M14/M15 RMK AO1 T11431149=
METAR CXSC 110300Z AUTO 23014KT M07/M10 RMK AO1 T10671098=
METAR CXSL 110300Z AUTO 22004KT M04/M10 RMK AO1 T10361104=
METAR CXSP 110300Z AUTO 21010KT M05/M10 RMK AO1 T10461100=
METAR CXTH 110300Z AUTO 22010KT M05/M10 RMK AO1 PK WND 22017/0202
T10491099=
METAR CXVM 110300Z AUTO 23007KT M06/M12 RMK AO1 T10581118=
METAR CXVW 110300Z AUTO 15010KT M02/M09 RMK AO1 SLP915 T10191086
56022=
CZMU RMK NIL=
METAR CZOL 110300Z AUTO 22004KT M03/M11 RMK AO1 T10311113=
CZPS RMK NIL=
METAR CXAK 110300Z AUTO 21008KT M07/M12 RMK AO1 T10721124=
METAR CXDB 110300Z AUTO 25021KT M04/M11 RMK AO1 PK WND 25026/0246
T10431108=
METAR CXFM 110300Z AUTO 29004KT M08/M12 RMK AO1 T10841121=
METAR CXHD 110300Z AUTO 22009KT M07/M12 RMK AO1 T10681120=
METAR CXHP 110300Z AUTO 22010KT 01/M09 RMK AO1 PK WND 23020/0245
T00111092=
METAR CXMG 110300Z AUTO 14011KT M07/M10 RMK AO1 T10651095=
METAR CXMO 110300Z AUTO 19007KT M11/M14 RMK AO1 T11101137=
METAR CXOL 110300Z AUTO 22014KT M05/M14 RMK AO1 PK WND 22018/0256
T10471137=
METAR CXPL 110300Z AUTO 22009KT M14/M15 RMK AO1 T11431149=
METAR CXSC 110300Z AUTO 23014KT M07/M10 RMK AO1 T10671098=
METAR CXSL 110300Z AUTO 22004KT M04/M10 RMK AO1 T10361104=
METAR CXSP 110300Z AUTO 21010KT M05/M10 RMK AO1 T10461100=
METAR CXTH 110300Z AUTO 22010KT M05/M10 RMK AO1 PK WND 22017/0202
T10491099=
METAR CXVM 110300Z AUTO 23007KT M06/M12 RMK AO1 T10581118=
METAR CXVW 110300Z AUTO 15010KT M02/M09 RMK AO1 SLP915 T10191086
56022=
CZMU RMK NIL=
METAR CZOL 110300Z AUTO 22004KT M03/M11 RMK AO1 T10311113=
CZPS RMK NIL=
METAR CXAK 110300Z AUTO 21008KT M07/M12 RMK AO1 T10721124=
METAR CXDB 110300Z AUTO 25021KT M04/M11 RMK AO1 PK WND 25026/0246
T10431108=


055 
SAXX60 KWBC 110300 CCE
METAR
KEUF 110258Z AUTO 19004KT 10SM FEW012 BKN020 21/19 A3005 RMK AO2
     SLP174 T02110194 50005 $=


056 
SAXX61 KWBC 110300 RRA
METAR
LICZ 110255Z 28009KT 9999 SCT030 BKN080 13/13 Q1003 RERA RMK BKN
     VIS MIN 9999 WIND THR28 28008KT WIND THR10 28008KT A2963
     BLU=


058 
SASA31 KWBC 110300 RRA
METAR
SVBC 110303Z AUTO NIL=
SVMC 110303Z AUTO NIL=
SVMG 110303Z AUTO 07007KT NCD 26/24 Q1012=
SVMI 110303Z AUTO 09002KT NCD ///// Q1013=


199 
SAMS34 WMKK 110300
METAR WBGB 110300Z NIL=
METAR WBGR 110300Z VRB03KT 9999 SCT014 29/25 Q1011=
METAR WBGS 110300Z 25004KT 160V310 9999 SCT014 30/26 Q1011=
METAR WBGY 110300Z VRB02KT 9999 SCT016 30/25 Q1011=
METAR COR WBKL 110300Z VRB04KT 9999 SCT015 29/26 Q1011=
METAR WBKS 110300Z 25007G19KT 210V280 0800 +TSRA SCT005 FEW016CB SCT030 24/24 Q1010=
METAR WBKT 110300Z VRB02KT 8000 -RA FEW010 SCT033 26/25 Q1011=
METAR WBKW 110300Z 24004KT 160V300 9999 VCSH FEW016CB 31/25 Q1010=


202 
SAMS32 WMKK 110300
NIL


204 
SAMS34 WMKK 110300
NIL


208 
SAMS32 WMKK 110300
METAR WBGG 110300Z VRB02KT 9999 SCT016 29/24 Q1012 NOSIG=
METAR WBKK 110300Z VRB02KT 7000 -RA FEW013 FEW016CB SCT035 26/25 Q1011 RERA NOSIG=
METAR WMKJ 110300Z VRB04KT 9999 FEW017TCU SCT018 29/25 Q1012=
METAR WMKK 110300Z VRB01KT 9999 VCSH FEW018 29/24 Q1012 NOSIG=
METAR WMKP 110300Z 06006KT 010V100 9000 FEW020 29/23 Q1012 NOSIG=
METAR WMSA 110300Z VRB03KT 9999 FEW018 29/23 Q1013=


210 
SAMS31 WMKK 110300
METAR WBGG 110300Z NIL=
METAR WBKK 110300Z NIL=
METAR WBSB 110300Z NIL=
METAR WMKK 110300Z NIL=
METAR WMKP 110300Z NIL=
METAR WSSL 110300Z 03010KT 9999 SCT018 FEW020TCU BKN300 30/24 Q1012=
METAR WSSS 110300Z 35010KT 9000 FEW018 FEW020TCU BKN300 30/25 Q1012
NOSIG=


215 
SAMS31 WMKK 110300
METAR WBGG 110300Z VRB02KT 9999 SCT016 29/24 Q1012 NOSIG=
METAR WBKK 110300Z VRB02KT 7000 -RA FEW013 FEW016CB SCT035 26/25 Q1011 RERA NOSIG=
METAR WBSB 110300Z 34004KT 9999 SCT015 FEW016CB BKN140 30/27 Q1011 NOSIG=
METAR WMKK 110300Z VRB01KT 9999 VCSH FEW018 29/24 Q1012 NOSIG=
METAR WMKP 110300Z 06006KT 010V100 9000 FEW020 29/23 Q1012 NOSIG=
METAR WSSL 110300Z 03010KT 9999 SCT018 FEW020TCU BKN300 30/24 Q1012=
METAR WSSS 110300Z 35010KT 9000 FEW018 FEW020TCU BKN300 30/25 Q1012 NOSIG=


218 
SAMS32 WMKK 110300
METAR WBGG 110300Z VRB02KT 9999 SCT016 29/24 Q1012 NOSIG=
METAR WBKK 110300Z VRB02KT 7000 -RA FEW013 FEW016CB SCT035 26/25
Q1011 RERA NOSIG=
METAR WMKJ 110300Z VRB04KT 9999 FEW017TCU SCT018 29/25 Q1012=
METAR WMKK 110300Z VRB01KT 9999 VCSH FEW018 29/24 Q1012 NOSIG=
METAR WMKP 110300Z 06006KT 010V100 9000 FEW020 29/23 Q1012 NOSIG=
METAR WMSA 110300Z VRB03KT 9999 FEW018 29/23 Q1013=


273 
SANA14 KAWN 110300 RRE
METAR KNEL 110300Z AUTO 00000KT OVC050 06/03 A3011 RMK AO2 SLP196 T00560028
      58009 $=
METAR KNHK 110252Z 12004KT 10SM OVC036 11/08 A3008 RMK AO2 SLP186 60000
      T01060083 56007 $=
METAR KNHK 110252Z 12004KT 10SM OVC036 11/08 A3008 RMK AO2 SLP186 60000
      T01060083 56007 $=
METAR KNPA 110256Z 16008KT 5SM BR OVC004 22/21 A3002 RMK AO2 SLP168
      T02170206 51009 $=
METAR KNPA 110256Z 16008KT 5SM BR OVC004 22/21 A3002 RMK AO2 SLP168
      T02170206 51009 $=
METAR KNUW 110256Z 15024G35KT 10SM SCT020 BKN025 OVC040 08/04 A2980
      RMK AO2 PK WND 15040/0205 SLP092 T00830044 56048 PNO=
METAR KNXP 110256Z AUTO 28004KT 10SM CLR 07/M11 A3026 RMK AO2 SLP237
      T00671111 51013=
METAR KNZY 110252Z 31003KT 10SM FEW035 12/09 A3013 RMK AO2 SLP202 T01220089
      50006=
METAR KNZY 110252Z 31003KT 10SM FEW035 12/09 A3013 RMK AO2 SLP202 T01220089
      50006=
METAR KOAR 110255Z AUTO 00000KT 10SM CLR 04/00 A3023 RMK AO2=
METAR KTCM 110256Z 19014KT 7SM FEW020 SCT036 BKN044 07/04 A2989 RMK
      AO2A RAB14E23RAB23E23 SLP127 P0000 60000 T00690037 57032
      RVRNO $=
METAR KVOK 110256Z 04006KT 7SM -SN OVC007 M00/M02 A2944 RMK AO2A SLP983
      60020 57054=


277 
SPUS17 KAWN 110308
SPECI KFRI 110252Z AUTO 30014G24KT 10SM OVC021 01/M04 A2967 RMK AO2
      PRESRR SLP052=
SPECI KGUS 110301Z 16019G24KT 2 3/4SM BR OVC002 14/13 A2945 RMK AO2A
      VIS 2 3/4V4 SLP977 $=
SPECI PABA 110302Z AUTO 28028KT 1/4SM +SN FZFG OVC021 M19/M21 A2936
      RMK AO2 PK WND 28030/0301 PRESFR P0000 FZRANO=


427 
SAHW40 PHFO 110308 COR
MTRBKH
SPECI PHBK 110305Z AUTO 03004KT 4SM -RA OVC036 24/21 A3004 RMK AO2 
P0000 T02390206


830 
SAIN90 VABO 110300
METAR VABO 110300Z 02006KT 2000 HZ NSC 19/15 Q1018 BECMG 3000=

832 
SAKA31 PTTP 110300
METAR PTTP 110252Z 08003KT 15SM SCT018 BKN300 32/25 A2976 RMK SLP076
 8/101 T03150254 57019=


837 
SAMS38 WMKK 110300
NIL


845 
SANK31 MNMG 110300
METAR 
MNMG 110300Z 00000KT 9999 SCT021 SCT070 25/22 Q1012 A2989 NOSIG= 


847 
SAMS31 WMKK 110300
METAR WBGG 110300Z VRB02KT 9999 SCT016 29/24 Q1012 NOSIG=
METAR WBKK 110300Z VRB02KT 7000 -RA FEW013 FEW016CB SCT035 26/25
Q1011 RERA NOSIG=
METAR WBSB 110300Z 34004KT 9999 SCT015 FEW016CB BKN140 30/27 Q1011 
NOSIG=
METAR WMKK 110300Z VRB01KT 9999 VCSH FEW018 29/24 Q1012 NOSIG=
METAR WMKP 110300Z 06006KT 010V100 9000 FEW020 29/23 Q1012 NOSIG=
METAR WSSL 110300Z 03010KT 9999 SCT018 FEW020TCU BKN300 30/24 Q1012=
METAR WSSS 110300Z 35010KT 9000 FEW018 FEW020TCU BKN300 30/25 Q1012 
NOSIG=


853 
SAMS38 WMKK 110300
METAR WBGB 110300Z NIL=
METAR WBGR 110300Z VRB03KT 9999 SCT014 29/25 Q1011=
METAR WBGS 110300Z 25004KT 160V310 9999 SCT014 30/26 Q1011=
METAR COR WBKL 110300Z VRB04KT 9999 SCT015 29/26 Q1011=
METAR WBKS 110300Z 25007G19KT 210V280 0800 +TSRA SCT005 FEW016CB
SCT030 24/24 Q1010=
METAR WBKW 110300Z 24004KT 160V300 9999 VCSH FEW016CB 31/25 Q1010=
METAR WMKD 110300Z 35006KT 280V060 9999 FEW025 27/24 Q1013 NOSIG=
METAR WMKL 110300Z 07007KT 350V120 9999 FEW020 31/22 Q1013=
METAR WMKM 110300Z 02006KT 330V130 9999 FEW020 29/23 Q1013=


912 
SABC40 FBSK 110300
METAR FBPM 110300Z 15002KT CAVOK 20/20 Q1016=
METAR FBSK 110300Z 10006KT CAVOK 21/16 Q1016 NOSIG=

926 
SAIN90 VABV 110300
METAR VABV 110300Z VRB02KT 1000 HZ NSC 19/16 Q1017=

957 
SANM01 FYWW 110300
METAR FYKM 110300Z AUTO 10003KT //// // ////// 21/20 Q1013=
METAR FYLZ 110300Z AUTO 21002KT //// // ////// 14/13 Q1010=
METAR FYWB 110300Z AUTO 02008KT //// // ////// 13/12 Q1012=
METAR FYWW 110300Z AUTO 11004KT //// // ////// 17/03 Q1020=

978 
SPZZ40 KAWN 110308 RRA
SPECI CYNA 110303Z AUTO 19008KT 2 1/2SM -FZRA BR FEW014 OVC029 M05/M07
      A3013 RMK ICE PAST HR SLP205=
SPECI CYNA 110304Z AUTO 19007KT 2 1/2SM -RA -UP BR FEW014 OVC029 M05/M07
      A3013 RMK ICE PAST HR SLP205=
SPECI CYNA 110305Z AUTO 18006KT 2 1/2SM -FZRA BR FEW014 OVC029 M05/M06
      A3012 RMK ICE SLP204=
SPECI CYQM 110303Z 18009KT 10SM -SN OVC026 M02/M04 A3018 RMK SC8 SLP228=
SPECI CYTE 110302Z AUTO VRB05KT 1 3/4SM -SN OVC003 M15/M16 A2970 RMK
      SLP064=
SPECI CYXR 110306Z AUTO 06002KT 1 1/2SM BR FEW001 BKN150 OVC170 M09/M10
      A2993 RMK ICE SLP156=
SPECI EBDT 110303Z AUTO VRB01KT 1500 BR FEW004/// OVC025/// 03/03 Q1009
      AMB=
SPECI EHEH 110304Z AUTO VRB01KT 1900 BR FEW002 SCT003 BKN005 01/01
      Q1008 YLO=
SPECI EHLW 110304Z AUTO 19005KT 4800 BR NCD M02/M02 Q1007 GRN=
SPECI EHWO 110303Z AUTO VRB02KT 9999 FEW009 BKN023 BKN027 05/05 Q1008
      WHT=
SPECI KLOR 110303Z AUTO 18007KT 10SM OVC007 22/21 A3005 RMK AO2 SLP158=
SPECI KPOB 110306Z AUTO 24005KT 10SM OVC013 12/12 A3013 RMK AO2 SLP206
      $=
SPECI KTCM 110257Z COR 19018G25KT 7SM -RA FEW020 SCT036 BKN044 07/04
      A2988 RMK AO2A RAB57 SLP124 RVRNO $ COR 0304=
SPECI PABA 110302Z AUTO 28028KT 1/4SM +SN FZFG OVC021 M19/M21 A2936
      RMK AO2 PK WND 28030/0301 PRESFR P0000 FZRANO=
SPECI PACZ 110304Z AUTO 03040G47KT 240V150 5SM -SN BKN014 M18/M20 A2977
      RMK AO2 PK WND 10047/0301 WSHFT 0247 SLP099=
SPECI PATC 110302Z AUTO 36029G34KT 3/4SM -SN BKN017 M21/M24 A2981 RMK
      AO2 SLP106=


253 
SAID31 WIII 110300
METAR WIII 110300Z 32011KT 9999 BKN020 29/26 Q1012 NOSIG= 
METAR WAAA 110300Z 33008KT 9000 VCSH FEW018CB SCT019 30/25 Q1010
 NOSIG RMK CB IN APCH= 
METAR WARR 110300Z 28004KT 9999 FEW020 30/25 Q1009 NOSIG= 
METAR WADD 110300Z 27013KT 9999 SCT017 31/25 Q1010 NOSIG= 
METAR WIDD 110300Z 05005KT 9999 FEW014 28/25 Q1014 NOSIG= 
METAR WIMM 110300Z 26006KT 9999 FEW018 29/25 Q1012 NOSIG= 
METAR WIHH 110300Z 27010KT 6000 SCT019 30/25 Q1011 NOSIG= 
METAR WABB NIL=


357 
SAZZ40 KAWN 110300 RRQ
METAR DAAE 110300Z 29012KT 9999 FEW020 SCT033 17/08 Q1013=
METAR DAAJ 110300Z 33005KT CAVOK 09/M13 Q1019=
METAR DAAP 110300Z VRB02KT CAVOK 05/M04 Q1018=
METAR DAAV 110300Z 29014G25KT 260V320 8000 FEW020 FEW026CB BKN033 16/13
      Q1012=
METAR DABT 110300Z 26018KT 9999 FEW020 SCT200 10/05 Q1012=
METAR DAOF 110300Z 04003KT CAVOK 10/00 Q1020=
METAR DAOR 110300Z 36005KT CAVOK 07/M06 Q1021=
METAR DAUA 110300Z 05010KT CAVOK 07/M01 Q1019=
METAR DAUB 110300Z 31015KT 9999 FEW040 16/07 Q1013=
METAR DAUG 110300Z 28010KT CAVOK 11/01 Q1017=
METAR DAUI 110300Z 19004KT CAVOK 08/M04 Q1018=
METAR DAUK 110300Z 24004KT CAVOK 09/03 Q1014=
METAR DAUO 110300Z 23006KT CAVOK 09/03 Q1013=
METAR EGUN 110256Z 27007KT 9999 CLR 00/00 A2987 RMK AO2A SLP119 T00020002
      52022 $=
METAR FJDG 110255Z 25007KT 9999 FEW020 SCT080 BKN220 29/25 A2988 RMK
      SLP115 8/132 T02890254 52020=
METAR KFEW 110256Z AUTO 31013G18KT 10SM CLR M08/M15 A2987 RMK AO2 SLP177
      T10781153 52020 $=
METAR KNPA 110256Z 16008KT 5SM BR OVC004 22/21 A3002 RMK AO2 SLP168
      T02170206 51009 $=
METAR TNCC 110300Z AUTO 09008KT 9999 FEW016TCU BKN040 26/23 Q1012 TEMPO
      07010G25KT 5000 SHRA SCT015TCU BKN030=
METAR ZBHH 110300Z 34005MPS CAVOK M02/M11 Q1032 NOSIG=
METAR ZHHH 110300Z 03004MPS 340V060 2300 BR NSC 11/07 Q1028 NOSIG=
METAR ZSNJ 110300Z 05003MPS 010V080 2100 BR BKN009 11/08 Q1028 BECMG
      TL0430 3000 BKN010=
METAR ZUCK 110300Z 24002MPS 2200 -DZ BR FEW005 SCT009 OVC020 11/11
      Q1028 NOSIG=


588 
SAAK41 KNKA 110308
SPECI PAGS 110307Z AUTO 12011KT 2SM -SN BR BKN005 BKN012 OVC085 
    M01/M02 A2887 RMK AO2 CIG 003V009 P0000 FZRANO=
SPECI PAGY 110306Z AUTO 20016G27KT 2 1/2SM -SN BR FEW013 SCT023 
    OVC036 01/M01 A2882 RMK AO2 PK WND 21027/0300 SNB0254 P0000 
    T00111011 TSNO $=


593 
SAID33 WIII 110300
METAR WATT 110300Z 32006KT 9999 FEW015CB SCT015 32/28 Q1008 NOSIG 
RMK
 CB TO N= 
METAR WAQQ 110300Z 03005KT 9000 -RA FEW015 BKN100 28/25 Q1010 TEMPO
 FM0230 TL0330 -RA 
METAR WAJJ 110300Z 30012KT 9999 SCT013 33/23 Q1005 NOSIG= 
METAR WAHS 110300Z 32005KT 7000 SCT014 30/24 Q1010 NOSIG= 
METAR WAYY NIL=
METAR WAKK NIL=
METAR WAPP NIL=
METAR WILL NIL=


594 
SAIN90 VAAU 110300
METAR VAAU 110300Z 00000KT 1000 BR SCT020 SCT100 19/15 Q1019 NOSIG=

611 
SAID32 WIII 110300
METAR WIBB 110300Z 04005KT 9000 BKN010 28/24 Q1012= 
METAR WIDN 110300Z 36008G18KT 1000 +RA BKN015CB 27/26 Q1013 BECMG
 AT0430 5000 RA RMK CB TO W= ? 
METAR WIEE 110300Z 24004KT 220V280 9999 FEW020 30/25 Q1011= 
METAR WIPP 110300Z 30009KT 9999 BKN010 28/23 Q1012 NOSIG= 
METAR WADL 110300Z 24005KT 2000 RA OVC016 25/24 Q1011 NOSIG= 
METAR WAOO 110300Z 20005KT 140V230 9999 SCT016 28/24 Q1011 NOSIG= 
METAR WIOO 110300Z 31008KT 8000 -RA FEW010CB BKN011 25/24 Q1012
 NOSIG= 
METAR WALL 110300Z 21005KT 150V260 9999 FEW020 30/26 Q1010 NOSIG= 
METAR WAMM NIL=


788 
SPCN47 CWAO 110308
SPECI CYPQ 110308Z AUTO 03003KT 2SM BR OVC023 M00/M00 A2994 RMK SLP150=


789 
SPCN42 CWAO 110308
SPECI CYPR 110308Z AUTO VRB02KT 1SM -SN VV010 00/M01 A2913 RMK VIS VRB 5/8-3 ICE SLP867=


796 
SAUS46 KSEW 110308
MTRSMP
METAR KSMP 110256Z AUTO VRB04KT 1 1/4SM -SN BR OVC004 M01/M02 A2983 
RMK AO2 SLP128 P0002 60012 T10061017 58017


481 
SPCN42 CWAO 110308
SPECI CYXS 110308Z AUTO 17025G35KT 7SM CLR M02/M07 A2911 RMK PRESFR PCPN MISG SLP891=


651 
SPPA41 KWBC 110309
SPECI
PGSN 110305Z 05011G17KT 10SM BKN022 30/25 A2982=


653 
SPAK32 KWBC 110309
SPECI
PACZ 110304Z AUTO 03040G47KT 240V150 5SM -SN BKN014 M18/M20 A2977=


654 
SPUS81 KWBC 110309
SPECI
KJAN 110305Z 18011KT 10SM SCT022 BKN029 OVC047 23/19 A2988=


657 
SPAK31 KWBC 110309
SPECI
PATQ 110306Z AUTO 07003KT 3SM -SN BR OVC028 M19/M21 A2938=


658 
SAPQ31 KWBC 110300 RRA
METAR
PGSN 110305Z 05011G17KT 10SM BKN022 30/25 A2982=
PTTP 110252Z 08003KT 15SM SCT018 BKN300 32/25 A2976=


659 
SAPA41 KWBC 110300 RRA
METAR
PGSN 110305Z 05011G17KT 10SM BKN022 30/25 A2982=


660 
SPAK31 KWBC 110309
SPECI
PACD 110305Z AUTO 32035G41KT 3SM -SN FEW029 OVC036 M04/M08 A2981=


661 
SPBX31 KWBC 110309
SPECI
EBDT 110303Z AUTO VRB01KT 1500 BR FEW004/// OVC025/// 03/03 Q1009
AMB=


663 
SPPQ31 KWBC 110309
SPECI
PGSN 110305Z 05011G17KT 10SM BKN022 30/25 A2982=


664 
SPNL31 KWBC 110309
SPECI
EHEH 110304Z AUTO VRB01KT 1900 BR FEW002 SCT003 BKN005 01/01 Q1008
YLO=


670 
SPNL31 KWBC 110309
SPECI
EHLW 110304Z AUTO 19005KT 4800 BR NCD M02/M02 Q1007 GRN=


672 
SPNL31 KWBC 110309
SPECI
EHWO 110303Z AUTO VRB02KT 9999 FEW009 BKN023 BKN027 05/05 Q1008
WHT=


676 
SPPA31 KWBC 110309
SPECI
PGSN 110305Z 05011G17KT 10SM BKN022 30/25 A2982 RMK AO2 T03000250
$=


678 
SPAK32 KWBC 110309
SPECI
PATC 110302Z AUTO 36029G34KT 3/4SM -SN BKN017 M21/M24 A2981=


824 
SAUS17 KAWN 110300 RRF
METAR K79J 110256Z AUTO VRB04KT 10SM BKN014 OVC021 23/21 A3004 RMK
      AO2 SLP167 T02330206 51004=
METAR KCVS 110256Z AUTO 32021G27KT 10SM CLR 07/M08 A2994 RMK AO2 PK
      WND 29036/32 PRESRR SLP120 T00661085 52048=
METAR KDMA 110256Z 25004KT 10SM SCT180 11/05 A3010 RMK AO2 SLP181 T01090050
      52015 $=
METAR KFEW 110256Z AUTO 31013G18KT 10SM CLR M08/M15 A2987 RMK AO2 SLP177
      T10781153 52020 $=
METAR KFFO 110256Z 16010KT 3SM BR OVC004 14/14 A2971 RMK AO2A CIG 003
      RWY05L SLP064 60001 T01380136 57035=
METAR KMTC 110256Z 13012KT 5SM -RA OVC018 08/05 A2969 RMK AO2A SLP068
      ALSTG/SLP ESTMD P0006 60006 57052 $=


825 
SPUS81 KWBC 110309
SPECI
PACD 110305Z AUTO 32035G41KT 3SM -SN FEW029 OVC036 M04/M08 A2981=


826 
SACO20 SKBO 110300
METAR SKSP 110300Z 08008KT 050V120 9999 FEW015 BKN200 27/23 Q1012 RMK
A2990=
METAR SKPV 110300Z NIL=
METAR SKSM 110300Z 05003KT 9999 NSC 26/18 Q1009 RMK A2979=
METAR SKCG 110300Z 03003KT CAVOK 26/23 Q1008 RMK A2978=
METAR SKBQ 110300Z 03010KT CAVOK 27/22 Q1008 NOSIG RMK A2977=
METAR SKRH 110300Z NIL=
METAR SKVP 110300Z 04014KT 9999 FEW020 28/16 Q1012 RMK A2988=
METAR SKMR 110300Z 00000KT 9999 FEW012 25/24 Q1008 RMK A2977=
METAR SKLC 110300Z NIL=
METAR SKEJ 110300Z NIL=
METAR SKBG 110300Z VRB02KT 9999 FEW010 SCT040 BKN270 21/21 Q1014 RMK
A2995=
METAR SKCC 110300Z VRB02KT 9999 SCT017 SCT080 24/23 Q1014 RMK A2994=
METAR SKUC 110300Z NIL=
METAR SKMD 110300Z NIL=
METAR SKRG 110300Z 32003KT 9999 SCT010 BKN200 15/14 Q1023 NOSIG RMK
A3023=
METAR SKPC 110300Z 01003KT 9999 NSC 28/23 Q1008 RMK A2976=
METAR SKUI 110300Z NIL=
METAR SKMZ 110300Z NIL=
METAR SKPE 110300Z 09008KT 9999 SCT010 SCT070 21/17 Q1016 RMK A3001=
METAR SKAR 110300Z 00000KT 9999 BKN020 SCT090 19/18 Q1016 RMK A3001=
METAR SKIB 110300Z NIL=
METAR SKBO 110300Z VRB02KT 9999 SCT015 SCT070 14/12 Q1025 NOSIG RMK
A3027=
METAR SKVV 110300Z NIL=
METAR SKCL 110300Z 35003KT 9999 FEW040 BKN150 21/18 Q1014 NOSIG RMK
A2996=
METAR SKNV 110300Z VRB02KT 9999 NSC 24/22 Q1011 RMK A2985=
METAR SKPS 110300Z NIL=
METAR SKIP 110300Z NIL=
METAR SKLT 110300Z 00000KT 9999 SCT010 BKN080 24/24 Q1008 RMK A2978=


827 
SANA35 KAWN 110300 RRE
METAR KNHK 110252Z 12004KT 10SM OVC036 11/08 A3008 RMK AO2 SLP186 60000
      T01060083 56007 $=
METAR KNPA 110256Z 16008KT 5SM BR OVC004 22/21 A3002 RMK AO2 SLP168
      T02170206 51009 $=
METAR MKJP 110300Z 30005KT 9999 FEW022 26/21 Q1014=
METAR TNCM 110300Z 05017KT 9999 SCT018 27/22 Q1016=
METAR TTPP 110300Z 00000KT 9999 FEW016 25/23 Q1010 NOSIG=


099 
SPCN42 CWAO 110308
SPECI CYVL 110308Z AUTO 06006KT 030V090 8SM -SN BKN013 M20/M21 A2903 RMK SLP867=


247 
SAAO32 GOOY 110300
METAR GABS 110300Z 08006KT CAVOK 21/03 Q1010 NOSIG=
METAR GAGO 110300Z NIL=
METAR GAKD 110300Z NIL=
METAR GAKL 110300Z NIL=
METAR GAMB 110300Z 06004KT CAVOK 18/07 Q1009=
METAR GANR 110300Z NIL=
METAR GATB 110300Z NIL=


251 
SAAO30 GOOY 110300
METAR GOOY 110300Z 32004KT CAVOK 21/19 Q1008=
METAR GOBD 110300Z 01013KT CAVOK 20/15 Q1009 NOSIG=
METAR GOGS 110300Z NIL=
METAR GOOK 110300Z 36004KT CAVOK 23/13 Q1008=
METAR GOSS 110300Z NIL=
METAR GOTK 110300Z 32004KT CAVOK 21/14 Q1008=
METAR GOTT 110300Z NIL=
METAR GOGG 110300Z VRB02KT CAVOK 20/18 Q1008=


478 
SAHK31 VHHH 110300
METAR VHHH 110300Z 33007KT 280V030 9999 FEW035 23/15 Q1022 NOSIG=
METAR RCTP 110300Z 03022KT 9999 SCT006 BKN008 22/19 Q1021 NOSIG
RMK A3017=
METAR RCKH 110300Z 36005KT 310V060 9999 FEW018 27/14 Q1020 NOSIG
RMK A3013=
METAR RCSS 110300Z 08010KT 9999 FEW015 SCT030 26/20 Q1021 NOSIG
RMK A3017=
METAR RCMQ 110300Z 35008KT 9999 FEW010 SCT025 23/16 Q1021 NOSIG 
RMK A3016=
METAR RCNN 110300Z 01002KT 9000 FEW012 SCT100 25/15 Q1020 NOSIG 
RMK A3014=
METAR RCFN 110300Z 02005KT 310V080 9999 FEW030 BKN080 25/16 Q1022
NOSIG RMK A3020=
METAR VMMC 110300Z 01007KT CAVOK 22/17 Q1022 NOSIG=
METAR RPLL 110300Z 29004KT 250V330 9000 SCT023 BKN100 29/22 
Q1013 NOSIG RMK A2991=
METAR RPVM 110300Z 03011KT 9999 FEW020 BKN100 29/24 Q1011 RMK 
A2985=
METAR RPMD 110300Z 36005KT 330V040 9999 SCT016 31/25 Q1010 RMK 
A2983=
METAR RPLB 110300Z 05015G27KT 9999 FEW020 SCT080 BKN300 30/20 
Q1014 NOSIG RMK A2994=
METAR RPLI 110300Z 36010KT 330V030 9999 FEW018 BKN280 31/21 
Q1014 NOSIG RMK A2994=
METAR RPMZ 110300Z 26007KT 9999 FEW016CB FEW017 BKN090 29/25 
Q1010 RMK A2983 CB NW-NE/S-SW/OHD=


479 
SAXN17 KAWN 110300 RRF
METAR AYPY 110300Z 32015KT 9999 SHRA SCT025 BKN045 29/24 Q1006=
METAR MKJP 110300Z 30005KT 9999 FEW022 26/21 Q1014=
METAR NCRG 110300Z AUTO 12004KT 070V160 9999 BKN033/// 26/23 Q1013=
METAR PGUA 110256Z COR 10012KT 10SM FEW009 SCT016 BKN023 28/24 A2982
      RMK AO2A RAE0159 SLP088 P0000 60001 T02760242 57021 $ COR 0307=
METAR PHNG 110257Z 08012G18KT 10SM FEW025 25/19 A3003 RMK AO2 SLP164
      T02500189 53003 $=
METAR RJAA 110300Z 21004KT 180V270 9999 FEW025 13/05 Q1021 NOSIG RMK
      1CU025 A3017=
METAR RJCC 110300Z 18009KT 9999 FEW020 SCT050 BKN100 08/04 Q1017 RMK
      1CU020 3CU050 7AC100 A3005=
METAR RJFF 110300Z VRB02KT 9999 FEW030 BKN/// 16/10 Q1024 BECMG 30006KT
      RMK 1CU030 A3026=
METAR RJFK 110300Z 10003KT 050V130 9999 FEW025 17/10 Q1024 RMK 1CU025
      A3026=
METAR RJOO 110300Z 18003KT 120V250 9999 FEW020 BKN070 15/08 Q1024 RMK
      1CU020 6AC070 A3025=
METAR RJTT 110300Z 16005KT 120V200 9999 FEW020 12/07 Q1021 NOSIG RMK
      1CU020 A3018=
METAR RKSS 110300Z 26002KT 1700 1000SE R32L/1100N R32R/1800N BR BKN005
      05/05 Q1027 BECMG 3500=
METAR ROAH 110300Z 11008KT 9999 SCT035 24/13 Q1023 RMK 3CU035 A3021=
METAR SVMG 110303Z AUTO 07007KT NCD 26/24 Q1012=
METAR SVMI 110303Z AUTO 09002KT NCD ///// Q1013=
METAR TGPY 110300Z 06006KT 9999 FEW017 26/22 Q1011=
METAR TNCC 110300Z AUTO 09008KT 9999 FEW016TCU BKN040 26/23 Q1012 TEMPO
      07010G25KT 5000 SHRA SCT015TCU BKN030=
METAR TTCP 110300Z 06004KT 9999 FEW017 26/22 Q1010 NOSIG=
METAR TTPP 110300Z 00000KT 9999 FEW016 25/23 Q1010 NOSIG=
METAR ZGGG 110300Z VRB01MPS 8000 BKN060 22/14 Q1023 NOSIG=


566 
SAAK41 KNKA 110309
SPECI PAFA 110307Z 25005KT 2SM -SN BR BKN020 OVC030 M12/M15 A2903 
    RMK AO2 P0000 T11171150=
SPECI PAIL 110302Z 33017G35 KT 6SM BLSN BKN011 OVC028 M11/M15 A2910 
     RMK AO2 PK WND 32035/0255 PRESRR DRSN T11061150 =
SPECI PAOO 110308Z AUTO 29021G32KT 1/4SM +SN FZFG FEW009 OVC018 
    M15/M16 A2987 RMK AO2 PK WND 30032/0300 P0000 FZRANO TSNO $=
SPECI PFKT 110308Z AUTO 32015KT 1 1/2SM -SN BR OVC015 M21/M23 A2984 
    RMK AO2 P0000 FZRANO=


691 
SAAO33 GOOY 110300
METAR GQPP 110300Z 03012KT 8000 NSC 17/11 Q1014 NOSIG=
METAR GQNO 110300Z 03008KT 8000 NSC 21/M10 Q1010 NOSIG=
METAR GQPA 110300Z NIL=
METAR GQNI 110300Z NIL=
METAR GQPZ 110300Z NIL=
METAR GUCY 110300Z NIL=
METAR GUXN 110300Z NIL=
METAR GULB 110300Z NIL=
METAR GUNZ 110300Z NIL=


698 
SAAO34 GOOY 110300
METAR GBYD 110300Z 00000KT 9000 SKC 19/15 Q1008=
METAR GFLL 110300Z NIL=
METAR GLRB 110300Z NIL=
METAR GVAC 110300Z 04013KT 9999 FEW014 SCT100 21/17 Q1012 NOSIG=
METAR GVBA 110300Z NIL=
METAR GVNP 110300Z 03016KT 9999 FEW020 22/18 Q1011 NOSIG=
METAR GVSV 110300Z 06017KT 9000 SCT022 21/16 Q1012 NOSIG=


264 
SADL43 EDZW 110300
METAR ETAD 110256Z AUTO 27003KT 9999 SCT011 BKN017 00/M00 A2975 RMK
      AO2 CIG 012V017 SLP084 T00031004 52039 FZRANO TSNO=
METAR ETAR 110256Z 26004KT 9999 OVC017 02/02 A2973 RMK AO2A CIG 015
      RWY08 SLP082 T00200020 52040=
METAR ETIH 110256Z AUTO 22003KT 9999 BKN007 OVC012 01/M01 A2964 RMK
      AO2 FZRAB15E25RAB25E52RAB52E52 SLP061 P0001 60002 T00091006
      52026=
METAR ETIK 110256Z AUTO 27004KT 4000 BR OVC007 01/01 A2969 RMK AO2
      DZB0157E26 SLP071 P0000 60000 T00070007 52035=
METAR ETOR 110300Z NIL=
METAR ETOU 110256Z AUTO 31006KT 9999 SCT028 BKN041 02/M02 A2973 RMK
      AO2 SLP077 T00221021 52037 FZRANO=


511 
SPCN46 CWAO 110309
SPECI CYRQ 110309Z AUTO 03004KT 7SM OVC024 M06/M06 A3014 RMK SLP214=


575 
SAHW40 PHFO 110309 COR
MTRBKH
SPECI PHBK 110305Z AUTO 03004KT 4SM -RA OVC036 24/21 A3004 RMK AO2 
P0000 T02390206


664 
SAMS33 WMKK 110300
NIL

681 
SAAO32 GOOY 110300 RRA
METAR GANR 110300Z 00000KT CAVOK 17/03 Q1011=


698 
SAID33 WIII 110300
METAR WATT 110300Z 32006KT 9999 FEW015CB SCT015 32/28 Q1008 NOSIG RMK
CB TO N=
METAR WAQQ 110300Z 03005KT 9000 -RA FEW015 BKN100 28/25 Q1010 TEMPO
FM0230 TL0330 -RA=
METAR WAJJ 110300Z 30012KT 9999 SCT013 33/23 Q1005 NOSIG=
METAR WAHS 110300Z 32005KT 7000 SCT014 30/24 Q1010 NOSIG=
METAR WAYY NIL=
METAR WAKK NIL=
METAR WAPP NIL=
METAR WILL NIL=

703 
SAMS33 WMKK 110300
METAR WMAU 110300Z VRB10KT 7000 SCT025 29/25 Q1012=
METAR WMBA 110300Z VRB03KT 9999 FEW021 29/25 Q1012=
METAR WMKA 110300Z 08009KT 020V170 9999 FEW020 30/22 Q1013=
METAR WMKB 110300Z 08005KT 030V110 8000 FEW020 30/23 Q1012 NOSIG=
METAR WMKC 110300Z 07011KT 040V110 9999 SCT018 29/24 Q1014=
METAR WMKD 110300Z 35006KT 280V060 9999 FEW025 27/24 Q1013 NOSIG=
METAR WMKE 110300Z 02007KT 330V070 9999 FEW014CB SCT017 28/24 Q1013=
METAR WMKI 110300Z VRB03KT 9999 FEW019 29/23 Q1012=
METAR WMKL 110300Z 07007KT 350V120 9999 FEW020 31/22 Q1013=
METAR WMKM 110300Z 02006KT 330V130 9999 FEW020 29/23 Q1013=
METAR WMKN 110300Z 04009KT 350V080 9999 SCT018 29/24 Q1014=

711 
SAMS34 WMKK 110300
METAR WBGB 110300Z NIL=
METAR WBGR 110300Z VRB03KT 9999 SCT014 29/25 Q1011=
METAR WBGS 110300Z 25004KT 160V310 9999 SCT014 30/26 Q1011=
METAR WBGY 110300Z VRB02KT 9999 SCT016 30/25 Q1011=
METAR COR WBKL 110300Z VRB04KT 9999 SCT015 29/26 Q1011=
METAR WBKS 110300Z 25007G19KT 210V280 0800 +TSRA SCT005 FEW016CB
SCT030 24/24 Q1010=
METAR WBKT 110300Z VRB02KT 8000 -RA FEW010 SCT033 26/25 Q1011=
METAR WBKW 110300Z 24004KT 160V300 9999 VCSH FEW016CB 31/25 Q1010=

713 
SASD20 OEJD 110300
METAR OEAB 110300Z 00000KT CAVOK 04/M09 Q1026 NOSIG=
METAR OEAH 110300Z 30006KT CAVOK 12/07 Q1022 NOSIG=
METAR OEAO 110300Z 00000KT 9999 FEW040 14/M03 Q1021=
METAR OEAR 110300Z 09003KT CAVOK 22/13 Q1016=
METAR OEBA 110300Z 14004KT CAVOK 08/04 Q1023 NOSIG=
METAR OEBH 110300Z 10003KT CAVOK 07/M03 Q1022 NOSIG=
METAR OEDF 110300Z 29009KT CAVOK 13/04 Q1021 NOSIG=
METAR OEDM 110300Z NIL=
METAR OEDR 110300Z 27010KT CAVOK 14/07 Q1020=
METAR OEGN 110300Z 14007KT CAVOK 22/16 Q1015 NOSIG=
METAR OEGS 110300Z 00000KT CAVOK 07/03 Q1024=
METAR OEGT 110300Z 13006KT CAVOK 07/00 Q1021 NOSIG=
METAR OEHL 110300Z 17004KT CAVOK 05/M01 Q1025=
METAR OEJB 110300Z AUTO 28010KT CAVOK 12/04 Q1022 NOSIG=
METAR OEJN 110300Z 11003KT 8000 NSC 25/00 Q1013 NOSIG=
METAR OEKJ 110300Z 26005KT 8000 NSC 12/03 Q1027=
METAR OEKK 110300Z NIL=

006 
SPCN47 CWAO 110309
SPECI CYXR 110309Z AUTO 07002KT 2 1/2SM BR SCT130 BKN150 OVC170 M09/M10 A2993 RMK ICE SLP156=


067 
SAIO31 FMMI 110300
METAR FMMI 110300Z VRB02KT 9999 FEW017 16/15 Q1021 NOSIG=
METAR FMMT 110300Z 24005KT 210V270 7000 -RA FEW007 SCT017 BKN033
22/21 Q1016 NOSIG=
METAR FMNM 110300Z 19003KT 9999 FEW020CB 26/23 Q1013 NOSIG=
METAR FMSD 110300Z 08016KT 9999 FEW016 26/22 Q1015=
METAR FMNN 110300Z 20002KT 9999 FEW020 22/// Q1013=
METAR FMNA 110300Z 14010KT 9999 FEW020 25/21 Q1012=
METAR FMMS 110300Z 10008KT 9999 VCSH BKN017 26/22 Q1015=


267 
SAAF34 KWBC 110300 RRB
METAR
FBSK 110300Z 10006KT CAVOK 21/16 Q1016 NOSIG=
FYWB 110300Z AUTO 02008KT //// // ////// 13/12 Q1012=


268 
SAAF32 KWBC 110300 RRA
METAR
FHAW 110250Z 13013KT 9999 FEW013 BKN025 24/20 Q1010 TEMPO
     SCT012=


270 
SPUS70 KWBC 110310
SPECI
KALO 110306Z AUTO 36010KT 2 1/2SM BR OVC006 02/M01 A2936 RMK AO2
     T00171006=
KEWB 110306Z 00000KT 10SM SCT025 02/02 A3016 RMK AO2 T00220017=
KEWN 110306Z AUTO 00000KT 2 1/2SM BR BKN015 BKN020 16/16 A3014 RMK
     AO2 T01610156 $=
KHYR 110306Z AUTO 03009KT 3/4SM -SN BR VV010 M03/M05 A2968 RMK AO2
     PRESFR P0000 T10281050=
KLWV 110306Z AUTO 17018KT 10SM SCT009 SCT014 BKN045 18/17 A2953
     RMK AO2 T01780167=
KMGY 110306Z AUTO 17011KT 2 1/2SM BR OVC002 15/14 A2970 RMK AO2
     T01500139=
KMIE 110306Z AUTO 16012G20KT 2 1/2SM BR OVC003 16/13 A2956 RMK AO2
     RAE0256 PRESFR P0000 T01560133=
KRAC 110306Z AUTO 13003KT 1SM RA BR VV003 07/07 A2940 RMK AO2
     P0005 T00720067=
KRST 110306Z 02018G27KT 3/4SM R31/5000V6000FT -SN BR BKN007 OVC010
     M02/M03 A2946 RMK AO2 PK WND 02027/0258 P0001 T10221033=
KSQI 110307Z VRB05KT 2SM +RA BR FEW007 BKN010 OVC030 10/10 A2930
     RMK AO2 VIS 3/4V5 P0016=
PABA 110302Z AUTO 28028KT 1/4SM +SN FZFG OVC021 M19/M21 A2936 RMK
     AO2 PK WND 28030/0301 PRESFR P0000 FZRANO=
PAGS 110307Z AUTO 12011KT 2SM -SN BR BKN005 BKN012 OVC085 M01/M02
     A2887 RMK AO2 CIG 003V009 P0000 FZRANO=
PAGY 110306Z AUTO 20016G27KT 2 1/2SM -SN BR FEW013 SCT023 OVC036
     01/M01 A2882 RMK AO2 PK WND 21027/0300 SNB0254 P0000
     T00111011 TSNO $=
PAIL 110302Z 33017G35 KT 6SM BLSN BKN011 OVC028 M11/M15 A2910 RMK
     AO2 PK WND 32035/0255 PRESRR DRSN T11061150=
PAOO 110308Z AUTO 29021G32KT 1/4SM +SN FZFG FEW009 OVC018 M15/M16
     A2987 RMK AO2 PK WND 30032/0300 P0000 FZRANO TSNO $=
KBKX 110308Z AUTO 34008KT 8SM UP FEW008 BKN031 OVC039 M03/M04
     A2974 RMK AO2 UPB06SNE06 P0000 FZRANO=
KPWK 110307Z 12008KT 090V150 1 3/4SM RA BR OVC002 09/08 A2933 RMK
     AO2 LTG DSNT SW P0002 T00890078=
KUGN 110307Z 02005KT 1 1/2SM +RA BR OVC004 08/07 A2933 RMK AO2
     PRESFR P0012 T00780072=
KVIH 110307Z AUTO 20013G24KT 8SM -RA SCT055 BKN070 OVC100 15/14
     A2946 RMK AO2 PK WND 23030/0257 LTG DSNT NE AND E TSE01 P0002
     T01500139=


274 
SAAS33 KWBC 110305
METAR
VBRR NIL=
VDPP 110300Z 05015KT 9999 FEW017 27/18 Q1014=
VDSR 110300Z VRB01KT 9999 FEW015 28/18 Q1015=
VLVT 110300Z 34004KT 7000 NSC 25/18 Q1019 NOSIG=
VTBA NIL=
VTBD 110300Z VRB03KT CAVOK 28/19 Q1016 NOSIG=
VTBU 110300Z 02008KT 9999 FEW025 30/19 Q1015 NOSIG=
VTCC 110300Z VRB02KT 9999 FEW035 24/18 Q1019 NOSIG=
VTSP 110300Z 09009KT 050V110 9999 FEW020 29/23 Q1013 NOSIG=
VTSS 110300Z 07010KT 040V100 9999 SCT020 BKN100 28/24 Q1014
     NOSIG=
VVDN 110300Z 31002KT 6000 SCT013 BKN050 22/21 Q1020 NOSIG=
VVGL NIL=
VVNB 110300Z NIL=
VVTS 110300Z VRB02KT 7000 FEW017 BKN050 27/19 Q1014 NOSIG=
WBGG 110300Z NIL=
WBGG 110300Z VRB02KT 9999 SCT016 29/24 Q1012 NOSIG=
WBKK 110300Z NIL=
WBKK 110300Z VRB02KT 7000 -RA FEW013 FEW016CB SCT035 26/25 Q1011
     RERA NOSIG=
WMAM NIL=
WMKJ 110300Z VRB04KT 9999 FEW017TCU SCT018 29/25 Q1012=
WMKK 110300Z NIL=
WMKK 110300Z VRB01KT 9999 VCSH FEW018 29/24 Q1012 NOSIG=
WMKP 110300Z NIL=
WMKP 110300Z 06006KT 010V100 9000 FEW020 29/23 Q1012 NOSIG=
WMSA 110300Z VRB03KT 9999 FEW018 29/23 Q1013=
WPDL NIL=
WPEC NIL=
WSAP 110300Z 04013KT 9999 SCT018 FEW020TCU BKN300 30/24 Q1012=
WSSL 110300Z 03010KT 9999 SCT018 FEW020TCU BKN300 30/24 Q1012=
WSSS 110300Z 35010KT 9000 FEW018 FEW020TCU BKN300 30/25 Q1012
     NOSIG=


275 
SACA31 TNCC 110305

METAR TNCC 110300Z AUTO 09008KT 9999 FEW016TCU BKN040 26/23 Q1012 TEMPO 07010G25KT 5000 SHRA SCT015TCU BKN030=

278 
SACI31 KWBC 110300 RRA
METAR
RCKH 110300Z 36005KT 310V060 9999 FEW018 27/14 Q1020 NOSIG RMK
     A3013=
RCSS 110300Z 08010KT 9999 FEW015 SCT030 26/20 Q1021 NOSIG RMK
     A3017=
RCTP 110300Z 03022KT 9999 SCT006 BKN008 22/19 Q1021 NOSIG RMK
     A3017=


279 
SAAO33 KWBC 110300 RRA
METAR
GFLL 110300Z NIL=
GGOV 110300Z NIL=
GLRB 110300Z NIL=
GOGG 110300Z VRB02KT CAVOK 20/18 Q1008=
GOGS 110300Z NIL=
GOOY 110300Z 32004KT CAVOK 21/19 Q1008=
GOSS 110300Z NIL=
GOTT 110300Z NIL=
GUCY 110300Z NIL=
GULB 110300Z NIL=
GUNZ 110300Z NIL=


281 
SASD21 OEJD 110300
METAR OEKM 110300Z 12005KT CAVOK 07/M06 Q1026 NOSIG=
METAR OEMA 110300Z 07003KT 6000 NSC 16/M01 Q1023 NOSIG=
METAR OEMK 110300Z NIL=
METAR OENG 110300Z 24004KT CAVOK 07/M02 Q1024 NOSIG=
METAR OEPA 110300Z 30004KT CAVOK 07/01 Q1025 NOSIG=
METAR OERF 110300Z 000000KT CAVOK 06/M03 Q1025 NOSIG=
METAR OERK 110300Z 29002KT CAVOK 09/01 Q1025 NOSIG=
METAR OERY 110300Z NIL=
METAR OERR 110300Z 00000KT CAVOK 08/01 Q1024 NOSIG=
METAR OESH 110300Z 00000KT CAVOK 13/03 Q1022 NOSIG=
METAR OESK 110300Z 12010KT CAVOK 10/01 Q1026=
METAR OETB 110300Z 21003KT 8000 NSC 11/M01 Q1020 NOSIG=
METAR OETF 110300Z 00000KT CAVOK 08/M06 Q1023 NOSIG=
METAR OETR 110300Z 12014KT CAVOK 08/04 Q1023 NOSIG=
METAR OEWD 110300Z 12007KT CAVOK 11/06 Q1022 NOSIG=
METAR OEWJ 110300Z 06005KT CAVOK 21/06 Q1014 NOSIG=
METAR OEYN 110300Z 11007KT CAVOK 19/03 Q1012 NOSIG=


283 
SPXX60 KWBC 110310 CCA
SPECI
PHBK 110305Z AUTO 03004KT 4SM -RA OVC036 24/21 A3004 RMK AO2 P0000
     T02390206=
PHBK 110305Z AUTO 03004KT 4SM -RA OVC036 24/21 A3004 RMK AO2 P0000
     T02390206=


285 
SAUS70 KWBC 110310
METAR
KD50 110315Z AUTO 20010KT 10SM CLR M10/M13 A2970 RMK AO2=
KJYO 110315Z AUTO 16003KT 10SM OVC020 10/06 A3007 RMK AO2=
KRCZ 110315Z AUTO 17004KT 4SM BR OVC004 12/11 A3013 RMK AO2
     T01160111=
KSIK 110315Z AUTO 18013G22KT 10SM -RA SCT009 BKN019 OVC050 21/20
     A2957 RMK AO2 TSNO=
KMDS 110235Z AUTO 35013KT 10SM UP OVC024 M03/M03 A2975 RMK AO2
     P0012=
K2C8 110315Z AUTO 10SM CLR M08/M11 A2970 RMK AO2=
KEFT 110315Z AUTO 06009KT 3/4SM RA OVC002 03/03 A2932 RMK AO2 LTG
     DSNT W P0006 T00330025=
KI43 110315Z AUTO 18006KT 10SM OVC015 15/13 A2982 RMK AO2=
KLDJ 110315Z AUTO 00000KT 10SM SCT055 SCT070 BKN090 07/01 A3012
     RMK AO2 T00690005=
KS32 110315Z AUTO 26010KT 10SM CLR M12/M12 A2974 RMK AO2 TSNO=
KSUW 110315Z AUTO 00000KT 10SM OVC060 M04/M06 A2975 RMK AO2
     T10391057=


286 
SPUS80 KWBC 110310
SPECI
KAST 110306Z AUTO 19015G28KT 5SM -RA BR FEW015 BKN028 OVC037 09/07
     A2991 RMK AO2 PK WND 20028/0303 P0000 T00940072=
KDBQ 110306Z 35013G18KT 2 1/2SM -SN BR OVC002 03/02 A2933 RMK AO2
     LTG DSNT E CIG 001V006 P0000 T00280022=
PAFA 110307Z 25005KT 2SM -SN BR BKN020 OVC030 M12/M15 A2903 RMK
     AO2 P0000 T11171150=
KLWD 110307Z AUTO 31015G24KT 2SM BR OVC002 03/02 A2936 RMK AO2
     T00280017=
KLXV 110307Z AUTO 30009G26KT 4SM -SN OVC027 M16/M20 A2988 RMK AO2
     PK WND 32026/0302 P0000 T11561200=


287 
SAAF31 KWBC 110300 RRA
METAR
DIBK 110300Z NIL=


288 
SAAG41 KWBC 110300
METAR
SAAC NIL=
SAAV NIL=
SAGS NIL=
SANE NIL=
SANT 110300Z 27005KT 5000 TS BR SCT045 FEW050CB BKN060 21/20
     Q1010=
SANU NIL=
SAOR NIL=
SARL 110300Z 25002KT CAVOK 21/19 Q1007=
SATM NIL=
SAVC 110300Z 17009KT 8000 SCT006 BKN008 14/12 Q1003 RMK PP000=
SAVT NIL=
SAZB NIL=
SAZN 110300Z 05008KT CAVOK 26/14 Q1004=


290 
SAAS32 KWBC 110305
METAR
RKPC 110300Z 33006KT 300V360 8000 BKN025 12/08 Q1027 NOSIG=
RKPK 110300Z 29005KT CAVOK 14/02 Q1025=
RKSS 110300Z 26002KT 1700 1000SE R32L/1100N R32R/1800N BR BKN005
     05/05 Q1027 BECMG 3500=
VHHH 110300Z 33007KT 280V030 9999 FEW035 23/15 Q1022 NOSIG=
VMMC 110300Z 01007KT CAVOK 22/17 Q1022 NOSIG=
ZJSY 110300Z 20002MPS 150V250 CAVOK 27/18 Q1019 NOSIG=
ZKPY NIL=


291 
SAAG31 KWBC 110300
METAR
SAAG NIL=
SAAP NIL=
SAAR 110300Z 04001KT CAVOK 19/17 Q1009 RMK PP000=
SABE 110300Z 10006KT CAVOK 22/17 Q1009 NOSIG=
SABE 110300Z 10006KT CAVOK 22/17 Q1009 NOSIG RMK PP000=
SACO 110300Z VRB02KT 9999 OVC032 18/17 Q1010 NOSIG RMK PP000=
SADD NIL=
SAEZ 110300Z 10004KT CAVOK 20/17 Q1009 NOSIG=
SAEZ 110300Z 10004KT CAVOK 20/17 Q1009 NOSIG RMK PP000=
SAME 110300Z 36005KT 9999 FEW040 22/17 Q1009=
SAME 110300Z NIL=
SARC 110300Z 14005KT CAVOK 24/16 Q1006=
SARC 110300Z NIL=
SARE 110300Z 14009KT CAVOK 25/15 Q1007 RMK PP///=
SARF 110300Z 16007KT CAVOK 26/19 Q1006=
SARI 110300Z 00000KT CAVOK 23/16 Q1007=
SARP 110300Z 14008KT CAVOK 27/18 Q1007=
SASA 110300Z 00000KT 9000 -RA SCT012 OVC040 19/18 Q1013=
SASJ 110300Z 32006KT 9999 FEW050 OVC120 21/19 Q1012=
SAWE 110300Z 11011KT 9999 BKN006 09/08 Q1009=
SAWE 110300Z NIL=
SAWG 110300Z VRB04KT CAVOK 11/07 Q1008=
SAZM 110300Z NIL=
SAZS 110300Z 30016KT CAVOK 17/07 Q1008 RMK PP///=


296 
SPXX60 KWBC 110310
SPECI
KLOR 110303Z AUTO 18007KT 10SM OVC007 22/21 A3005 RMK AO2
     SLP158=
KPOB 110306Z AUTO 24005KT 10SM OVC013 12/12 A3013 RMK AO2 SLP206
     $=
KTCM 110257Z COR 19018G25KT 7SM -RA FEW020 SCT036 BKN044 07/04
     A2988 RMK AO2A RAB57 SLP124 RVRNO $ COR 0304=
PACZ 110304Z AUTO 03040G47KT 240V150 5SM -SN BKN014 M18/M20 A2977
     RMK AO2 PK WND 10047/0301 WSHFT 0247 SLP099=
PATC 110302Z AUTO 36029G34KT 3/4SM -SN BKN017 M21/M24 A2981 RMK
     AO2 SLP106=
KFRI 110252Z AUTO 30014G24KT 10SM OVC021 01/M04 A2967 RMK AO2
     PRESRR SLP052=
KGUS 110301Z 16019G24KT 2 3/4SM BR OVC002 14/13 A2945 RMK AO2A VIS
     2 3/4V4 SLP977 $=
KDTS 110307Z 13008KT 3/4SM BR VV002 22/21 A3005 RMK AO2
     T02170206=


297 
SAXX60 KWBC 110300 RRL
METAR
KNEL 110300Z AUTO 00000KT OVC050 06/03 A3011 RMK AO2 SLP196
     T00560028 58009 $=
KNHK 110252Z 12004KT 10SM OVC036 11/08 A3008 RMK AO2 SLP186 60000
     T01060083 56007 $=
KNHK 110252Z 12004KT 10SM OVC036 11/08 A3008 RMK AO2 SLP186 60000
     T01060083 56007 $=
KNPA 110256Z 16008KT 5SM BR OVC004 22/21 A3002 RMK AO2 SLP168
     T02170206 51009 $=
KNPA 110256Z 16008KT 5SM BR OVC004 22/21 A3002 RMK AO2 SLP168
     T02170206 51009 $=
KNUW 110256Z 15024G35KT 10SM SCT020 BKN025 OVC040 08/04 A2980 RMK
     AO2 PK WND 15040/0205 SLP092 T00830044 56048 PNO=
KNXP 110256Z AUTO 28004KT 10SM CLR 07/M11 A3026 RMK AO2 SLP237
     T00671111 51013=
KNZY 110252Z 31003KT 10SM FEW035 12/09 A3013 RMK AO2 SLP202
     T01220089 50006=
KNZY 110252Z 31003KT 10SM FEW035 12/09 A3013 RMK AO2 SLP202
     T01220089 50006=
KTCM 110256Z 19014KT 7SM FEW020 SCT036 BKN044 07/04 A2989 RMK AO2A
     RAB14E23RAB23E23 SLP127 P0000 60000 T00690037 57032 RVRNO
     $=
KVOK 110256Z 04006KT 7SM -SN OVC007 M00/M02 A2944 RMK AO2A SLP983
     60020 57054=
KNPA 110256Z 16008KT 5SM BR OVC004 22/21 A3002 RMK AO2 SLP168
     T02170206 51009 $=
K1J0 110258Z AUTO 17008KT 10SM BKN010 BKN014 OVC023 22/21 A3007
     RMK AO2 SLP141 T02220206 53005=
KNHK 110252Z 12004KT 10SM OVC036 11/08 A3008 RMK AO2 SLP186 60000
     T01060083 56007 $=
KNPA 110256Z 16008KT 5SM BR OVC004 22/21 A3002 RMK AO2 SLP168
     T02170206 51009 $=
TTPP 110300Z 00000KT 9999 FEW016 25/23 Q1010 NOSIG=
K79J 110256Z AUTO VRB04KT 10SM BKN014 OVC021 23/21 A3004 RMK AO2
     SLP167 T02330206 51004=
KCVS 110256Z AUTO 32021G27KT 10SM CLR 07/M08 A2994 RMK AO2 PK WND
     29036/32 PRESRR SLP120 T00661085 52048=
KDMA 110256Z 25004KT 10SM SCT180 11/05 A3010 RMK AO2 SLP181
     T01090050 52015 $=
KFFO 110256Z 16010KT 3SM BR OVC004 14/14 A2971 RMK AO2A CIG 003
     RWY05L SLP064 60001 T01380136 57035=
KMTC 110256Z 13012KT 5SM -RA OVC018 08/05 A2969 RMK AO2A SLP068
     ALSTG/SLP ESTMD P0006 60006 57052 $=
KMTC 110256Z 13012KT 5SM -RA OVC018 08/05 A2969 RMK AO2A SLP068
     ALSTG/SLP ESTMD P0006 60006 57052 $=
KNHK 110252Z 12004KT 10SM OVC036 11/08 A3008 RMK AO2 SLP186 60000
     T01060083 56007 $=
KVOK 110256Z 04006KT 7SM -SN OVC007 M00/M02 A2944 RMK AO2A SLP983
     60020 57054=
K79J 110256Z AUTO VRB04KT 10SM BKN014 OVC021 23/21 A3004 RMK AO2
     SLP167 T02330206 51004=
KDMA 110256Z 25004KT 10SM SCT180 11/05 A3010 RMK AO2 SLP181
     T01090050 52015 $=
PGUA 110256Z COR 10012KT 10SM FEW009 SCT016 BKN023 28/24 A2982 RMK
     AO2A RAE0159 SLP088 P0000 60001 T02760242 57021 $ COR
     0307=
PHNG 110257Z 08012G18KT 10SM FEW025 25/19 A3003 RMK AO2 SLP164
     T02500189 53003 $=


298 
SAUS70 KWBC 110300 RRX
METAR
KOAR 110255Z AUTO 00000KT 10SM CLR 04/00 A3023 RMK AO2=
KBUU 110255Z AUTO 06005KT 2SM 05/04 A2938 RMK AO2 P0018 60026
     T00450043 PWINO=
KHPN 110256Z 06005KT 10SM SCT060 OVC070 06/02 A3010 RMK AO2 SLP197
     T00560022 58010=
KI19 110255Z AUTO 17007KT 2 1/2SM BR OVC003 14/14 A2973 RMK AO2
     LTG DSNT W T01370137=


299 
SAAS31 KWBC 110305
METAR
VAAH 110300Z 05006KT 3000 HZ NSC 17/09 Q1018 NOSIG=
VABB 110300Z 00000KT 2500 FU FEW020 SCT100 27/17 Q1015 NOSIG=
VABG NIL=
VAGO NIL=
VANP 110300Z 01004KT 3000 HZ SCT100 20/11 Q1020 NOSIG=
VANY NIL=
VCBI NIL=
VECC NIL=
VEPT NIL=
VGEG NIL=
VGZR NIL=
VIAR 110300Z 00000KT 0800 R34/2000 MIFG FEW100 09/09 Q1019
     NOSIG=
VIBN NIL=
VIDP 110300Z 24004KT 1500 R28/2000 R29/2000 BR NSC 12/09 Q1020
     NOSIG=
VNKT NIL=
VOBG NIL=
VOCI 110300Z 10003KT 4500 HZ NSC 25/21 Q1012 BECMG 5000 HZ=
VOHY 110300Z 08005KT 4000 BR FEW020 22/19 Q1021 BECMG 5000 HZ=
VOMM 110300Z 01003KT 4000 BR SCT018 FEW025TCU SCT100 27/26 Q1015
     NOSIG=
VONY NIL=
VOTR 110300Z 01006KT 3000 BR FEW016 SCT100 27/24 Q1015 BECMG 5000
     BR=
VOTV 110300Z 00000KT 4000 BR FEW015 30/24 Q1012 BECMG 5000 HZ=
VQPR NIL=
VQTU NIL=
VRMM NIL=
VTBS 110300Z 07005KT 030V100 CAVOK 28/20 Q1016 NOSIG=


302 
SACA45 KWBC 110300 RRA
METAR
MNMG 110300Z 00000KT 9999 SCT021 SCT070 25/22 Q1012 A2989
     NOSIG=


309 
SAPQ50 KWBC 110300 RRC
METAR
PTTP 110252Z 08003KT 15SM SCT018 BKN300 32/25 A2976 RMK SLP076
     8/101 T03150254 57019=


311 
SPUS81 KWBC 110310
SPECI
KAST 110306Z AUTO 19015G28KT 5SM -RA BR FEW015 BKN028 OVC037 09/07
A2991=


312 
SAUS80 KWBC 110300 RRF
METAR
KSMP 110256Z AUTO VRB04KT 1 1/4SM -SN BR OVC004 M01/M02 A2983 RMK
     AO2 SLP128 P0002 60012 T10061017 58017=
KP53 110256Z AUTO 07006KT 00/M02 A2976 RMK AO1 PRESFR SLP084 P0001
     60001 T00001017 56027=
KP58 110255Z AUTO 11016KT 03/03 A2971 RMK AO1 PRESFR SLP070 P0001
     60001 T00330028 58052=


317 
SAIR32 OIII 110300 RRB
METAR OICC 110300Z 00000KT 7000 NSC M01/M02 Q1026 A3032=


335 
SASA31 KWBC 110300 RRB
METAR
SKCG 110300Z 03003KT CAVOK 26/23 Q1008 RMK A2978=


336 
SAIO31 KWBC 110300 RRB
METAR
FJDG 110255Z 25007KT 9999 FEW020 SCT080 BKN220 29/25 A2988 RMK
     SLP115 8/132 T02890254 52020=
FMMI 110300Z VRB02KT 9999 FEW017 16/15 Q1021 NOSIG=
FMNN 110300Z 20002KT 9999 FEW020 22/// Q1013=
WBGG 110300Z NIL=
WBGG 110300Z VRB02KT 9999 SCT016 29/24 Q1012 NOSIG=
WBKK 110300Z NIL=
WBKK 110300Z VRB02KT 7000 -RA FEW013 FEW016CB SCT035 26/25 Q1011
     RERA NOSIG=
WBSB 110300Z NIL=
WBSB 110300Z 34004KT 9999 SCT015 FEW016CB BKN140 30/27 Q1011
     NOSIG=


360 
SANZ31 KWBC 110300
METAR
NZAA 110300Z AUTO 04014KT 010V070 9999 NCD 26/18 Q1014 NOSIG=
NZCH 110300Z AUTO 21018KT 6000 -RA BKN007/// 15/13 Q1009 TEMPO
     9999 BKN011=
NZOH NIL=
NZWN 110300Z AUTO 34023G38KT 5000 HZ FEW016/// BKN021/// BKN038///
     21/17 Q1010 BECMG 9999 TEMPO 4000 RADZ BKN008=
NZWP NIL=


361 
SAPH31 KWBC 110300 RRA
METAR
RPLB 110300Z 05015G27KT 9999 FEW020 SCT080 BKN300 30/20 Q1014
     NOSIG RMK A2994=
RPLL 110300Z 29004KT 250V330 9000 SCT023 BKN100 29/22 Q1013 NOSIG
     RMK A2991=
RPMD 110300Z 36005KT 330V040 9999 SCT016 31/25 Q1010 RMK A2983=
RPMZ 110300Z 26007KT 9999 FEW016CB FEW017 BKN090 29/25 Q1010 RMK
     A2983 CB NW-NE/S-SW/OHD=
RPVM 110300Z 03011KT 9999 FEW020 BKN100 29/24 Q1011 RMK A2985=


364 
SAJP31 KWBC 110300 RRA
METAR
RJAA 110300Z 21004KT 180V270 9999 FEW025 13/05 Q1021 NOSIG RMK
     1CU025 A3017=
RJCC 110300Z 18009KT 9999 FEW020 SCT050 BKN100 08/04 Q1017 RMK
     1CU020 3CU050 7AC100 A3005=
RJFK 110300Z 10003KT 050V130 9999 FEW025 17/10 Q1024 RMK 1CU025
     A3026=
RJOO 110300Z 18003KT 120V250 9999 FEW020 BKN070 15/08 Q1024 RMK
     1CU020 6AC070 A3025=
RJTT 110300Z 16005KT 120V200 9999 FEW020 12/07 Q1021 NOSIG RMK
     1CU020 A3018=


365 
SAPR41 KWBC 110300
METAR
SPCL 110300Z 03002KT 9999 SCT020 BKN080 25/25 Q1008 RMK PP000=
SPEC NIL=
SPEI NIL=
SPEO NIL=
SPGM NIL=
SPHI 110300Z NIL=
SPHO NIL=
SPHY NIL=
SPJA NIL=
SPJI NIL=
SPJL 110300Z NIL=
SPJN NIL=
SPJR NIL=
SPME 110300Z NIL=
SPMS NIL=
SPNC NIL=
SPPY NIL=
SPRU 110300Z 14006KT 8000 VCFG OVC050 19/15 Q1014 RMK PP000=
SPST 110300Z 16003KT 9999 FEW015 SCT100 26/24 Q1008 RMK BIRD
     HAZARD RWY 17/35 PP000=
SPTU NIL=
SPUR NIL=


368 
SAAO32 KWBC 110300 RRA
METAR
GABS 110300Z 08006KT CAVOK 21/03 Q1010 NOSIG=
GAGO 110300Z NIL=
GAMB 110300Z 06004KT CAVOK 18/07 Q1009=
GANR 110300Z 00000KT CAVOK 17/03 Q1011=
GANR 110300Z NIL=
GATB 110300Z NIL=
GQNI 110300Z NIL=


372 
SAMX31 KWBC 110345
METAR
MNMG 110300Z 00000KT 9999 SCT021 SCT070 25/22 Q1012 A2989
     NOSIG=


380 
SAPA31 KWBC 110300 RRB
METAR
AYPY 110300Z 32015KT 9999 SHRA SCT025 BKN045 29/24 Q1006=
PGUA 110256Z COR 10012KT 10SM FEW009 SCT016 BKN023 28/24 A2982 RMK
     AO2A RAE0159 SLP088 P0000 60001 T02760242 57021 $ COR
     0307=
PTTP 110252Z 08003KT 15SM SCT018 BKN300 32/25 A2976 RMK SLP076
     8/101 T03150254 57019=


436 
SASA41 KWBC 110300 RRB
METAR
SKMD 110300Z NIL=
SKSM 110300Z 05003KT 9999 NSC 26/18 Q1009 RMK A2979=


453 
SAID31 KWBC 110300 RRA
METAR
WAAA 110300Z 33008KT 9000 VCSH FEW018CB SCT019 30/25 Q1010 NOSIG
     RMK CB IN APCH=
WIMM 110300Z 26006KT 9999 FEW018 29/25 Q1012 NOSIG=


455 
SAXX61 KWBC 110300 RRB
METAR
EGUN 110256Z 27007KT 9999 CLR 00/00 A2987 RMK AO2A SLP119
     T00020002 52022 $=
ETAD 110256Z AUTO 27003KT 9999 SCT011 BKN017 00/M00 A2975 RMK AO2
     CIG 012V017 SLP084 T00031004 52039 FZRANO TSNO=
ETAR 110256Z 26004KT 9999 OVC017 02/02 A2973 RMK AO2A CIG 015
     RWY08 SLP082 T00200020 52040=


456 
SASD42 KWBC 110300 RRA
METAR
OEGS 110300Z 00000KT CAVOK 07/03 Q1024=
OEGT 110300Z 13006KT CAVOK 07/00 Q1021 NOSIG=
OEHL 110300Z 17004KT CAVOK 05/M01 Q1025=
OEKK 110300Z NIL=


457 
SACI41 KWBC 110300 RRA
METAR
RCFN 110300Z 02005KT 310V080 9999 FEW030 BKN080 25/16 Q1022 NOSIG
     RMK A3020=
RCMQ 110300Z 35008KT 9999 FEW010 SCT025 23/16 Q1021 NOSIG RMK
     A3016=
RCNN 110300Z 01002KT 9000 FEW012 SCT100 25/15 Q1020 NOSIG RMK
     A3014=


464 
SACA33 KWBC 110300 RRB
METAR
TGPY 110300Z 06006KT 9999 FEW017 26/22 Q1011=


465 
SASD41 KWBC 110300 RRA
METAR
OEAH 110300Z 30006KT CAVOK 12/07 Q1022 NOSIG=
OEBA 110300Z 14004KT CAVOK 08/04 Q1023 NOSIG=
OEBH 110300Z 10003KT CAVOK 07/M03 Q1022 NOSIG=
OEGN 110300Z 14007KT CAVOK 22/16 Q1015 NOSIG=


471 
SAEW KAWN 110300 RRG
METAR LFOA 110300Z AUTO 23004KT 9999 FEW007 BKN032 M00/M00 Q1015=
METAR LFOJ 110300Z AUTO 26009KT 9999 // NSC 00/M01 Q1014=
METAR LFPM 110300Z AUTO 28005KT CAVOK 00/M00 Q1013=
METAR LFRD 110300Z AUTO 25005KT 230V290 9999 FEW034 BKN040 BKN050 06/04
      Q1017 TEMPO 4000 SHRA BKN020TCU=
METAR LFRH 110300Z AUTO VRB01KT CAVOK 06/05 Q1018 TEMPO 3500 BR=
METAR LFRI 110300Z AUTO 27003KT CAVOK 05/04 Q1018=
METAR LFRK 110300Z AUTO 26009KT 9999 FEW037 04/01 Q1015=
METAR LFRM 110300Z AUTO VRB01KT CAVOK 02/02 Q1016=
METAR LFRN 110300Z AUTO 25005KT 9999 BKN036/// BKN043/// OVC130///
      ///TCU 05/04 Q1017 TEMPO 4000 BR BECMG SCT040=
METAR LFRO 110300Z AUTO 27004KT CAVOK 08/05 Q1018=
METAR LFRQ 110300Z AUTO 26005KT CAVOK 08/06 Q1018=
METAR LFRS 110300Z AUTO 29004KT CAVOK 06/04 Q1018 NOSIG=
METAR LFYR 110300Z AUTO 25001KT 9000 NSC 00/M00 Q1016=


472 
SAXX62 KWBC 110300 RRB
METAR
FJDG 110255Z 25007KT 9999 FEW020 SCT080 BKN220 29/25 A2988 RMK
     SLP115 8/132 T02890254 52020=


475 
SPUS81 KWBC 110310
SPECI
KDBQ 110306Z 35013G18KT 2 1/2SM -SN BR OVC002 03/02 A2933=


476 
SAZA31 KWBC 110300
METAR
FABB NIL=
FABE NIL=
FABL 110300Z 15007KT 120V180 9999 SCT025 BKN080 16/13 Q1019
     NOSIG=
FABM NIL=
FACT 110300Z 32004KT 300V360 9999 SCT005 BKN012 16/15 Q1011 BECMG
     BKN025=
FADN NIL=
FAEL 110300Z 34007KT 310V010 CAVOK 22/18 Q1006=
FAGG 110300Z 26010KT 5000 -RA SCT004 BKN011 OVC018 17/17 Q1009=
FAGM NIL=
FAJS NIL=
FAKT NIL=
FALW NIL=
FALZ NIL=
FAPB NIL=
FAPE 110300Z 25007KT 9999 FEW005 BKN008 20/19 Q1007 TEMPO
     SCT009=
FAPR NIL=
FASB NIL=
FAUP 110300Z 25005KT CAVOK 16/05 Q1013 NOSIG=
FAWH NIL=
FAWK NIL=


623 
SABZ32 SBBR 110310
METAR SBAN 110300Z 36006KT 9999 VCSH VCTS BKN030 FEW035CB 20/19 Q1013=
METAR SBBR 110300Z 08009KT 9999 SCT040 SCT100 22/19 Q1014=
METAR SBCG 110300Z 07009KT CAVOK 24/13 Q1009=
METAR SBCY 110300Z 28002KT CAVOK 27/23 Q1006=
METAR SBGO 110300Z 00000KT 9999 BKN049 SCT100 24/21 Q1011=
METAR SBPJ 110300Z 02002KT 9999 -RA FEW017 SCT025 OVC070 24/23 Q1010=


627 
SABZ34 SBBR 110310
METAR SBCH 110300Z 03005KT 9999 FEW025 SCT080 24/12 Q1009=
METAR SBCO 110300Z 12006KT 9999 FEW030 17/15 Q1009=
METAR SBCT 110300Z 08006KT 9999 OVC006 16/16 Q1013=
METAR SBFI 110300Z 08001KT CAVOK 21/16 Q1007=
METAR SBFL 110300Z 00000KT 9999 FEW030 BKN050 20/17 Q1010=
METAR SBLO 110300Z 00000KT CAVOK 24/12 Q1010=
METAR SBMG 110300Z 05007KT CAVOK 23/14 Q1008=
METAR SBNF 110300Z 06004KT 9999 BKN035 22/17 Q1010=
METAR SBPA 110300Z 13009KT CAVOK 19/16 Q1009=
METAR SBSM 110300Z 09012KT CAVOK 20/14 Q1008=


636 
SAMS38 WMKK 110300 RRA
METAR WBGB 110300Z VRB03KT 9999 SCT016 30/25 Q1011=


644 
SACZ41 LKPW 110300
METAR LKKU 110300Z NIL=
METAR LKVO 110300Z NIL=


649 
SAMS34 WMKK 110300 RRA
METAR WBGB 110300Z VRB03KT 9999 SCT016 30/25 Q1011=


653 
SAIN31 EGGY 110300
METAR VOBL 110300Z 09008KT 5000 BR SCT008 SCT012 21/19 Q1019 BECMG
    6000=
METAR VOCB 110300Z 05005KT 2000 BR FEW008 SCT012 24/22 Q1017 NOSIG=
METAR VOCI 110300Z 10003KT 4500 HZ NSC 25/21 Q1012 BECMG 5000 HZ=
METAR VOCL 110300Z 08005KT 5000 HZ FEW015 26/20 Q1013 NOSIG=


797 
SPCN48 CWAO 110309
SPECI CYAH 110309Z AUTO 25017G24KT 3SM -SN SCT020 OVC027 M08/M12 A2976 RMK SLP103=


855 
SAIN90 VAPR 110300
METAR VAPR 110300Z 07009KT 6000  NSC 23/089 Q1017=

857 
SAIN90 VARK 110300
METAR VARK 110300Z 09004KT 4000 HZ NSC 20/12 Q1017 BECMG 5000 HZ=

869 
SAIN90 VIJP 110300
METAR VIJP 110300Z VIJP 110300Z VRB02KT 1600 BR NSC 13/08 Q1021 NOSIG
=

998 
SABZ30 SBBR 110310
METAR SBBE 110300Z 06004KT CAVOK 26/24 Q1007=
METAR SBBV 110300Z 22003KT 9999 -SHRA FEW030 FEW035TCU BKN070 26/24 Q1008=
METAR SBEG 110300Z 21001KT 9999 FEW001 SCT080 25/24 Q1008=
METAR SBMN 110300Z 04001KT CAVOK 26/25 Q1008=
METAR SBMQ 110300Z 33003KT 9999 SCT013 27/26 Q1007=
METAR SBPV 110300Z 32002KT 9999 FEW014 SCT045 24/23 Q1007=
METAR SBRB 110300Z 33002KT CAVOK 24/23 Q1008=
METAR SBSL 110300Z 06009KT CAVOK 28/25 Q1007=
METAR SBSN 110300Z 19002KT 9999 VCTS FEW020CB 25/25 Q1007=


006 
SAAO20 DRRN 110300
METAR DRRM 110300Z NIL=
METAR DRRN 110300Z 07005KT 8000 NSC 21/M05 Q1009 NOSIG=
METAR DRRT 110300Z 08008KT 8000 NSC 21/M10 Q1012=
METAR DRZA 110300Z NIL=
METAR DRZR 110300Z NIL=
METAR DGAA 110300Z NIL=
METAR DGTK 110300Z NIL=
METAR DGSI 110300Z NIL=
METAR DGLE 110300Z NIL=


008 
SABZ33 SBBR 110310
METAR SBBH 110300Z 10004KT CAVOK 21/17 Q1013=
METAR SBCF 110300Z 11006KT CAVOK 21/18 Q1013=
METAR SBDN 110300Z 11010KT CAVOK 23/11 Q1009=
METAR SBGL 110300Z 04007KT 9999 BKN030 BKN040 22/20 Q1011=
METAR SBGR 110300Z 08006KT CAVOK 16/15 Q1014=
METAR SBIP 110300Z AUTO 03007KT 9999 OVC026 24/20 Q1012=
METAR SBKP 110300Z 11009KT CAVOK 20/11 Q1012=
METAR SBLB 110300Z AUTO /////KT 9999 NCD 25/20 Q1011 W25/S4=
METAR SBLS 110300Z 14008KT CAVOK 21/18 Q1013=
SPECI SBLS 110303Z 14007KT CAVOK 21/19 Q1013=
METAR SBME 110300Z 33002KT CAVOK 22/22 Q1011=
METAR SBMK 110300Z 02003KT 9999 SCT004 BKN020 21/21 Q1013=
METAR SBRP 110300Z 12004KT CAVOK 22/12 Q1010=
METAR SBSC 110300Z 36005KT 9999 SCT020 BKN040 22/19 Q1011=
METAR SBSJ 110300Z 09002KT CAVOK 16/13 Q1013=
METAR SBSP 110300Z AUTO 06004KT 030V090 9999 // NCD 17/14 Q1014=
METAR SBSR 110300Z 18002KT CAVOK 25/08 Q1009=
METAR SBTA 110300Z VRB01KT 9999 SCT030 16/14 Q1013=
METAR SBUL 110300Z 16007KT CAVOK 22/13 Q1012=
METAR SBUR 110300Z 12004KT CAVOK 24/14 Q1012=
METAR SBVT 110300Z 34002KT 9999 FEW015 23/21 Q1012=


014 
SABZ31 SBBR 110310
METAR SBAR 110300Z 07009KT 9999 FEW017 27/23 Q1009=
METAR SBFN 110300Z AUTO 12010KT 9999 FEW015 SCT021 26/23 Q1010=
METAR SBFZ 110300Z 09012KT 9999 BKN020 28/24 Q1009=
METAR SBJP 110300Z 08006KT 9999 SCT020 26/23 Q1010=
METAR SBJU 110300Z 00000KT CAVOK 28/22 Q1012=
METAR SBKG 110300Z 10010KT 9999 SCT012 23/21 Q1012=
METAR SBMO 110300Z 06002KT CAVOK 24/22 Q1011=
METAR SBNT 110300Z 11009KT 9999 BKN020 27/24 Q1009=
METAR SBPL 110300Z 18007KT CAVOK 28/23 Q1009=
METAR SBPS 110300Z 24003KT 9999 BKN007 SCT020 BKN080 23/22 Q1012=
METAR SBRF 110300Z 09006KT 9999 SCT021 28/22 Q1010=
METAR SBSL 110300Z 06009KT CAVOK 28/25 Q1007=
METAR SBSV 110300Z 07010KT 9999 SCT020 BKN100 27/24 Q1010=
METAR SBTE 110300Z 00000KT CAVOK 26/24 Q1007=


020 
SABZ35 SBBR 110310
METAR COR SACO 110300Z VRB02KT 9999 OVC032 18/17 Q1010 NOSIG=
METAR COR SAEZ 110300Z 10004KT CAVOK 20/17 Q1009 NOSIG=
METAR COR SAME 110300Z 36005KT 9999 FEW040 22/17 Q1009=
METAR SGAS 110300Z 15005KT CAVOK 27/17 Q1006=
METAR SKBO 110300Z VRB02KT 9999 SCT015 SCT070 14/12 Q1025 NOSIG RMK
A3027=
METAR SKCL 110300Z 35003KT 9999 FEW040 BKN150 21/18 Q1014 NOSIG RMK
A2996=
METAR SLLP 110300Z VRB02KT 9999 FEW004 FEW017CB SCT070 BKN200 06/06
Q1035=
METAR SUMU 110300Z 07004KT CAVOK 18/14 Q1010 NOSIG=


166 
SPZZ40 KAWN 110310 RRB
SPECI CYDB 110307Z AUTO 30007KT 9SM -SN BKN120 M18/M21 A2865 RMK SLP772=
SPECI CYHE 110306Z AUTO 22005KT 200V260 6SM -RA BR FEW012 BKN031 OVC035
      03/02 A2977 RMK PRESFR SLP084=
SPECI CYPQ 110308Z AUTO 03003KT 2SM BR OVC023 M00/M00 A2994 RMK SLP150=
SPECI CYPR 110308Z AUTO VRB02KT 1SM -SN VV010 00/M01 A2913 RMK VIS
      VRB 5/8-3 ICE SLP867=
SPECI CYXS 110306Z AUTO 18024G35KT 7SM -SN CLR M02/M07 A2912 RMK SLP893=
SPECI CYZP 110307Z AUTO 23015KT 170V240 9SM -RA SCT066 SCT084 BKN100
      BKN120 02/00 A2912 RMK SLP864=
SPECI ETEB 110308Z AUTO 26005KT 9000 BR OVC004 00/M00 A2965 RMK AO2
      SLP078 FZRANO $=
SPECI KBAD 110306Z AUTO 18014KT 10SM SCT021 SCT027 24/20 A2974 RMK
      AO2 SLP072=
SPECI KFAF 110305Z AUTO 00000KT 1 7/8SM HZ OVC002 10/07 A3009 RMK AO2
      VIS 1 3/8V1 7/8 RAE02DZB02 SLP193 $=
SPECI KFBG 110306Z AUTO 22003KT 4SM BR OVC014 12/11 A3012 RMK AO2 SLP203
      $=
SPECI KHUA 110308Z AUTO 21014G20KT 10SM BKN015 OVC023 21/20 A2986 RMK
      AO2 SLP110=
SPECI KMGE 110306Z 11006KT 3/8SM R11/2400V2600FT FG VV001 12/12 A3005
      RMK AO2A $=
SPECI KVPS 110307Z 14008KT 5SM BR OVC003 22/21 A3004 RMK AO2A CIG 003V005
      SLP179 $=
SPECI KWRI 110305Z AUTO 00000KT 10SM -RA OVC050 06/03 A3012 RMK AO2
      RAB05 SLP200 $=
SPECI PHBK 110305Z AUTO 03004KT 4SM -RA OVC036 24/21 A3004 RMK AO2
      P0000 T02390206=
SPECI PHBK 110305Z AUTO 03004KT 4SM -RA OVC036 24/21 A3004 RMK AO2
      P0000 T02390206=


332 
SAAK41 KNKA 110310
SPECI PAPG 110309Z 06005KT 2 1/2SM -SN BR SCT006 BKN015 OVC035 
    00/M01 A2898 RMK AO2 P0001=
SPECI PARY 110309Z AUTO 28010G17KT 9SM -SN OVC016 M19/M23 A2926 RMK 
    AO2 P0000 FZRANO=
METAR PAWG 110307Z 08003KT 2SM -SN SCT012 BKN019 OVC050 01/M02 A2902 =


774 
SAIN90 VOBM 110300
METAR VOBM 110300Z 09006KT 6000 NSC 22/18 Q1019=

797 
SAIN90 VEMN 110300
METAR VEMN 110300Z 09006KT 2500 -RA SCT009 SCT018 FEW025CB OVC090
18/17 Q1020 NOSIG=

803 
SAIN90 VAJJ 110300
METAR VAJJ 110300Z 05006KT 3000 HZ FEW020 SCT100 26/17 Q1015 NOSIG=

157 
SAAT31 TAPA 110300
METAR TAPA 110300Z 08011KT 040V110 9999 SCT016 25/22 Q1014 RESHRA
TEMPO SHRA=


333 
SPCN42 CWAO 110310
SPECI CYUA 110310Z AUTO 33012G21KT ////SM FEW004 OVC011 M16/M18 A2924=


334 
SAAO20 DRRN 110300 RRA
METAR DGAA 110300Z 28004KT CAVOK 27/25 Q1008 NOSIG=


335 
SAAO20 DRRN 110300 RRB
METAR DGAA 110300Z 28004KT CAVOK 27/25 Q1008 NOSIG=


336 
SAAO32 GOOY 110300 RRB
METAR GAKD 110300Z 18004KT CAVOK 22/06 Q1009=


338 
SAHW40 PHFO 110310 COR
MTRBKH
SPECI PHBK 110305Z AUTO 03004KT 4SM -RA OVC036 24/21 A3004 RMK AO2 
P0000 T02390206


403 
SAIR33 OIII 110300 RRA
METAR OIZC 110300Z 00000KT CAVOK 12/10 Q1019 SCT170=


404 
SAIR32 OIII 110300 RRC
METAR OIBK 110300Z 32006KT 7000 NSC 20/16 Q1019 NOSIG=


407 
SPAK31 KWBC 110311
SPECI
PAFA 110307Z 25005KT 2SM -SN BR BKN020 OVC030 M12/M15 A2903=


411 
SPAW31 KWBC 110311
SPECI
LTAI 110307Z VRB03KT 6000 -TSRA FEW020CB BKN030 14/13 Q1019 RESHRA
NOSIG=


413 
SPXX62 KWBC 110311
SPECI
PHBK 110305Z AUTO 03004KT 4SM -RA OVC036 24/21 A3004 RMK AO2 P0000
T02390206=


554 
SARS18 KAWN 110300 RRC
METAR UATE 110300Z 30006MPS 270V340 9999 OVC013 06/03 Q1023 NOSIG RMK
      QFE766/1021=
METAR UHHH 110300Z 26005MPS 7000 -SHSN BKN019CB M06/M08 Q1020 R23R/490540
      NOSIG RMK QFE759/1012=
METAR UHMA 110300Z 31009MPS 9999 DRSN VCFG BKN003 M26/M29 Q1025 R01///////
      TEMPO 1500 BR BKN002 RMK TDZ R01/31009G10MPS END
      R01/32007G09MPS QFE765/1020=
METAR UHMM 110300Z 10001MPS 9999 NSC M24/M28 Q1025 R10/85//45 NOSIG
      RMK QFE754 R28/10002MPS=
METAR UHPP 110300Z 34002MPS CAVOK 01/M05 Q1022 R34L/310050 NOSIG RMK
      QFE763/1017=
METAR UHSS 110300Z 17003MPS 9999 BKN006 BKN030CB 06/05 Q1015 R19/250255
      NOSIG RMK MT OBSC QFE760/1013=
METAR UHWW 110300Z 36004MPS 9000 NSC 03/M06 Q1024 R25L/0///70 NOSIG
      RMK QFE767=
METAR UKKK 110300Z 12005G10MPS 090V150 9000 -RA SCT006 OVC027 08/07
      Q1013 TEMPO BKN004=
METAR ULLI 110300Z 11007MPS 9999 BKN046 M07/M10 Q1024 R10R/410550 NOSIG=
METAR UMKK 110300Z 21002MPS 4700 BR OVC014 01/01 Q1008 R24/290095 NOSIG
      RMK QFE755/1007=
METAR UTDD 110300Z 00000MPS 6000 NSC 04/M09 Q1024 R09/D NOSIG RMK QFE699/0932=
METAR UUDD 110300Z 08003MPS CAVOK M20/M22 Q1032 R14R/450242 NOSIG=
METAR UUEE 110300Z 09006MPS 9999 SCT004 M17/M19 Q1032 R06R/420245 R06C/410245
      R06L/410245 NOSIG=
METAR UUWW 110300Z 11004MPS CAVOK M16/M19 Q1031 R06/410250 TEMPO FEW004=


555 
SPUS81 KWBC 110311
SPECI
PHBK 110305Z AUTO 03004KT 4SM -RA OVC036 24/21 A3004=


557 
SPUS81 KWBC 110311
SPECI
KLWD 110307Z AUTO 31015G24KT 2SM BR OVC002 03/02 A2936=


558 
SPUS81 KWBC 110311
SPECI
PAFA 110307Z 25005KT 2SM -SN BR BKN020 OVC030 M12/M15 A2903=


561 
SAXX70 KAWN 110300 RRF
METAR KQEI 110310Z AUTO 24003KT 9000 HZ SCT025 07/02 A3029 RMK A02
      TSNO=
METAR KQEN 110310Z AUTO 25006KT M0400 /CLR 02/00 / RMK A02 TSNO=
METAR KQEP 110310Z AUTO 15001KT 4800 HZ FEW020 09/04 A3033 RMK A02
      TSNO=
METAR KQEQ 110310Z AUTO 06002KT 3200 BR BKN006 04/04 A3036 RMK A02
      TSNO=
METAR KQEW 110310Z AUTO 27002KT 6000 HZ CLR 11/03 A3028 RMK A02 TSNO=
METAR KQFU 110310Z AUTO 13002KT 2800 BR OVC007 05/04 A3035 RMK A02
      TSNO=
METAR KQFV 110310Z AUTO 9999 FEW150 06/01 A3030 RMK / A02=
METAR KQFX 110310Z AUTO 35001KT 3200 HZ FEW022 09/05 A3030 RMK A02
      TSNO=


562 
SAXX60 KAWN 110300 RRC
METAR PGSN 110305Z 05011G17KT 10SM BKN022 30/25 A2982 RMK AO2 T03000250
      /=
METAR PGUA 110256Z COR 10012KT 10SM FEW009 SCT016 BKN023 28/24 A2982
      RMK AO2A RAE0159 SLP088 P0000 60001 T02760242 57021 $ COR 0307=
METAR PHBK 110305Z AUTO 03004KT 4SM -RA OVC036 24/21 A3004 RMK AO2
      P0000 T02390206=
METAR PHNG 110257Z 08012G18KT 10SM FEW025 25/19 A3003 RMK AO2 SLP164
      T02500189 53003 $=
METAR RJOO 110300Z 18003KT 120V250 9999 FEW020 BKN070 15/08 Q1024 RMK
      1CU020 6AC070 A3025=
METAR RJTT 110300Z 16005KT 120V200 9999 FEW020 12/07 Q1021 NOSIG RMK
      1CU020 A3018=


563 
SPUS81 KWBC 110311
SPECI
KLXV 110307Z AUTO 30009G26KT 4SM -SN OVC027 M16/M20 A2988=


792 
SAZZ40 KAWN 110300 RRR
METAR KBLV 110256Z AUTO 16006G19KT 10SM FEW130 21/18 A2941 RMK AO2
      PK WND 20028/49 LTG DSNT NE SLP960 60000 T02050177 58021 $=
METAR KFRI 110256Z AUTO 31011G20KT 10SM OVC021 01/M04 A2967 RMK AO2
      SLP052 T00131038 52037=
METAR KGXF 110258Z AUTO 00000KT 10SM CLR 14/10 A3010 RMK AO2 SLP190
      T01400099 52016 $=
METAR KNSE 110256Z 17011KT 10SM BKN006 OVC011 23/22 A3004 RMK SLP156
      T02280217 51010=
METAR COR MDSD 110300Z 01005KT 9999 FEW016 23/21 Q1016=
METAR MNMG 110300Z 00000KT 9999 SCT021 SCT070 25/22 Q1012 A2989 NOSIG=
METAR OEAH 110300Z 30006KT CAVOK 12/07 Q1022 NOSIG=
METAR OEGT 110300Z 13006KT CAVOK 07/00 Q1021 NOSIG=
METAR OEHL 110300Z 17004KT CAVOK 05/M01 Q1025=
METAR OEPA 110300Z 30004KT CAVOK 07/01 Q1025 NOSIG=
METAR OESK 110300Z 12010KT CAVOK 10/01 Q1026=
METAR OETB 110300Z 21003KT 8000 NSC 11/M01 Q1020 NOSIG=
METAR OEWJ 110300Z 06005KT CAVOK 21/06 Q1014 NOSIG=
METAR OEYN 110300Z 11007KT CAVOK 19/03 Q1012 NOSIG=
METAR PGUA 110256Z COR 10012KT 10SM FEW009 SCT016 BKN023 28/24 A2982
      RMK AO2A RAE0159 SLP088 P0000 60001 T02760242 57021 $ COR 0307=
METAR PHBK 110305Z AUTO 03004KT 4SM -RA OVC036 24/21 A3004 RMK AO2
      P0000 T02390206=
METAR RPMZ 110300Z 26007KT 9999 FEW016CB FEW017 BKN090 29/25 Q1010
      RMK A2983 CB NW-NE/S-SW/OHD=
METAR COR SADF 110300Z 07006KT CAVOK 21/18 Q1009=
METAR TGPY 110300Z 06006KT 9999 FEW017 26/22 Q1011=
METAR WMKJ 110300Z VRB04KT 9999 FEW017TCU SCT018 29/25 Q1012=
METAR WMKK 110300Z VRB01KT 9999 VCSH FEW018 29/24 Q1012 NOSIG=
METAR WMKP 110300Z 06006KT 010V100 9000 FEW020 29/23 Q1012 NOSIG=
METAR WMSA 110300Z VRB03KT 9999 FEW018 29/23 Q1013=


793 
SPNA14 KAWN 110311 RRA
SPECI KPOB 110306Z AUTO 24005KT 10SM OVC013 12/12 A3013 RMK AO2 SLP206
      $=
SPECI KTCM 110257Z COR 19018G25KT 7SM -RA FEW020 SCT036 BKN044 07/04
      A2988 RMK AO2A RAB57 SLP124 RVRNO $ COR 0304=
SPECI KVPS 110307Z 14008KT 5SM BR OVC003 22/21 A3004 RMK AO2A CIG 003V005
      SLP179 $=
SPECI KWRI 110305Z AUTO 00000KT 10SM -RA OVC050 06/03 A3012 RMK AO2
      RAB05 SLP200 $=


975 
SAUS44 KJAN 110311
MTRNMM
SPECI KNMM 110309Z AUTO 19009KT 160V220 10SM BKN017 BKN023 OVC046 
23/21 A2992 RMK AO2 T02280206


024 
SAUZ31 UTTW 110300
METAR UTFN 110300Z 32006KT 9999 NSC 01/M09 Q1025 R28/CLRD70 NOSIG=
METAR UTNN 110300Z 22008KT 9999 OVC020 08/03 Q1024 R33/CLRD60 NOSIG=
METAR UTNU 110300Z 20004KT 9999 OVC024 07/04 Q1024 R31/CLRD70 NOSIG=
METAR UTSA 110300Z VRB02KT 4100 BR NSC 05/M03 Q1024 R07/CLRD70 NOSIG=
METAR UTSB 110300Z 35004KT 320V030 CAVOK 04/M00 Q1025 R01/CLRD70
NOSIG=
METAR UTSK 110300Z 07002KT CAVOK 03/M05 Q1024 R16/CLRD70=
METAR UTSS 110300Z 15004G20KT 9999 NSC 03/M06 Q1024 R09/CLRD70 NOSIG=
METAR UTST 110300Z 00000KT 9000 NSC M00/M05 Q1025 R07/CLRD70 NOSIG=
METAR UTFA 110300Z 15002KT 1600 BR NSC M03/M05 Q1025 R88/09//70=
METAR UTFF 110300Z 16004KT 9999 NSC M01/M11 Q1024 R18/CLRD70=
METAR UTTT 110300Z 00000KT 7000 NSC 03/M04 Q1025 R08R/CLRD70 NOSIG=


308 
SAMG20 FMMI 110300
METAR FMCH 110300Z 13009KT 9999 FEW020 26/22 Q1012 NOSIG=
METAR FMNM 110300Z 19003KT 9999 FEW020CB 26/23 Q1013 NOSIG=
METAR FMMT 110300Z 24005KT 210V270 7000 -RA FEW007 SCT017 BKN033
22/21 Q1016 NOSIG=
METAR FMSD 110300Z 08016KT 9999 FEW016 26/22 Q1015=

480 
SAAP31 FAPR 110300 CCA
METAR COR FAHS 110300Z AUTO 18004KT //// // ////// 22/19 Q1015=


482 
SAAO30 GOOY 110300 RRA
METAR GOSS 110300Z 02006KT 340V040 CAVOK 20/14 Q1010=


589 
SAAG01 SABM 110300 RRB
METAR SAZM 110300Z 05007KT CAVOK 18/15 Q1011 RMK PP///=


688 
SAUS46 KSEW 110311
MTRSMP
SPECI KSMP 110259Z AUTO 00000KT 2 1/2SM -SN BR BKN004 OVC008 M01/M02 
A2983 RMK AO2 P0000 T10061017


882 
SAAG05 SABM 110300 RRA
METAR SAZM 110300Z 05007KT CAVOK 18/15 Q1011 RMK PP///=


461 
SAAL32 DAAA 110300 RRA
METAR DAOB 110300Z 27013KT 9999 SCT023 08/07 Q1020=


574 
SPCN48 CWAO 110311
SPECI CYGV 110311Z AUTO 26007KT 220V300 3SM -SN BKN011 BKN020 BKN026 OVC035 M05/M07 A3008 RMK SLP190=


590 
SPCN42 CWAO 110311
SPECI CYQD 110311Z AUTO 25006KT 9SM OVC025 M08/M11 A2946 RMK SLP996=


598 
SPCN47 CWAO 110311
SPECI CYXR 110311Z AUTO 08002KT 3SM BR SCT130 BKN150 OVC170 M09/M10 A2993 RMK ICE SLP157=


609 
SPCN47 CWAO 110311
SPECI CYNA 110311Z AUTO 17007KT 2 1/2SM -FZUP BR FEW014 OVC027 M05/M06 A3012 RMK ICE INTMT SLP204=


674 
SAUS42 KRAH 110311
MTRNJM
SPECI KNJM 110310Z AUTO 21004KT 7SM FEW013 OVC060 17/15 A3014 RMK 
AO2 T01720150 $


769 
SPCN48 CWAO 110311
SPECI CYOY 110311Z AUTO 00000KT 8SM OVC013 M07/M08 A3013 RMK SLP217=


821 
SAUS44 KJAN 110311 COR
MTRNMM
SPECI KNMM 110309Z AUTO 19009KT 160V220 10SM BKN017 BKN023 OVC046 
23/21 A2992 RMK AO2 T02280206


057 
SAAO33 KWBC 110300 RRB
METAR
GOSS 110300Z 02006KT 340V040 CAVOK 20/14 Q1010=


058 
SAAK31 KWBC 110300 RRA
METAR
PAWG 110307Z 08003KT 2SM -SN SCT012 BKN019 OVC050 01/M02 A2902=


059 
SPAK31 KWBC 110312
SPECI
PARY 110309Z AUTO 28010G17KT 9SM -SN OVC016 M19/M23 A2926=


060 
SAAS33 KWBC 110305 RRA
METAR
VBRR NIL=
VDPP 110300Z 05015KT 9999 FEW017 27/18 Q1014=
VDSR 110300Z VRB01KT 9999 FEW015 28/18 Q1015=
VLVT 110300Z 34004KT 7000 NSC 25/18 Q1019 NOSIG=
VTBA NIL=
VTBD 110300Z VRB03KT CAVOK 28/19 Q1016 NOSIG=
VTBU 110300Z 02008KT 9999 FEW025 30/19 Q1015 NOSIG=
VTCC 110300Z VRB02KT 9999 FEW035 24/18 Q1019 NOSIG=
VTSP 110300Z 09009KT 050V110 9999 FEW020 29/23 Q1013 NOSIG=
VTSS 110300Z 07010KT 040V100 9999 SCT020 BKN100 28/24 Q1014
     NOSIG=
VVDN 110300Z 31002KT 6000 SCT013 BKN050 22/21 Q1020 NOSIG=
VVGL NIL=
VVNB 110300Z NIL=
VVTS 110300Z VRB02KT 7000 FEW017 BKN050 27/19 Q1014 NOSIG=
WBGG 110300Z NIL=
WBGG 110300Z VRB02KT 9999 SCT016 29/24 Q1012 NOSIG=
WBKK 110300Z NIL=
WBKK 110300Z VRB02KT 7000 -RA FEW013 FEW016CB SCT035 26/25 Q1011
     RERA NOSIG=
WMAM NIL=
WMKJ 110300Z VRB04KT 9999 FEW017TCU SCT018 29/25 Q1012=
WMKK 110300Z NIL=
WMKK 110300Z VRB01KT 9999 VCSH FEW018 29/24 Q1012 NOSIG=
WMKP 110300Z NIL=
WMKP 110300Z 06006KT 010V100 9000 FEW020 29/23 Q1012 NOSIG=
WMSA 110300Z VRB03KT 9999 FEW018 29/23 Q1013=
WPDL NIL=
WPEC NIL=
WSAP 110300Z 04013KT 9999 SCT018 FEW020TCU BKN300 30/24 Q1012=
WSSL 110300Z 03010KT 9999 SCT018 FEW020TCU BKN300 30/24 Q1012=
WSSS 110300Z 35010KT 9000 FEW018 FEW020TCU BKN300 30/25 Q1012
     NOSIG=


061 
SAAG31 KWBC 110300 RRA
METAR
SAAG NIL=
SAAP NIL=
SAAR 110300Z 04001KT CAVOK 19/17 Q1009 RMK PP000=
SABE 110300Z 10006KT CAVOK 22/17 Q1009 NOSIG=
SABE 110300Z 10006KT CAVOK 22/17 Q1009 NOSIG RMK PP000=
SACO 110300Z VRB02KT 9999 OVC032 18/17 Q1010 NOSIG=
SACO 110300Z VRB02KT 9999 OVC032 18/17 Q1010 NOSIG RMK PP000=
SADD NIL=
SAEZ 110300Z 10004KT CAVOK 20/17 Q1009 NOSIG=
SAEZ 110300Z 10004KT CAVOK 20/17 Q1009 NOSIG RMK PP000=
SAME 110300Z 36005KT 9999 FEW040 22/17 Q1009=
SAME 110300Z NIL=
SARC 110300Z 14005KT CAVOK 24/16 Q1006=
SARC 110300Z NIL=
SARE 110300Z 14009KT CAVOK 25/15 Q1007 RMK PP///=
SARF 110300Z 16007KT CAVOK 26/19 Q1006=
SARI 110300Z 00000KT CAVOK 23/16 Q1007=
SARP 110300Z 14008KT CAVOK 27/18 Q1007=
SASA 110300Z 00000KT 9000 -RA SCT012 OVC040 19/18 Q1013=
SASJ 110300Z 32006KT 9999 FEW050 OVC120 21/19 Q1012=
SAWE 110300Z 11011KT 9999 BKN006 09/08 Q1009=
SAWE 110300Z NIL=
SAWG 110300Z VRB04KT CAVOK 11/07 Q1008=
SAZM 110300Z 05007KT CAVOK 18/15 Q1011 RMK PP///=
SAZM 110300Z NIL=
SAZS 110300Z 30016KT CAVOK 17/07 Q1008 RMK PP///=


063 
SAAG41 KWBC 110300 RRA
METAR
SAAC NIL=
SAAV NIL=
SAGS NIL=
SANE NIL=
SANT 110300Z 27005KT 5000 TS BR SCT045 FEW050CB BKN060 21/20
     Q1010=
SANU NIL=
SAOR NIL=
SARL 110300Z 25002KT CAVOK 21/19 Q1007=
SATM NIL=
SAVC 110300Z 17009KT 8000 SCT006 BKN008 14/12 Q1003 RMK PP000=
SAVT NIL=
SAZB NIL=
SAZN 110300Z 05008KT CAVOK 26/14 Q1004=


069 
SABZ43 KWBC 110300 RRA
METAR
SBAN 110300Z 36006KT 9999 VCSH VCTS BKN030 FEW035CB 20/19
     Q1013=
SBKG 110300Z 10010KT 9999 SCT012 23/21 Q1012=
SBLB 110300Z AUTO /////KT 9999 NCD 25/20 Q1011 W25/S4=
SBMK 110300Z 02003KT 9999 SCT004 BKN020 21/21 Q1013=
SBUL 110300Z 16007KT CAVOK 22/13 Q1012=


070 
SAAW32 KWBC 110300 RRA
METAR
OIBK 110300Z 32006KT 7000 NSC 20/16 Q1019 NOSIG=
OICC 110300Z 00000KT 7000 NSC M01/M02 Q1026 A3032=


072 
SAXX60 KWBC 110300 RRM
METAR
PGUA 110256Z COR 10012KT 10SM FEW009 SCT016 BKN023 28/24 A2982 RMK
     AO2A RAE0159 SLP088 P0000 60001 T02760242 57021 $ COR
     0307=
PHNG 110257Z 08012G18KT 10SM FEW025 25/19 A3003 RMK AO2 SLP164
     T02500189 53003 $=
KBLV 110256Z AUTO 16006G19KT 10SM FEW130 21/18 A2941 RMK AO2 PK
     WND 20028/49 LTG DSNT NE SLP960 60000 T02050177 58021 $=
KFRI 110256Z AUTO 31011G20KT 10SM OVC021 01/M04 A2967 RMK AO2
     SLP052 T00131038 52037=
KGXF 110258Z AUTO 00000KT 10SM CLR 14/10 A3010 RMK AO2 SLP190
     T01400099 52016 $=
PGUA 110256Z COR 10012KT 10SM FEW009 SCT016 BKN023 28/24 A2982 RMK
     AO2A RAE0159 SLP088 P0000 60001 T02760242 57021 $ COR
     0307=


073 
SACA32 KWBC 110300 RRA
METAR
TAPA 110300Z 08011KT 040V110 9999 SCT016 25/22 Q1014 RESHRA TEMPO
     SHRA=


074 
SPUS70 KWBC 110312
SPECI
KCOE 110309Z AUTO 23003KT 2 1/2SM -SN BR SCT008 BKN014 OVC021
     00/M01 A2998 RMK AO2 P0000 FZRANO=
KDVN 110308Z AUTO 12004KT 10SM -RA SCT012 SCT080 10/09 A2928 RMK
     AO2 P0000 T01000094=
KHOT 110308Z AUTO 20010KT 10SM VCTS FEW026 FEW110 22/19 A2963 RMK
     AO2 LTG DSNT E-SW RAE0257 TSE02 P0000 T02170194=
KISW 110308Z AUTO 07010KT 1 1/2SM -SN BR OVC011 M01/M02 A2948 RMK
     AO2 P0000 T10061017=
KJXN 110308Z AUTO 12011G22KT 4SM BR OVC004 09/08 A2955 RMK AO2
     PRESFR T00890078 $=
KMSY 110308Z 17006KT 5SM BR FEW019 BKN027 23/22 A2995 RMK AO2
     T02280217=
PAPG 110309Z 06005KT 2 1/2SM -SN BR SCT006 BKN015 OVC035 00/M01
     A2898 RMK AO2 P0001=
PARY 110309Z AUTO 28010G17KT 9SM -SN OVC016 M19/M23 A2926 RMK AO2
     P0000 FZRANO=
KAVL 110309Z 16005KT 8SM SCT011 OVC020 11/11 A3007 RMK AO2
     T01060106=
KDHN 110309Z AUTO 18010KT 10SM BKN010 OVC015 22/21 A3009 RMK AO2
     CIG 007V012 T02170206=
KIWI 110309Z AUTO 00000KT 10SM FEW025 OVC050 M04/M06 A3022 RMK AO2
     T10391061=
KLAF 110309Z 17011G23KT 8SM OVC005 16/15 A2943 RMK AO2
     T01560150=
KMFI 110309Z AUTO 04013G23KT 1SM -SN BR FEW007 OVC014 M02/M03
     A2949 RMK AO2 P0000 T10171033=
KOLU 110310Z AUTO 33020G27KT 2SM -SN BR SCT009 OVC016 M02/M02
     A2970 RMK AO2 PK WND 33027/0306 P0000 FZRANO=
KSGH 110310Z AUTO 16011KT 1 1/2SM BR OVC002 13/ A2971 RMK AO2 PNO
     $=
KSOP 110310Z AUTO 20007KT 9SM OVC005 12/12 A3014 RMK AO2=
KSTL 110305Z 22011KT 9SM -TSRA FEW015 BKN047CB BKN110 OVC250 17/14
     A2944 RMK AO2 LTG DSNT NE OCNL LTGICCC NE-SE TS NE-SE MOV NE
     P0008 T01670139=
KUDG 110310Z AUTO 15005KT 3SM BR OVC005 12/12 A3013 RMK AO2 PRESFR
     PNO $=
KVTA 110309Z AUTO 16006KT 10SM OVC009 13/11 A2977 RMK AO2 CIG
     008V011 T01330106=


075 
SAAS31 KWBC 110305 RRA
METAR
VAAH 110300Z 05006KT 3000 HZ NSC 17/09 Q1018 NOSIG=
VABB 110300Z 00000KT 2500 FU FEW020 SCT100 27/17 Q1015 NOSIG=
VABG NIL=
VAGO NIL=
VANP 110300Z 01004KT 3000 HZ SCT100 20/11 Q1020 NOSIG=
VANY NIL=
VCBI NIL=
VECC NIL=
VEPT NIL=
VGEG NIL=
VGZR NIL=
VIAR 110300Z 00000KT 0800 R34/2000 MIFG FEW100 09/09 Q1019
     NOSIG=
VIBN NIL=
VIDP 110300Z 24004KT 1500 R28/2000 R29/2000 BR NSC 12/09 Q1020
     NOSIG=
VNKT NIL=
VOBG NIL=
VOCI 110300Z 10003KT 4500 HZ NSC 25/21 Q1012 BECMG 5000 HZ=
VOHY 110300Z 08005KT 4000 BR FEW020 22/19 Q1021 BECMG 5000 HZ=
VOMM 110300Z 01003KT 4000 BR SCT018 FEW025TCU SCT100 27/26 Q1015
     NOSIG=
VONY NIL=
VOTR 110300Z 01006KT 3000 BR FEW016 SCT100 27/24 Q1015 BECMG 5000
     BR=
VOTV 110300Z 00000KT 4000 BR FEW015 30/24 Q1012 BECMG 5000 HZ=
VQPR NIL=
VQTU NIL=
VRMM NIL=
VTBS 110300Z 07005KT 030V100 CAVOK 28/20 Q1016 NOSIG=


076 
SPXX60 KWBC 110312 CCA
SPECI
PHBK 110305Z AUTO 03004KT 4SM -RA OVC036 24/21 A3004 RMK AO2 P0000
     T02390206=


077 
SAUS70 KWBC 110312
METAR
KBNL 110315Z AUTO 00000KT 3/4SM BR OVC003 13/13 A3012 RMK AO2=
KIUA 110315Z AUTO 13006KT 10SM CLR 04/01 A2993 RMK AO2
     T00370005=
KJSO 110315Z AUTO 19008KT 10SM CLR 22/19 A2979 RMK AO2
     T02300195=
KMFV 110315Z AUTO 20006KT 10SM SCT018 BKN038 OVC044 A3009 RMK
     AO2=
KMNI 110315Z AUTO 00000KT 5SM BR BKN016 OVC025 12/12 A3014 RMK
     AO2=
KOMH 110315Z AUTO 00000KT 10SM OVC012 07/06 A3007 RMK AO2=
PAWG 110307Z 08003KT 2SM -SN SCT012 BKN019 OVC050 01/M02 A2902=
KBEA 110315Z AUTO 16006KT 10SM CLR 22/22 A2978 RMK AO2
     T02230215=
KCCA 110315Z AUTO VRB04KT 5SM BR BKN030 BKN044 OVC065 19/18 A2957
     RMK AO2=
KCPK 110315Z AUTO 00000KT 5SM BR SCT020 BKN025 OVC044 10/10 A3012
     RMK AO2 T01010095=
KDYA 110315Z AUTO 10SM BKN014 OVC019 22/20 A2994 RMK AO2
     T02170204=
KEMV 110315Z AUTO 3SM BR OVC003 10/10 A3012 RMK AO2 T00950095
     PNO=
KRPD 110315Z AUTO 01011KT 1 3/4SM -SN OVC005 00/M02 A2964 RMK AO2
     P0001 T10051018=
KTGI 110315Z AUTO 19012KT 7SM OVC006 11/10 A3009 RMK AO1
     T01050099=
KVBW 110315Z AUTO 00000KT 10SM BKN036 BKN044 OVC100 08/08 A3002
     RMK AO1 T00820077=


078 
SAAF31 KWBC 110300 RRB
METAR
DGAA 110300Z 28004KT CAVOK 27/25 Q1008 NOSIG=


080 
SAUS70 KWBC 110300 RRX
METAR
KOWX 110255Z AUTO 18014G20KT 10SM OVC008 13/11 A2967 RMK AO1=
KNSE 110256Z 17011KT 10SM BKN006 OVC011 23/22 A3004 RMK SLP156
     T02280217 51010=


082 
SABZ42 KWBC 110300 RRA
METAR
SBME 110300Z 33002KT CAVOK 22/22 Q1011=
SBSC 110300Z 36005KT 9999 SCT020 BKN040 22/19 Q1011=
SBSM 110300Z 09012KT CAVOK 20/14 Q1008=
SBUR 110300Z 12004KT CAVOK 24/14 Q1012=


083 
SAPQ50 KWBC 110312
METAR
PGSN 110305Z 05011G17KT 10SM BKN022 30/25 A2982 RMK AO2 T03000250
     /=


085 
SABZ41 KWBC 110300 RRA
METAR
SBBH 110300Z 10004KT CAVOK 21/17 Q1013=
SBCO 110300Z 12006KT 9999 FEW030 17/15 Q1009=
SBDN 110300Z 11010KT CAVOK 23/11 Q1009=


086 
SAXX60 KWBC 110312
METAR
PHBK 110305Z AUTO 03004KT 4SM -RA OVC036 24/21 A3004 RMK AO2 P0000
     T02390206=
PHBK 110305Z AUTO 03004KT 4SM -RA OVC036 24/21 A3004 RMK AO2 P0000
     T02390206=


087 
SPUS80 KWBC 110312
SPECI
KSBN 110308Z 15012G19KT 2 1/2SM BR OVC002 12/11 A2943 RMK AO2
     RAE0258 P0000 T01220111=
KDSM 110309Z 34015G19KT 1 1/2SM -DZ BR OVC002 01/00 A2935 RMK AO2
     SFC VIS 1 3/4 PCPN VRY LGT P0000 T00060000 $=
KFNB 110309Z AUTO 31020G32KT 10SM OVC010 01/M02 A2955 RMK AO2 PK
     WND 32032/0307 T00111017=
KRMG 110309Z AUTO 15005KT 3SM BR OVC002 14/13 A2999 RMK AO2
     T01440128=
KSMP 110259Z AUTO 00000KT 2 1/2SM -SN BR BKN004 OVC008 M01/M02
     A2983 RMK AO2 P0000 T10061017=


088 
SAPA41 KWBC 110300 RRB
METAR
PGSN 110305Z 05011G17KT 10SM BKN022 30/25 A2982=
PGUA 110256Z COR 10012KT 10SM FEW009 SCT016 BKN023 28/24 A2982=


089 
SAAS32 KWBC 110305 RRA
METAR
RKPC 110300Z 33006KT 300V360 8000 BKN025 12/08 Q1027 NOSIG=
RKPK 110300Z 29005KT CAVOK 14/02 Q1025=
RKSS 110300Z 26002KT 1700 1000SE R32L/1100N R32R/1800N BR BKN005
     05/05 Q1027 BECMG 3500=
VHHH 110300Z 33007KT 280V030 9999 FEW035 23/15 Q1022 NOSIG=
VMMC 110300Z 01007KT CAVOK 22/17 Q1022 NOSIG=
ZJSY 110300Z 20002MPS 150V250 CAVOK 27/18 Q1019 NOSIG=
ZKPY NIL=


090 
SPXX60 KWBC 110312
SPECI
KBAD 110306Z AUTO 18014KT 10SM SCT021 SCT027 24/20 A2974 RMK AO2
     SLP072=
KFAF 110305Z AUTO 00000KT 1 7/8SM HZ OVC002 10/07 A3009 RMK AO2
     VIS 1 3/8V1 7/8 RAE02DZB02 SLP193 $=
KFBG 110306Z AUTO 22003KT 4SM BR OVC014 12/11 A3012 RMK AO2 SLP203
     $=
KHUA 110308Z AUTO 21014G20KT 10SM BKN015 OVC023 21/20 A2986 RMK
     AO2 SLP110=
KMGE 110306Z 11006KT 3/8SM R11/2400V2600FT FG VV001 12/12 A3005
     RMK AO2A $=
KVPS 110307Z 14008KT 5SM BR OVC003 22/21 A3004 RMK AO2A CIG
     003V005 SLP179 $=
KWRI 110305Z AUTO 00000KT 10SM -RA OVC050 06/03 A3012 RMK AO2
     RAB05 SLP200 $=
PHBK 110305Z AUTO 03004KT 4SM -RA OVC036 24/21 A3004 RMK AO2 P0000
     T02390206=
PHBK 110305Z AUTO 03004KT 4SM -RA OVC036 24/21 A3004 RMK AO2 P0000
     T02390206=
KNMM 110309Z AUTO 19009KT 160V220 10SM BKN017 BKN023 OVC046 23/21
     A2992 RMK AO2 T02280206=
KNJM 110310Z AUTO 21004KT 7SM FEW013 OVC060 17/15 A3014 RMK AO2
     T01720150 $=


186 
SAPA31 KWBC 110300 RRC
METAR
PGSN 110305Z 05011G17KT 10SM BKN022 30/25 A2982 RMK AO2 T03000250
     /=


187 
SAPQ31 KWBC 110300 RRB
METAR
PGSN 110305Z 05011G17KT 10SM BKN022 30/25 A2982=


188 
SAIO31 KWBC 110300 RRC
METAR
FMCH 110300Z 13009KT 9999 FEW020 26/22 Q1012 NOSIG=


193 
SARA31 KWBC 110300 RRA
METAR
UTNN 110300Z 22008KT 9999 OVC020 08/03 Q1024 R33/CLRD60 NOSIG=
UTNU 110300Z 20004KT 9999 OVC024 07/04 Q1024 R31/CLRD70 NOSIG=
UTSA 110300Z VRB02KT 4100 BR NSC 05/M03 Q1024 R07/CLRD70 NOSIG=
UTSB 110300Z 35004KT 320V030 CAVOK 04/M00 Q1025 R01/CLRD70
     NOSIG=
UTSK 110300Z 07002KT CAVOK 03/M05 Q1024 R16/CLRD70=
UTSS 110300Z 15004G20KT 9999 NSC 03/M06 Q1024 R09/CLRD70 NOSIG=
UTST 110300Z 00000KT 9000 NSC M00/M05 Q1025 R07/CLRD70 NOSIG=
UTTT 110300Z 00000KT 7000 NSC 03/M04 Q1025 R08R/CLRD70 NOSIG=


195 
SASD42 KWBC 110300 RRB
METAR
OEKM 110300Z 12005KT CAVOK 07/M06 Q1026 NOSIG=


196 
SASD44 KWBC 110300 RRA
METAR
OETB 110300Z 21003KT 8000 NSC 11/M01 Q1020 NOSIG=
OETF 110300Z 00000KT CAVOK 08/M06 Q1023 NOSIG=
OETR 110300Z 12014KT CAVOK 08/04 Q1023 NOSIG=
OEWD 110300Z 12007KT CAVOK 11/06 Q1022 NOSIG=
OEWJ 110300Z 06005KT CAVOK 21/06 Q1014 NOSIG=
OEYN 110300Z 11007KT CAVOK 19/03 Q1012 NOSIG=


197 
SANZ31 KWBC 110300 RRA
METAR
NZAA 110300Z AUTO 04014KT 010V070 9999 NCD 26/18 Q1014 NOSIG=
NZCH 110300Z AUTO 21018KT 6000 -RA BKN007/// 15/13 Q1009 TEMPO
     9999 BKN011=
NZOH NIL=
NZWN 110300Z AUTO 34023G38KT 5000 HZ FEW016/// BKN021/// BKN038///
     21/17 Q1010 BECMG 9999 TEMPO 4000 RADZ BKN008=
NZWP NIL=


198 
SAZA31 KWBC 110300 RRA
METAR
FABB NIL=
FABE NIL=
FABL 110300Z 15007KT 120V180 9999 SCT025 BKN080 16/13 Q1019
     NOSIG=
FABM NIL=
FACT 110300Z 32004KT 300V360 9999 SCT005 BKN012 16/15 Q1011 BECMG
     BKN025=
FADN NIL=
FAEL 110300Z 34007KT 310V010 CAVOK 22/18 Q1006=
FAGG 110300Z 26010KT 5000 -RA SCT004 BKN011 OVC018 17/17 Q1009=
FAGM NIL=
FAJS NIL=
FAKT NIL=
FALW NIL=
FALZ NIL=
FAPB NIL=
FAPE 110300Z 25007KT 9999 FEW005 BKN008 20/19 Q1007 TEMPO
     SCT009=
FAPR NIL=
FASB NIL=
FAUP 110300Z 25005KT CAVOK 16/05 Q1013 NOSIG=
FAWH NIL=
FAWK NIL=


201 
SASD43 KWBC 110300 RRA
METAR
OEMK 110300Z NIL=
OENG 110300Z 24004KT CAVOK 07/M02 Q1024 NOSIG=
OEPA 110300Z 30004KT CAVOK 07/01 Q1025 NOSIG=
OERF 110300Z 000000KT CAVOK 06/M03 Q1025 NOSIG=
OERR 110300Z 00000KT CAVOK 08/01 Q1024 NOSIG=
OESH 110300Z 00000KT CAVOK 13/03 Q1022 NOSIG=
OESK 110300Z 12010KT CAVOK 10/01 Q1026=


211 
SACN60 CWAO 110300 RRA
PSQ SA 0300 AUTO8 M M M M/-24/-28/0402/M/ M 17MM=


216 
SACN31 CWAO 110300 RRA
METAR CYMX 110300Z 06003KT 15SM OVC021 M05/M07 A3011 RMK SC8 SLP205=


217 
SACN50 CWAO 110300 RRA
VTS SA 0300 AUTO8 M M M 051/05/04/3205/M/0016 PCPN 0.3MM PAST HR PK WND 0520 0219Z 6044 93MM=


218 
SACN82 CWAO 110300 RRA
WDM SA 0300 AUTO8 M M M 224/-10/-14/0201/M/     8014 66MM=


219 
SPUS81 KWBC 110312
SPECI
KSMP 110259Z AUTO 00000KT 2 1/2SM -SN BR BKN004 OVC008 M01/M02
A2983=


220 
SACN66 CWAO 110300 RRA
PMK SA 0300 AUTO8 M M M 103/-15/-17/1603/M/     SOG 04 8007 99MM=


227 
SAPR41 KWBC 110300 RRA
METAR
SPCL 110300Z 03002KT 9999 SCT020 BKN080 25/25 Q1008 RMK PP000=
SPEC NIL=
SPEI NIL=
SPEO NIL=
SPGM NIL=
SPHI 110300Z NIL=
SPHO NIL=
SPHY NIL=
SPJA NIL=
SPJI NIL=
SPJL 110300Z NIL=
SPJN NIL=
SPJR NIL=
SPME 110300Z NIL=
SPMS NIL=
SPNC NIL=
SPPY NIL=
SPRU 110300Z 14006KT 8000 VCFG OVC050 19/15 Q1014 RMK PP000=
SPST 110300Z 16003KT 9999 FEW015 SCT100 26/24 Q1008 RMK BIRD
     HAZARD RWY 17/35 PP000=
SPTU NIL=
SPUR NIL=


228 
SACN74 CWAO 110300 RRA
WIC SA 0300 AUTO8 M M M 058/-27/-30/1010/M/M SOG 08 6007 39MM=


229 
SPUS81 KWBC 110312
SPECI
KSBN 110308Z 15012G19KT 2 1/2SM BR OVC002 12/11 A2943=


343 
SAMS38 WMKK 110300 RRA
METAR WBGR 110300Z VRB03KT 9999 SCT014 29/25 Q1011=
METAR WBGS 110300Z 25004KT 160V310 9999 SCT014 30/26 Q1011=
METAR WBKL 110300Z VRB04KT 9999 SCT015 29/26 Q1011=
METAR WBKS 110300Z 25007G19KT 210V280 0800 +TSRA SCT005 FEW016CB
SCT030
     24/24 Q1010=
METAR WBKW 110300Z 24004KT 160V300 9999 VCSH FEW016CB 31/25 Q1010=
METAR WMKD 110300Z 35006KT 280V060 9999 FEW025 27/24 Q1013 NOSIG=
METAR WMKL 110300Z 07007KT 350V120 9999 FEW020 31/22 Q1013=
METAR WMKM 110300Z 02006KT 330V130 9999 FEW020 29/23 Q1013=


355 
SAUK39 EGGY 110300
METAR EGUN 110300Z NIL=


364 
SAMS34 WMKK 110300 RRA
METAR WBGR 110300Z VRB03KT 9999 SCT014 29/25 Q1011=
METAR WBGS 110300Z 25004KT 160V310 9999 SCT014 30/26 Q1011=
METAR WBGY 110300Z VRB02KT 9999 SCT016 30/25 Q1011=
METAR WBKL 110300Z VRB04KT 9999 SCT015 29/26 Q1011=
METAR WBKS 110300Z 25007G19KT 210V280 0800 +TSRA SCT005 FEW016CB
SCT030
     24/24 Q1010=
METAR WBKT 110300Z VRB02KT 8000 -RA FEW010 SCT033 26/25 Q1011=
METAR WBKW 110300Z 24004KT 160V300 9999 VCSH FEW016CB 31/25 Q1010=


365 
SAUS14 KAWN 110300 RRX
METAR KCVS 110256Z AUTO 32021G27KT 10SM CLR 07/M08 A2994 RMK AO2 PK
      WND 29036/32 PRESRR SLP120 T00661085 52048=
METAR KFEW 110256Z AUTO 31013G18KT 10SM CLR M08/M15 A2987 RMK AO2 SLP177
      T10781153 52020 $=
METAR KGXF 110258Z AUTO 00000KT 10SM CLR 14/10 A3010 RMK AO2 SLP190
      T01400099 52016 $=
METAR KJSO 110315Z AUTO 19008KT 10SM CLR 22/19 A2979 RMK AO2 T02300195=
METAR KQAZ 110255Z 00000KT 9999 FEW250 18/M12 A2994 RMK AO2A SLP119
      WND DATA ESTMD T01831124 56015=
METAR KSMP 110256Z AUTO VRB04KT 1 1/4SM -SN BR OVC004 M01/M02 A2983
      RMK AO2 SLP128 P0002 60012 T10061017 58017=


501 
SACN88 CWAO 110300 RRA
ADS SA 0300 AUTO8 M M M 253/-04/-07/3107/M/     5004 20MM=
WDO SA 0300 AUTO8 M M M 213/-06/-10/2710+17/M/     PK WND 2819 0241Z SOG 21 6005 73MM=


503 
SACN95 CWAO 110300 RRA
WWO SA 0300 AUTO8 M M M 990/-04/-12/2607+16/M/     SOG 26 6028 44MM=


510 
SACN87 CWAO 110300 RRA
WWS SA 0300 AUTO8 M M M 003/-06/-08/2214/M/     PK WND 2217 0253Z SOG 13 6014 92MM=


511 
SACN96 CWAO 110300 RRA
WYF SA 0300 AUTO8 M M M 971/-22/-25/1304/M/     SOG 10 5008 18MM=
XBQ SA 0300 AUTO8 M M M 928/-21/-24/2709+15/M/     SOG 21 6007 09MM=


512 
SACN98 CWAO 110300 RRA
XDK SA 0300 AUTO8 M M M 848/-23/-25/0000/M/ SOG 25 8022 62MM=
XSE SA 0300 AUTO8 M M M 029/-23/-26/18MM/M/     6003 48MM=
ZRP SA 0300 AUTO8 M M M 033/-33/-37/0000/M/0002 PCPN 0.2MM PAST HR SOG 47 5006 26MM=


513 
SACN89 CWAO 110300 RRA
WAY SA 0300 AUTO8 M M M 000/-26/-29/0401/M/     SOG 41 6003 86MM=
WBJ SA 0300 AUTO8 M M M 933/-19/-21/1217/M/     PK WND 1120 0233Z 8017 13MM=


599 
SAHW40 PHFO 110312 COR
MTRBKH
SPECI PHBK 110305Z AUTO 03004KT 4SM -RA OVC036 24/21 A3004 RMK AO2 
P0000 T02390206


717 
SASG21 GOOY 110300
METAR GOSS 110300Z NIL=
METAR GOSP 110300Z 04002KT CAVOK 23/04 Q1009=
METAR GOOG 110300Z 36004KT CAVOK 22/05 Q1007=
METAR GOSM 110300Z 08002KT CAVOK 20/08 Q1008=
METAR GOOY 110300Z 32004KT CAVOK 21/19 Q1008=
METAR GOBD 110300Z 01013KT CAVOK 20/15 Q1009 NOSIG=
METAR GOOD 110300Z 36004KT 8000 NSC 21/09 Q1008=
METAR GOOK 110300Z 36004KT CAVOK 23/13 Q1008=
METAR GOTT 110300Z NIL=
METAR GOGG 110300Z VRB02KT CAVOK 20/18 Q1008=
METAR GOGS 110300Z NIL=
METAR GOGK 110300Z 00000KT 8000 NSC 20/19 Q1008=
METAR GOTK 110300Z 32004KT CAVOK 21/14 Q1008=

158 
SAAJ31 UBBB 110300
METAR UBBQ 110300Z 00000KT 4000 BR OVC007 08/07 Q1025 NOSIG RMK MT
OBSC=


505 
SAAK41 KNKA 110312
SPECI PAJZ 110311Z AUTO 32023G32KT 2 1/2SM -SN FEW043 M13/M17 A2937 
    RMK AO2 PK WND 32032/0305 VIS 1 3/4V3 PRESRR P0000 FZRANO $=


509 
SAMG21 FMMI 110300
METAR FMCH 110300Z 13009KT 9999 FEW020 26/22 Q1012 NOSIG=
METAR FMNM 110300Z 19003KT 9999 FEW020CB 26/23 Q1013 NOSIG=
METAR FMMT 110300Z 24005KT 210V270 7000 -RA FEW007 SCT017 BKN033
22/21 Q1016 NOSIG=
METAR FMSD 110300Z 08016KT 9999 FEW016 26/22 Q1015=

522 
SAIN90 VOVZ 110300
METAR VOVZ 110300Z 33004KT 5000 HZ FEW018 26/20 Q1017 NOSIG=

529 
SAHW31 KMSC 110312
SPECI PMDY 110311Z AUTO 09013KT 10SM SCT017 BKN022 BKN028 25/21 
    A3003 RMK AO2=


530 
SPZZ40 KAWN 110312 RRC
SPECI CYAH 110309Z AUTO 25017G24KT 3SM -SN SCT020 OVC027 M08/M12 A2976
      RMK SLP103=
SPECI CYGV 110311Z AUTO 26007KT 220V300 3SM -SN BKN011 BKN020 BKN026
      OVC035 M05/M07 A3008 RMK SLP190=
SPECI CYUA 110310Z AUTO 33012G21KT ////SM FEW004 OVC011 M16/M18 A2924=
SPECI CYXR 110309Z AUTO 07002KT 2 1/2SM BR SCT130 BKN150 OVC170 M09/M10
      A2993 RMK ICE SLP156=
SPECI CYXR 110311Z AUTO 08002KT 3SM BR SCT130 BKN150 OVC170 M09/M10
      A2993 RMK ICE SLP157=
SPECI CYXS 110308Z AUTO 17025G35KT 7SM CLR M02/M07 A2911 RMK PRESFR
      PCPN MISG SLP891=
SPECI EHWO 110308Z AUTO VRB02KT 9999 FEW009 SCT028 BKN031 05/05 Q1008
      BLU=
SPECI ETAD 110311Z AUTO 27003KT 9999 FEW015 BKN029 00/M00 A2975 RMK
      AO2 CIG 017V029 SLP084 FZRANO TSNO $=
SPECI ETIH 110308Z AUTO 23005KT 9999 -FZRA OVC009 01/M00 A2965 RMK
      AO2 FZRAB08 SLP064 $=
SPECI ETIH 110309Z AUTO 23003KT 9999 -RA OVC009 01/M00 A2965 RMK AO2
      FZRAB08E09RAB09 SLP064 $=
SPECI FAPE 110308Z 25008KT 9999 FEW005 SCT008 20/19 Q1007 TEMPO BKN008=
SPECI KDTS 110307Z 13008KT 3/4SM BR VV002 22/21 A3005 RMK AO2 T02170206=
SPECI KHOP 110311Z AUTO 18013G20KT 10SM SCT022 BKN029 22/22 A2966 RMK
      AO2 SLP043=
SPECI LTAI 110307Z VRB03KT 6000 -TSRA FEW020CB BKN030 14/13 Q1019 RESHRA
      NOSIG RMK RWY18C 25004KT 200V340 RWY36R 27005KT 220V010
      RWY18L 27005KT 240V330=
SPECI PATL 110309Z AUTO 04013G21KT 010V100 10SM -SHSN CLR M14/M20 A2927
      RMK AO2 SLP942=


541 
SANM01 FYWW 110300 RRA
METAR FYGF 110300Z 03004KT 9999 -DZ ////// 20/17 Q1018=

546 
SAIN90 VOAT 110300
METAR VOAT 110300Z 05002KT 6000 SCT015 28/24 Q1013 NOSIG=

642 
SAUS44 KMEG 110312
MTROQT
SPECI KOQT 110309Z AUTO 00000KT 3SM -RA BR OVC009 10/09 A2995 RMK 
AO2 P0002 T01000094


713 
SAUS44 KJAN 110312 COR
MTRNMM
SPECI KNMM 110309Z AUTO 19009KT 160V220 10SM BKN017 BKN023 OVC046 
23/21 A2992 RMK AO2 T02280206


174 
SPCN47 CWAO 110312
SPECI CYWA 110312Z AUTO 11004KT 080V150 9SM FEW010 SCT013 OVC017 M02/M04 A3002 RMK SLP173=


297 
SASG21 GOOY 110300 RRA
METAR GOSS 110300Z 02006KT 340V040 CAVOK 20/14 Q1010=

357 
SPCN48 CWAO 110312
SPECI CYAH 110312Z AUTO 24018G24KT 3SM -SN BKN022 OVC029 M09/M12 A2976 RMK SLP104=


499 
SPXX61 KWBC 110313
SPECI
ETAD 110311Z AUTO 27003KT 9999 FEW015 BKN029 00/M00 A2975 RMK AO2
CIG 017V029 SLP084 FZRANO TSNO $=


501 
SPUS81 KWBC 110313
SPECI
KDSM 110309Z 34015G19KT 1 1/2SM -DZ BR OVC002 01/00 A2935=


503 
SPAW31 KWBC 110313
SPECI
LTAI 110307Z VRB03KT 6000 -TSRA FEW020CB BKN030 14/13 Q1019 RESHRA
NOSIG RMK RWY18C 25004KT 200V340 RWY36R 27005KT 220V010 RWY18L
27005KT 240V330=


504 
SPUS81 KWBC 110313
SPECI
KRMG 110309Z AUTO 15005KT 3SM BR OVC002 14/13 A2999=


505 
SPZA31 KWBC 110313
SPECI
FAPE 110308Z 25008KT 9999 FEW005 SCT008 20/19 Q1007 TEMPO BKN008=


507 
SPNL31 KWBC 110313
SPECI
EHWO 110308Z AUTO VRB02KT 9999 FEW009 SCT028 BKN031 05/05 Q1008
BLU=


509 
SPUS81 KWBC 110313
SPECI
KOQT 110309Z AUTO 00000KT 3SM -RA BR OVC009 10/09 A2995=


511 
SPAK32 KWBC 110313
SPECI
PATL 110309Z AUTO 04013G21KT 010V100 10SM -SHSN CLR M14/M20 A2927=


512 
SPUS81 KWBC 110313
SPECI
KFNB 110309Z AUTO 31020G32KT 10SM OVC010 01/M02 A2955=


751 
SPUS17 KAWN 110313 RRA
SPECI KBAD 110306Z AUTO 18014KT 10SM SCT021 SCT027 24/20 A2974 RMK
      AO2 SLP072=
SPECI KFAF 110305Z AUTO 00000KT 1 7/8SM HZ OVC002 10/07 A3009 RMK AO2
      VIS 1 3/8V1 7/8 RAE02DZB02 SLP193 $=
SPECI KFBG 110306Z AUTO 22003KT 4SM BR OVC014 12/11 A3012 RMK AO2 SLP203
      $=
SPECI KHFF 110308Z AUTO 25004KT 10SM OVC007 12/11 A3010 RMK AO2 SLP196
      $=
SPECI KHOP 110311Z AUTO 18013G20KT 10SM SCT022 BKN029 22/22 A2966 RMK
      AO2 SLP043=
SPECI KMGE 110306Z 11006KT 3/8SM R11/2400V2600FT FG VV001 12/12 A3005
      RMK AO2A $=


753 
SAXX70 KAWN 110300 RRG
METAR KQEJ 110310Z AUTO 27001KT 6000 BKN007 BKN022 05/03 A3028 RMK
      A02 TSNO=
METAR KQEV 110310Z AUTO 12002KT 4000 HZ BKN028 08/05 A3030 RMK A02
      TSNO=
METAR KQEX 110310Z AUTO 02002KT 6000 HZ FEW180 10/03 A3022 RMK A02
      TSNO=
METAR KQEY 110310Z AUTO 15002KT 4800 FEW004 BKN020 06/06 A3001 RMK
      A02 TSNO=
METAR KQFB 110310Z AUTO 27003KT 8000 HZ FEW200 12/03 A3033 RMK A02
      TSNO=
METAR KQFT 110310Z AUTO 30001KT 8000 HZ CLR 07/04 A3031 RMK A02 TSNO=


754 
SPXX70 KAWN 110300
SPECI KQHY 110306Z AUTO 00000KT 8SM FEW009 SCT013 OVC022 22/22 A3005
      RMK AO2 CIG 013V022 SLPNO=


757 
SPNA35 KAWN 110313
SPECI KBAD 110306Z AUTO 18014KT 10SM SCT021 SCT027 24/20 A2974 RMK
      AO2 SLP072=
SPECI KPOB 110306Z AUTO 24005KT 10SM OVC013 12/12 A3013 RMK AO2 SLP206
      $=
SPECI KVPS 110307Z 14008KT 5SM BR OVC003 22/21 A3004 RMK AO2A CIG 003V005
      SLP179 $=
SPECI KWRI 110305Z AUTO 00000KT 10SM -RA OVC050 06/03 A3012 RMK AO2
      RAB05 SLP200 $=


950 
SAUS44 KMOB 110313
MTR79J
SPECI K79J 110307Z AUTO VRB04KT 10SM FEW009 SCT014 BKN020 23/21 
A3004 RMK AO2 T02330206


535 
SAAK41 KNKA 110313
SPECI PAWI 110311Z AUTO 32014G21KT 1 1/2SM -SN BR OVC024 M16/M18 
    A2941 RMK AO2 T11561178 TSNO=


996 
SARO33 LROM 110300
METAR LRBC 110300Z 01003KT 5000 BR FEW014 BKN017 03/03 Q1007=
METAR LRCV 110300Z 03008KT 0500 R27/0600N FG VV001 04/03 Q1006=
METAR LRIA 110300Z 31010KT 8000 -RA BKN004 06/05 Q1006=
METAR LRSV 110300Z 34009KT 9999 -RA BKN050 04/04 Q1005=
METAR LRTC 110300Z AUTO 21017KT 9999 SCT028 08/05 Q1009=

093 
SAMS33 WMKK 110300 RRA
METAR WMAU 110300Z VRB10KT 7000 SCT025 29/25 Q1012=
METAR WMBA 110300Z VRB03KT 9999 FEW021 29/25 Q1012=
METAR WMKA 110300Z 08009KT 020V170 9999 FEW020 30/22 Q1013=
METAR WMKB 110300Z 08005KT 030V110 8000 FEW020 30/23 Q1012 NOSIG=
METAR WMKC 110300Z 07011KT 040V110 9999 SCT018 29/24 Q1014=
METAR WMKD 110300Z 35006KT 280V060 9999 FEW025 27/24 Q1013 NOSIG=
METAR WMKI 110300Z VRB03KT 9999 FEW019 29/23 Q1012=
METAR WMKL 110300Z 07007KT 350V120 9999 FEW020 31/22 Q1013=
METAR WMKM 110300Z 02006KT 330V130 9999 FEW020 29/23 Q1013=
METAR WMKN 110300Z 04009KT 350V080 9999 SCT018 29/24 Q1014=

094 
SARO32 LROM 110300
METAR LRAR 110300Z 08005KT 4300 BR FEW002 OVC010 04/03 Q1006=
METAR LRBM 110300Z AUTO 00000KT 0400 R09/0450N FG BKN003 03/03
Q1007=
METAR LRCL 110300Z VRB02KT 3000 BR OVC002 03/03 Q1007=
METAR LROD 110300Z 07001KT 5000 BR BKN015 04/04 Q1007=
METAR LRSM 110300Z AUTO 00000KT 0750 R19/0900U FG VV002 04/03 Q1008=
METAR LRTM 110300Z AUTO 00000KT 0450 R07/0500N FG VV001 03/03 Q1007=

095 
SAIY36 LIIB 110300
METAR LIRM 110255Z /////KT 9999 SCT025 SCT040 09/06 Q0992=
METAR LIRS 110255Z 35007KT 9999 FEW020 06/02 Q0996=

216 
SARS36 UUUJ 110300
METAR ULAA 110300Z 17002MPS 130V210 9999 FEW020 M15/M17 Q1033
R08/950550 NOSIG RMK QFE774/1032=
METAR ULMM 110300Z 21003MPS 9999 -SHSN BKN030CB M07/M09 Q1018
R13/490138 NOSIG RMK QFE757=
METAR ULOO 110300Z 09003MPS 050V150 9999 OVC008 M01/M02 Q1017
R01/790529 NOSIG RMK QFE759=
METAR ULPB 110300Z AUTO 08002MPS 9999 //  M13/M15 Q1031 RMK
QFE770/1026=
METAR UMKK 110300Z 21002MPS 4700 BR OVC014 01/01 Q1008 R24/290095
NOSIG RMK QFE755/1007=
METAR UUOO 110300Z 08003MPS 9999 OVC010 M02/M05 Q1028 R12/010070
NOSIG RMK QFE757=
METAR UUYY 110300Z 22003MPS 9999 FEW005 M19/M21 Q1038 R18/420345
NOSIG RMK QBB150 QFE770/1027=

218 
SAMZ40 FQMA 110300
METAR FQPB 110300Z 01003KT 9999 FEW020 25/23 Q1013=

229 
SAIY37 LIIB 110300
METAR LIPC 110255Z 31016KT 9999 BKN035 04/02 Q0999=

235 
SAIY35 LIIB 110300
METAR LICT 110255Z 27026KT 9999 SCT016 13/05 Q1002=

247 
SAHW40 PHFO 110313 COR
MTRBKH
SPECI PHBK 110305Z AUTO 03004KT 4SM -RA OVC036 24/21 A3004 RMK AO2 
P0000 T02390206


913 
SPCN43 CWAO 110313
SPECI CYBU 110313Z AUTO 22009KT 9SM CLR M12/M15 A2946 RMK ICE SLP010=


075 
SPMC40 GMML 110310
SPECI
GMML 110310Z 05011KT CAVOK ///// Q1020 NOSIG=


138 
SACN98 KWBC 110314
METAR CXDK 110300Z AUTO 00000KT M23/M25 RMK AO1 SOG 25 8022 SLP848
T12261252=
METAR CXSE 110300Z AUTO 00018KT M23/M26 RMK AO1 SLP029 T12341258
56003=
METAR CZRP 110300Z AUTO 00000KT M33/M37 RMK AO1 2PAST HR SOG 47
5006 SLP033 P0001 T13321366 50002=


140 
SAUS70 KWBC 110300 RRX
METAR
KAKH 110254Z AUTO 00000KT 1/4SM FG VV002 10/10 A3010 RMK AO2
     SLP194 60000 T01000100 56006=
KOWX 110255Z AUTO 18014G20KT 10SM OVC008 13/11 A2967 RMK AO1=


142 
SPUS80 KWBC 110314
SPECI
KPOF 110310Z AUTO 20017G28KT 10SM BKN110 18/17 A2953 RMK AO2 PK
     WND 20034/0258 LTG DSNT NE-S RAE02 TSE06 PRESFR P0000
     T01830167=
KOQT 110309Z AUTO 00000KT 3SM -RA BR OVC009 10/09 A2995 RMK AO2
     P0002 T01000094=
KCNK 110311Z AUTO 32016G24KT 10SM SCT017 BKN034 M01/M04 A2972 RMK
     AO2 PK WND 32029/0256 PRESRR T10061039=


144 
SAXX60 KWBC 110300 RRN
METAR
KCVS 110256Z AUTO 32021G27KT 10SM CLR 07/M08 A2994 RMK AO2 PK WND
     29036/32 PRESRR SLP120 T00661085 52048=
KGXF 110258Z AUTO 00000KT 10SM CLR 14/10 A3010 RMK AO2 SLP190
     T01400099 52016 $=
KBLV 110256Z AUTO 16006G19KT 10SM FEW130 21/18 A2941 RMK AO2 PK
     WND 20028/49 LTG DSNT NE SLP960 60000 T02050177 58021 $=


146 
SPXX60 KWBC 110314 CCA
SPECI
KNMM 110309Z AUTO 19009KT 160V220 10SM BKN017 BKN023 OVC046 23/21
     A2992 RMK AO2 T02280206=
PHBK 110305Z AUTO 03004KT 4SM -RA OVC036 24/21 A3004 RMK AO2 P0000
     T02390206=
KNMM 110309Z AUTO 19009KT 160V220 10SM BKN017 BKN023 OVC046 23/21
     A2992 RMK AO2 T02280206=
PHBK 110305Z AUTO 03004KT 4SM -RA OVC036 24/21 A3004 RMK AO2 P0000
     T02390206=


147 
SACN31 KWBC 110300 RRB
METAR
CYMX 110300Z 06003KT 15SM OVC021 M05/M07 A3011 RMK SC8 SLP205=


148 
SPUS70 KWBC 110314
SPECI
KCOE 110311Z AUTO 22003KT 3SM -SN BR BKN008 BKN014 OVC021 00/M01
     A2998 RMK AO2 CIG 005V009 P0000 FZRANO=
KEST 110308Z AUTO 36024G33KT 1SM BR VV009 M02/M03 A2953 RMK AO2 PK
     WND 36033/0300 T10221033 PWINO FZRANO $=
PAJZ 110311Z AUTO 32023G32KT 2 1/2SM -SN FEW043 M13/M17 A2937 RMK
     AO2 PK WND 32032/0305 VIS 1 3/4V3 PRESRR P0000 FZRANO $=
K7N0 110312Z AUTO 17007KT 7SM FEW005 24/22 A2997 RMK AO2=
KARA 110311Z AUTO 17009KT 7SM BKN007 OVC018 23/22 A2991 RMK AO2
     T02280217 $=
KBJJ 110311Z AUTO 18013KT 10SM FEW009 BKN018 BKN026 11/11 A2976
     RMK AO2 T01110106=
KCWI 110312Z AUTO 08006KT 4SM -RA FEW005 BKN027 OVC040 09/ A2927
     RMK AO2 P0002=
KENW 110311Z AUTO 05005KT 3/4SM +RA BR FEW003 OVC016 07/06 A2936
     RMK AO2 P0010 T00720061=
KYKN 110312Z AUTO 32017KT 1 3/4SM -SN BR BKN009 OVC015 M02/M03
     A2976 RMK AO2 CIG 007V013 P0000 FZRANO=
PAWI 110311Z AUTO 32014G21KT 1 1/2SM -SN BR OVC024 M16/M18 A2941
     RMK AO2 T11561178 TSNO=
KHFF 110308Z AUTO 25004KT 10SM OVC007 12/11 A3010 RMK AO2 SLP196
     $=


149 
SAUS70 KWBC 110314 RRA
METAR
KRPD 110315Z AUTO 01011KT 1 3/4SM -SN OVC005 00/M02 A2964 RMK AO2
     P0001 T10051018=
KRRL 110315Z AUTO 03011KT 1SM -SN OVC009 M02/M02 A2954 RMK AO2
     T10201023 TSNO=
KUNU 110315Z AUTO 06010G16KT 4SM RA OVC005 02/02 A2941 RMK AO2
     P0004 T00190017=
KY51 110315Z AUTO 05006KT 10SM OVC007 00/00 A2940 RMK AO1
     T00000000=


150 
SAUS80 KWBC 110300 RRG
METAR
KSMP 110256Z AUTO VRB04KT 1 1/4SM -SN BR OVC004 M01/M02 A2983 RMK
     AO2 SLP128 P0002 60012 T10061017 58017=


151 
SAUS80 KWBC 110314
METAR
KCLI 110315Z AUTO 07013G18KT 10SM UP OVC007 00/00 A2951 RMK
     AO2=
KPTS 110315Z AUTO 29006KT 10SM CLR 07/03 A2955 RMK AO2
     T00740026=
KCLI 110315Z AUTO 07013G18KT 10SM UP OVC007 00/00 A2951 RMK
     AO2=


153 
SAXX61 KWBC 110300 RRC
METAR
EGUN 110300Z NIL=


154 
SPXX60 KWBC 110314
SPECI
KDTS 110307Z 13008KT 3/4SM BR VV002 22/21 A3005 RMK AO2
     T02170206=
KHOP 110311Z AUTO 18013G20KT 10SM SCT022 BKN029 22/22 A2966 RMK
     AO2 SLP043=
PATL 110309Z AUTO 04013G21KT 010V100 10SM -SHSN CLR M14/M20 A2927
     RMK AO2 SLP942=
PMDY 110311Z AUTO 09013KT 10SM SCT017 BKN022 BKN028 25/21 A3003
     RMK AO2=
K79J 110307Z AUTO VRB04KT 10SM FEW009 SCT014 BKN020 23/21 A3004
     RMK AO2 T02330206=
KFAF 110305Z AUTO 00000KT 1 7/8SM HZ OVC002 10/07 A3009 RMK AO2
     VIS 1 3/8V1 7/8 RAE02DZB02 SLP193 $=
KFBG 110306Z AUTO 22003KT 4SM BR OVC014 12/11 A3012 RMK AO2 SLP203
     $=


157 
SACN87 KWBC 110314
METAR CWWS 110300Z AUTO 22014KT M06/M08 RMK AO1 SOG 13 6014 PK WND
22017/0253 SLP003 T10591082=


159 
SACN85 KWBC 110314
METAR CWDM 110300Z AUTO 02001KT M10/M14 RMK AO1 SLP224 T10961136
58014=
METAR CWDO 110300Z AUTO 27010G17KT M06/M10 RMK AO1 SOG 21 6005 PK
WND 28019/0241 SLP213 T10571103=


160 
SAUS70 KWBC 110314
METAR
KJSO 110315Z AUTO 19008KT 10SM CLR 22/19 A2979 RMK AO2
     T02300195=
K1A5 110315Z AUTO 00000KT 7SM SCT010 OVC030 11/10 A3008 RMK AO2
     T01070100=
K27K 110315Z AUTO 18012G15KT 10SM OVC011 16/14 A2975 RMK AO1=
K8W2 110315Z AUTO 00000KT 10SM BKN039 BKN055 BKN110 08/07 A3002
     RMK AO1 T00750068=
KBBP 110315Z AUTO 00000KT 5SM BR OVC007 11/11 A3013 RMK AO2=
KD55 110315Z AUTO 23010KT 10SM M15/M15 A2969 RMK AO2=
KETB 110315Z AUTO 07009G12KT 3SM RA OVC004 02/02 A2942 RMK AO2=
KHFY 110315Z AUTO 16014G17KT 1 3/4SM OVC003 15/15 A2958 RMK AO2
     T01500150=
KL18 110315Z AUTO 35005KT 10SM CLR 10/07 A3014 RMK AO2=
KMAO 110315Z AUTO 00000KT 5SM BR OVC013 11/11 A3015 RMK AO2=
KMCJ 110315Z AUTO 22007G14KT 180V300 6SM HZ SCT016 BKN027 OVC050
     25/22 A2983 RMK A01=
KPDC 110315Z AUTO 34003KT 5SM -RA OVC010 01/00 A2938 RMK AO2 P0001
     T00110000=
KPTB 110315Z AUTO 17003KT 10SM OVC025 11/09 A3008 RMK AO2
     T01120093 TSNO=
KRID 110315Z AUTO 17013KT 1/4SM -RA OVC001 12/12 A2967 RMK AO2=
KRRL 110315Z AUTO 03011KT 1SM -SN OVC009 M02/M02 A2954 RMK AO2
     T10201023 TSNO=
KUNU 110315Z AUTO 06010G16KT 4SM RA OVC005 02/02 A2941 RMK AO2
     P0004 T00190017=
KXSA 110315Z AUTO 18003KT 10SM OVC026 12/12 A3008 RMK AO2
     T01150115=
K1P1 110315Z AUTO 00000KT 10SM SCT048 M03/M04 A3016 RMK AO2
     T10301045=
K24A 110315Z AUTO 00000KT 10SM OVC017 14/12 A3007 RMK AO2 LTG DSNT
     NW T01360121=
KBKS 110315Z AUTO 18007KT 10SM CLR 23/21 A2978 RMK AO2
     T02270212=
KCPF 110315Z AUTO 20007G16KT 10SM BKN020 BKN042 OVC050 17/17 A2987
     RMK AO2=
KDLL 110315Z AUTO 05010G14KT 4SM RA OVC004 00/00 A2940 RMK AO2
     T10051005=
KGGI 110315Z AUTO 35011G16KT 1SM BR OVC002 03/03 A2930 RMK AO2
     T00330030=
KGWW 110315Z AUTO 15003KT 3SM OVC004 11/11 A3011 RMK AO2
     T01080108=
KIFA 110315Z AUTO 36009G14KT 3SM BR OVC003 00/00 A2937 RMK AO2
     T00001003=
KMDZ 110315Z AUTO 03015G19KT 1/4SM OVC007 M03/M03 A2954 RMK AO2
     P0001 T10271028 PWINO=
KOIC 110315Z AUTO 00000KT 10SM BKN050 00/M01 A3007 RMK AO2
     T10051014 PWINO=
KOXV 110315Z AUTO 31012KT 1/4SM FG OVC002 03/03 A2933 RMK AO2=
KPBH 110315Z AUTO 02009KT 1SM -SN OVC007 M03/M03 A2961 RMK AO2
     T10311031=
KPRO 110315Z AUTO 01015G20KT 3SM BR OVC005 01/00 A2940 RMK AO2
     T00050001=
KRHP 110315Z AUTO 00000KT 2 1/2SM BR OVC017 12/11 A3001 RMK AO2
     T01150109=
KSIF 110315Z AUTO 22004KT 10SM OVC010 11/08 A3008 RMK AO2
     T01130079=
KY51 110315Z AUTO 05006KT 10SM OVC007 00/00 A2940 RMK AO1
     T00000000=
KDVP 110313Z AUTO 35020KT 1 1/2SM -SN OVC008 M03/M04 A2967 RMK AO2
     T10301040=
KFOZ 110313Z AUTO 00000KT 10SM CLR M07/M08 A2977 RMK AO2=
KORB 110313Z AUTO 00000KT 10SM M06/M07 A2971 RMK AO2=
KXVG 110313Z AUTO 00000KT 10SM OVC080 M06/M08 A2972 RMK AO2=
KD50 110315Z AUTO 20010KT 10SM CLR M10/M13 A2970 RMK AO2=
KD55 110315Z AUTO 23010KT 10SM M15/M15 A2969 RMK AO2=
KETB 110315Z AUTO 07009G12KT 3SM RA OVC004 02/02 A2942 RMK AO2=
KGGI 110315Z AUTO 35011G16KT 1SM BR OVC002 03/03 A2930 RMK AO2
     T00330030=
KHFY 110315Z AUTO 16014G17KT 1 3/4SM OVC003 15/15 A2958 RMK AO2
     T01500150=
KIFA 110315Z AUTO 36009G14KT 3SM BR OVC003 00/00 A2937 RMK AO2
     T00001003=
KIUA 110315Z AUTO 13006KT 10SM CLR 04/01 A2993 RMK AO2
     T00370005=
KPBH 110315Z AUTO 02009KT 1SM -SN OVC007 M03/M03 A2961 RMK AO2
     T10311031=
KPDC 110315Z AUTO 34003KT 5SM -RA OVC010 01/00 A2938 RMK AO2 P0001
     T00110000=
KPRO 110315Z AUTO 01015G20KT 3SM BR OVC005 01/00 A2940 RMK AO2
     T00050001=
KRID 110315Z AUTO 17013KT 1/4SM -RA OVC001 12/12 A2967 RMK AO2=


162 
SAIQ32 KWBC 110300 RRA
METAR
KQAZ 110255Z 00000KT 9999 FEW250 18/M12 A2994 RMK AO2A SLP119 WND
     DATA ESTMD T01831124 56015=


165 
SAXX62 KWBC 110300 RRC
METAR
PMDY 110311Z AUTO 09013KT 10SM SCT017 BKN022 BKN028 25/21 A3003
     RMK AO2=


167 
SAPA31 KWBC 110300 RRD
METAR
PMDY 110311Z AUTO 09013KT 10SM SCT017 BKN022 BKN028 25/21 A3003
     RMK AO2=


354 
SPCN46 CWAO 110313
SPECI CYKL 110313Z AUTO 17010KT 5SM -SN SCT028 M18/M20 A2971 RMK SLP119=


385 
SPUS81 KWBC 110314
SPECI
KPOF 110310Z AUTO 20017G28KT 10SM BKN110 18/17 A2953=


429 
SAXN17 KAWN 110300 RRG
METAR COR MDSD 110300Z 01005KT 9999 FEW016 23/21 Q1016=
METAR MNMG 110300Z 00000KT 9999 SCT021 SCT070 25/22 Q1012 A2989 NOSIG=
METAR PASY 110259Z 24017KT 10SM FEW025 OVC040 04/01 A3043 RMK AO2A
      SLP307 ALSTG/SLP ESTMD WND DATA ESTMD T00440012 56004 RVRNO
      PNO $=
METAR RCKH 110300Z 36005KT 310V060 9999 FEW018 27/14 Q1020 NOSIG RMK
      A3013=
METAR RCTP 110300Z 03022KT 9999 SCT006 BKN008 22/19 Q1021 NOSIG RMK
      A3017=
METAR SKCG 110300Z 03003KT CAVOK 26/23 Q1008 RMK A2978=
METAR TAPA 110300Z 08011KT 040V110 9999 SCT016 25/22 Q1014 RESHRA TEMPO
      SHRA=


439 
SAUS17 KAWN 110300 RRG
METAR KBLV 110256Z AUTO 16006G19KT 10SM FEW130 21/18 A2941 RMK AO2
      PK WND 20028/49 LTG DSNT NE SLP960 60000 T02050177 58021 $=
METAR KFRI 110256Z AUTO 31011G20KT 10SM OVC021 01/M04 A2967 RMK AO2
      SLP052 T00131038 52037=
METAR KGXF 110258Z AUTO 00000KT 10SM CLR 14/10 A3010 RMK AO2 SLP190
      T01400099 52016 $=


673 
SAAM34 FCBB 110300
METAR FZAA 110300Z 00000KT 6000 SCT018 25/23 Q1010 NOSIG=
METAR FZNA 110300Z NIL=
METAR FZIC 110300Z NIL=
METAR FZQA 110300Z NIL=
METAR FZWA 110300Z NIL=
METAR FZRF 110300Z NIL=


675 
SAAM31 FCBB 110300
METAR FCBB 110300Z 00000KT 9000 FEW020 24/23 Q1009 NOSIG=
METAR FCPP 110300Z 18005KT 7000 FEW008 BKN023 FEW030CB 26/25 Q1007
NOSIG=
METAR FEFF 110300Z 28004KT 8000 NSC 22/19 Q1006 NOSIG=
METAR FEFT 110300Z NIL=
METAR FKKD 110300Z 00000KT 8000 TS BKN013 SCT016CB 25/24 Q1006 NOSIG=
METAR FKYS 110300Z NIL=
METAR FKKN 110300Z NIL=
METAR FKKR 110300Z NIL=
METAR FKKL 110300Z NIL=


694 
SAUS44 KJAN 110314 COR
MTRNMM
SPECI KNMM 110309Z AUTO 19009KT 160V220 10SM BKN017 BKN023 OVC046 
23/21 A2992 RMK AO2 T02280206


107 
SAAM36 FCBB 110300
METAR FOOL 110300Z 12003KT 9000 -TSRA SCT012 FEW020CB 24/24 Q1007
BECMG NSW=
METAR FOOG 110300Z NIL=
METAR FOON 110300Z NIL=
METAR FNLU 110300Z NIL=
METAR FNHU 110300Z NIL=
METAR FGSL 110300Z 24004KT 9999 FEW010 26/24 Q1007 NOSIG=
METAR FGBT 110300Z NIL=
METAR FPST 110300Z NIL=


109 
SAMX55 MMMY 110300
METAR MMIO 110314Z RTD 18006KT 10SM  SCT200 19/07 A3009 RMK 8/008=





TX_OPMET


111 
SAAK41 KNKA 110314
SPECI PAGN 110313Z AUTO 12004KT 2SM -SN BR SCT004 BKN008 OVC022 
    01/00 A2894 RMK AO2 CIG 006V011 P0001 FZRANO=
SPECI PAOU 110313Z AUTO 31032G44KT 1SM -SN BR FEW007 BKN017 OVC025 
    M06/M08 A2969 RMK AO2 PK WND 33044/0305 P0000 FZRANO=
METAR PASY 110259Z 24017KT 10SM FEW025 OVC040 04/01 A3043 RMK AO2A
      SLP307 ALSTG/SLP ESTMD WND DATA ESTMD T00440012 56004 RVRNO
      PNO $=
SPECI PAYA 110312Z AUTO 07016KT 1/2SM SN FZFG VV005 M01/M01 A2867 
    RMK AO2 P0002 T10111011 TSNO RVRNO=


112 
SPMC40 GMML 110310 COR
SPECI
GMML 110310Z 05011KT 3000 BR ///// Q1020 NOSIG=


237 
SAUS45 KTFX 110314
MTR1S3
METAR K1S3 110315Z AUTO 10SM


238 
SAUS45 KTFX 110314
MTR3U3
METAR K3U3 110315Z AUTO 11003KT 10SM M04/M13 A2994


239 
SAUS45 KTFX 110314
MTRPO1
METAR KPO1 110315Z AUTO 00000KT 10SM M11/M13 A2975


241 
SAUS45 KTFX 110314
MTR38S
METAR K38S 110315Z AUTO 16004KT 10SM M04/M11 A2996


319 
SAUS45 KTFX 110314
MTRS71
METAR KS71 110315Z AUTO 28006KT 10SM M06/M11 A2971


050 
SPCN52 CWAO 110314
SPECI CWRH 110314Z AUTO 27015KT ////SM BKN003 BKN008 M14/M15 A2957=


051 
SPCN31 CWAO 110314
SPECI CYQG 110314Z AUTO 08011KT 2SM -RA BR BKN016 OVC022 07/07 A2967 RMK PRESFR SLP052=


053 
SPCN42 CWAO 110314
SPECI CYQD 110314Z AUTO 25006KT 9SM -SN OVC025 M08/M11 A2946 RMK SLP996=


431 
SAAK32 KWBC 110300 RRA
METAR
PASY 110259Z 24017KT 10SM FEW025 OVC040 04/01 A3043=


440 
SPCN31 KWBC 110315
SPECI
CYKL 110313Z AUTO 17010KT 5SM -SN SCT028 M18/M20 A2971 RMK SLP119=


441 
SPCN31 KWBC 110315
SPECI
CYQG 110314Z AUTO 08011KT 2SM -RA BR BKN016 OVC022 07/07 A2967 RMK
PRESFR SLP052=


643 
SPUS81 KWBC 110315
SPECI
KCNK 110311Z AUTO 32016G24KT 10SM SCT017 BKN034 M01/M04 A2972=


875 
SANG31 AMMC 110300
METAR AYMO NIL=
METAR AYPY 110300Z 32015KT 9999 SHRA SCT025 BKN045 29/24 Q1006=



876 
SPCN48 CWAO 110314
SPECI CYPH 110314Z AUTO 24015KT SCT011 SCT020 BKN027 OVC041 M05/M07 A2942 RMK WX MISG VIS MISG PCPN MISG SLP968=


877 
SAAU67 AMMC 110300
METAR YPDN 110300Z 01004KT 330V060 9999 FEW035 BKN240 32/23 Q1008=
METAR YPEA 110300Z AUTO 28012KT 230V290 9999 // SCT040 SCT046 OVC060 23/11
     Q1014=
METAR YPGV 110300Z AUTO 15009KT 9999 // NCD 35/21 Q1007=
METAR YPKG 110300Z AUTO 13005KT 060V200 9999 // NCD 27/10 Q1011=
METAR YPKU 110300Z AUTO 02005KT 300V040 9999 // SCT061 36/21 Q1007=
METAR YPLM 110300Z AUTO 16016KT 9999 // NCD 36/08 Q1010=
METAR YPPD 110300Z AUTO 36008KT 9999 // NCD 34/23 Q1006=
METAR YPPH 110300Z 25012KT 9999 SCT044 SCT065 24/12 Q1013=
METAR YPTN 110300Z AUTO 11004KT 9999 // NCD 36/19 Q1007=



878 
SANA35 KAWN 110300 RRF
METAR COR MDSD 110300Z 01005KT 9999 FEW016 23/21 Q1016=
METAR SKCG 110300Z 03003KT CAVOK 26/23 Q1008 RMK A2978=


880 
SAAU61 AMMC 110300
METAR YBHI 110300Z AUTO 17006KT 130V230 9999 // NCD 26/02 Q1015=
METAR YBHM 110300Z AUTO 11010KT 9999 // BKN026 30/25 Q1007=
METAR YBLN 110300Z AUTO 19008KT 9999 // SCT038 OVC062 21/11 Q1014=
METAR YBMA 110300Z AUTO 17006KT 110V190 9999 // NCD 33/M06 Q1009=
METAR YBMK 110300Z AUTO 11011KT 9999 // NCD 30/25 Q1007=
METAR YBNA 110300Z AUTO 17013KT 9999 // SCT034 24/17 Q1011=
METAR YBOK 110300Z AUTO 01004KT 9999 // NCD 27/06 Q1011=
METAR YBPN 110300Z AUTO 11011KT 9999 // SCT037 SCT043 32/23 Q1006=
METAR YBRK 110300Z AUTO 14008KT 9999 // SCT040 SCT047 BKN069 32/22 Q1007=
METAR YBRM 110300Z AUTO 33010KT 9999 // SCT018 33/27 Q1007=



881 
SAAU66 AMMC 110300
METAR YMTG 110300Z AUTO 04006KT 350V090 9999 // NCD 22/06 Q1017=
METAR YNAR 110300Z AUTO 14005KT 080V170 9999 // SCT060 25/09 Q1014=
METAR YNBR 110300Z AUTO 15009KT 9999 // BKN060 25/10 Q1012=
METAR YNTN 110300Z AUTO 20006KT 170V260 9999 // NCD 38/M01 Q1005=
METAR YNWN 110300Z AUTO 16013KT 9999 // NCD 37/07 Q1011=
METAR YOLD 110300Z AUTO 29007KT 260V330 //// // ////// 31/02 Q1013=
METAR YPAD 110300Z 24012KT CAVOK 22/12 Q1015=
METAR YPBO 110300Z AUTO 17011KT 9999 // NCD 37/08 Q1011=
METAR YPCC 110300Z AUTO 23005KT 9999 // NCD 28/21 Q1012=



884 
SAAU64 AMMC 110300
METAR YGFN 110300Z AUTO 09009KT 090V150 9999 // SCT054 BKN067 26/15 Q1011=
METAR YGLA 110300Z AUTO 07012KT 9999 // NCD 31/21 Q1008=
METAR YGTE 110300Z AUTO 10007KT 9999 // SCT051 34/25 Q1006=
METAR YGTH 110300Z AUTO 12011KT 120V200 9999 // BKN063 24/08 Q1013=
METAR YHID 110300Z AUTO 32010KT 9999 // SCT022 SCT034 BKN090 31/25 Q1006=
METAR YHUG 110300Z AUTO 24007KT 190V280 9999 // NCD 34/03 Q1008=
METAR YKRY 110300Z AUTO 29005KT 250V310 9999 // NCD 28/07 Q1011=
METAR YLEC 110300Z AUTO 10005KT 060V140 9999 // NCD 30/00 Q1014=
METAR YLIS 110300Z AUTO 13012KT 9999 // NCD 26/16 Q1011=



886 
SAAU63 AMMC 110300
METAR YCDU 110300Z AUTO 35011KT 9999 // NCD 32/M04 Q1011=
METAR YCIN 110300Z AUTO 30007KT 250V350 9999 // NCD 36/24 Q1006=
METAR YCNM 110300Z AUTO 20008KT 170V240 //// // ////// 25/13 Q1012=
METAR YCOM 110300Z AUTO 20011KT 9999 // BKN028 OVC037 13/08 Q1018=
METAR YDBY 110300Z AUTO 31008KT 270V350 9999 // NCD 35/24 Q1007=
METAR YEML 110300Z AUTO 17004KT 130V230 9999 // NCD 31/13 Q1009=
METAR YESP 110300Z AUTO 20011KT 170V230 9999 // BKN033 BKN038 OVC057 21/14
     Q1012=
METAR YFRT 110300Z AUTO 01016KT 9999 // NCD 39/04 Q1005=
METAR YGEL 110300Z AUTO 24013KT 9999 // SCT037 SCT043 24/12 Q1015=



887 
SAAU68 AMMC 110300
METAR YCFS 110300Z AUTO 14010KT 9999 // BKN058 OVC069 23/14 Q1012=
METAR YPWR 110300Z AUTO 36013KT 280V030 9999 // NCD 30/02 Q1013=
METAR YPXM 110300Z AUTO 14006KT 9999 // BKN021 BKN032 28/23 Q1013=
METAR YRMD 110300Z AUTO 12008KT 9999 // NCD 36/01 Q1007=
METAR YSCB 110300Z AUTO 20011KT 160V220 9999 // OVC053 19/08 Q1016=
METAR YSDU 110300Z AUTO 20006KT 170V260 9999 // NCD 25/11 Q1013=
METAR YSNF 110300Z AUTO 04015KT 9999 // BKN010 25/22 Q1012=
METAR YSNW 110300Z AUTO 17016KT 9999 // SCT030 BKN037 BKN047 19/12 Q1015=
METAR YSRI 110300Z AUTO 18008KT 9999 // OVC055 20/11 Q1014=
METAR YSSY 110300Z 18026KT 9999 FEW035 SCT055 20/13 Q1014=



893 
SANA14 KAWN 110300 RRF
METAR KNSE 110256Z 17011KT 10SM BKN006 OVC011 23/22 A3004 RMK SLP156
      T02280217 51010=


996 
SAAP37 FAPR 110300
METAR FYGF 110300Z 03004KT 9999 -DZ ////// 20/17 Q1018=
METAR FYKM 110300Z AUTO 10003KT //// // ////// 21/20 Q1013=
METAR FYLZ 110300Z AUTO 21002KT //// // ////// 14/13 Q1010=
METAR FYWB 110300Z AUTO 02008KT //// // ////// 13/12 Q1012=


998 
SAAP32 FAPR 110300 RRA
METAR FAUT 110300Z 21004KT CAVOK 19/15 Q1006=


003 
SANG31 YBBN 110300 RRA
SPECI AGGH 110300Z SPECI AGGH 110300Z 16004KT 9999 FEW017 FEW018CB
SCT030 OVC100 27/25
Q1004
RMK SPECI CEASED=


006 
SAAP33 FAPR 110300 RRA
METAR FBSK 110300Z 10006KT CAVOK 21/16 Q1016 NOSIG=


012 
SAKO51 RJTD 110300
METAR RKPC 110300Z 33006KT 300V360 8000 BKN025 12/08 Q1027 NOSIG=
METAR RKPK 110300Z 29005KT CAVOK 14/02 Q1025=
METAR RKSI 110300Z 04004KT 6000 FEW014 BKN130 06/04 Q1027 NOSIG=
METAR RKSS 110300Z 26002KT 1700 1000SE R32L/1100N R32R/1800N BR
           BKN005 05/05 Q1027 BECMG 3500=
METAR RKTN 110300Z 27003KT 8000 NSC 12/03 Q1026=
METAR RKTU 110300Z 15001KT 1800 BR FEW000 SCT004 BKN025 06/06 Q1027=

013 
SAML31 LMMM 110300
METAR LMML 110245Z 32011KT 9999 FEW020 12/11 Q1006 NOSIG=


014 
SAAP36 FAPR 110300 RRA
METAR FQPB 110300Z 01003KT 9999 FEW020 25/23 Q1013=


346 
SAAL31 DAAA 110300 CCA
METAR COR DABC 110300Z 34018KT 8000 -SHRA SCT013 FEW020CB OVC023
09/07
 Q1012=


349 
SAPS31 NFFN 110300
METAR NCRG 110300Z NIL=
METAR NFFN 110300Z 06008KT 9999 -TSRA FEW018CB SCT026TCU 31/24 Q1009 

TEMPO 5000 TSRA=
METAR NFNA 110300Z 08009KT 9999 SCT020 SCT048 30/23 Q1009=
METAR NFTF 110300Z 10011G21KT 9999 FEW018TCU 29/25 Q1012=
METAR NFTV 110300Z 36008KT 9999 FEW009 BKN016TCU 27/24 Q1011=
METAR NGFU 110300Z 08010KT 9999 -SHRA FEW015CB FEW018TCU OVC100 
29/26
 Q1007=
METAR NGTA 110300Z 09010KT 9999 FEW020 BKN300 31/23 Q1006=
METAR NIUE 110300Z AUTO 11008KT // 27/23 Q1012=
METAR NSFA 110300Z NIL=
METAR NVSS 110300Z NIL=
METAR NVVV 110300Z NIL=
METAR PLCH 110300Z 11010KT 9999 FEW019 BKN040 28/23 Q1007=
METAR NFTL 110300Z 11006KT 9999 FEW016 28/22 Q1011=


351 
SACU31 MUHA 110315 RTD
METAR
MUCL 110305Z AUTO 07009KT 040V110 26/22 Q1017=


694 
SAAK41 KNKA 110315
SPECI PABI 110313Z 28008KT 2SM -SN OVC025 M14/M17 A2898 RMK AO2 
    P0000 T11391167=
SPECI PAGS 110314Z AUTO 11011KT 7SM -SN SCT005 BKN009 OVC080 M01/M02 
    A2887 RMK AO2 CIG 007V017 P0000 FZRANO=
SPECI PANI 110314Z AUTO 31008KT 10SM SCT027 M17/M20 A2960 RMK AO2 
    FZRANO=
SPECI PASI 110313Z 09007KT 3SM -SN BKN010 OVC016 01/M02 A2891 RMK 
    AO2 SNB05 P0000 T00111017 $=


784 
SAAO23 DRRN 110300 RRA
METAR DXNG 110300Z 08008KT 7000 NSC 21/05 Q1010=


122 
SANU31 TNCA 110300

METAR TNCA 110300Z 07007KT 9999 VCSH SCT017 25/23 Q1012 RERA NOSIG=


126 
SAUS46 KSEW 110315
MTRSMP
SPECI KSMP 110303Z AUTO 3SM -SN BR BKN004 OVC013 M01/M02 A2982 RMK 
AO2 P0000 T10061017


238 
SPZZ40 KAWN 110315 RRD
SPECI CWRH 110314Z AUTO 27015KT ////SM BKN003 BKN008 M14/M15 A2957=
SPECI CYAH 110312Z AUTO 24018G24KT 3SM -SN BKN022 OVC029 M09/M12 A2976
      RMK SLP104=
SPECI CYBU 110313Z AUTO 22009KT 9SM CLR M12/M15 A2946 RMK ICE SLP010=
SPECI CYKL 110313Z AUTO 17010KT 5SM -SN SCT028 M18/M20 A2971 RMK SLP119=
SPECI CYNA 110311Z AUTO 17007KT 2 1/2SM -FZUP BR FEW014 OVC027 M05/M06
      A3012 RMK ICE INTMT SLP204=
SPECI CYOY 110311Z AUTO 00000KT 8SM OVC013 M07/M08 A3013 RMK SLP217=
SPECI CYQD 110311Z AUTO 25006KT 9SM OVC025 M08/M11 A2946 RMK SLP996=
SPECI CYWA 110312Z AUTO 11004KT 080V150 9SM FEW010 SCT013 OVC017 M02/M04
      A3002 RMK SLP173=
SPECI EHVL 110311Z AUTO 17005KT 7000 BR BKN099 OVC100 01/01 Q1007 WHT=
SPECI GMML 110310Z 05011KT 3000 BR ///// Q1020 NOSIG=
SPECI GMML 110310Z 05011KT CAVOK ///// Q1020 NOSIG=
SPECI K79J 110307Z AUTO VRB04KT 10SM FEW009 SCT014 BKN020 23/21 A3004
      RMK AO2 T02330206=
SPECI KGUS 110311Z 16020G25KT 3SM BR OVC001 14/13 A2944 RMK AO2A SLP973
      $=
SPECI KLSF 110311Z AUTO 15006KT 5/8SM R15/3000V4500FT BR FEW014 18/17
      A3003 RMK AO2 SLP174=
SPECI KNMM 110309Z AUTO 19009KT 160V220 10SM BKN017 BKN023 OVC046 23/21
      A2992 RMK AO2 T02280206=
SPECI KNMM 110309Z AUTO 19009KT 160V220 10SM BKN017 BKN023 OVC046 23/21
      A2992 RMK AO2 T02280206=
SPECI KSSC 110311Z AUTO 00000KT 2 3/4SM BR OVC003 12/11 A3012 RMK AO2
      SLP201=
SPECI KTCM 110310Z 19015KT 7SM SCT033 BKN042 07/04 A2987 RMK AO2A RAB0257E10RAB10
      SLP121 RVRNO $=
SPECI PMDY 110311Z AUTO 09013KT 10SM SCT017 BKN022 BKN028 25/21 A3003
      RMK AO2=


461 
SAUK39 EGGY 110300 RRA
METAR EGUN 110256Z 27007KT 9999 CLR 00/00 A2987=


492 
SAIO31 FMMI 110300 CCA
METAR COR FMNA 110300Z 14010KT 9999 FEW020 25/21 Q1013=


913 
SAUS45 KTFX 110315
MTRCII
METAR KCII 110310Z AUTO 23018G31KT 10SM 00/M14 A2965 RMK A01 Choteau


914 
SAUS45 KTFX 110315
MTR6S5
METAR KHRF 110310Z AUTO 16010KT 10SM BKN038 BKN044 OVC049 00/M07 A2998 RMK AO2 Hamilton


917 
SAUS45 KTFX 110315
MTR6S8
METAR K6S8 110310Z AUTO RMK A01 Choteau


957 
SPCN41 CWAO 110315
SPECI CYZY 110315Z AUTO 16019G26KT 9SM -SN BKN031 OVC060 M02/M06 A2905 RMK SLP869=


075 
SAIN32 VIDP 110300 RRB
METAR VEBN 110300Z 25005KT 1000 BR NSC 15/11 Q1020 BECMG 1500 BR=


139 
SPNL31 KWBC 110316
SPECI
EHVL 110311Z AUTO 17005KT 7000 BR BKN099 OVC100 01/01 Q1007 WHT=


141 
SPPA31 KWBC 110316
SPECI
PMDY 110311Z AUTO 09013KT 10SM SCT017 BKN022 BKN028 25/21 A3003
RMK AO2=


248 
SPUS70 KWBC 110316
SPECI
KCEU 110312Z AUTO 00000KT 1/2SM FG VV003 10/10 A3010 RMK AO2
     T01000100=
KGBD 110313Z AUTO 31020G25KT 10SM SCT020 BKN120 M01/M04 A2984 RMK
     AO2 PK WND 30027/0303 FZRANO=
KHRO 110312Z AUTO 24007G15KT 10SM FEW055 18/14 A2954 RMK AO2
     RAE0257 TSE0259 P0000 T01830144=
KHZY 110312Z AUTO 15011G19KT 10SM SCT021 BKN050 BKN095 12/06 A2977
     RMK AO2 RAE02 P0000 T01170056=
KIEN 110311Z AUTO 25010KT 10SM SCT003 SCT027 M07/M09 A2989 RMK AO2
     T10721089 $=
KIWD 110313Z AUTO 06005KT 3/4SM -SN BR BKN010 OVC014 M03/M05 A2971
     RMK AO2 CIG 008V012 P0000 FZRANO RVRNO=
KJST 110312Z AUTO 16005KT 10SM BKN020 OVC110 07/01 A2993 RMK AO2
     T00720011=
KMBS 110312Z 10016G23KT 1 1/2SM +RA BR OVC005 03/02 A2958 RMK AO2
     PRESFR P0004 T00330022=
KMML 110313Z AUTO 35012KT 1 1/2SM -SN BR FEW006 OVC013 M02/M03
     A2973 RMK AO2 P0000 FZRANO=
KVPZ 110312Z AUTO 17007KT 3/4SM BR VV002 13/13 A2939 RMK AO2
     T01280128=
KVRB 110312Z AUTO 00000KT 1/4SM FG CLR 19/18 A3014 RMK AO2
     T01940183=
PAGN 110313Z AUTO 12004KT 2SM -SN BR SCT004 BKN008 OVC022 01/00
     A2894 RMK AO2 CIG 006V011 P0001 FZRANO=
PAGN 110313Z AUTO 12004KT 2SM -SN BR SCT004 BKN008 OVC022 01/00
     A2894 RMK AO2 CIG 006V011 P0001 FZRANO=
PAOU 110313Z AUTO 31032G44KT 1SM -SN BR FEW007 BKN017 OVC025
     M06/M08 A2969 RMK AO2 PK WND 33044/0305 P0000 FZRANO=
KBKV 110313Z AUTO 00000KT 2SM BR CLR 18/18 A3014 RMK AO2
     T01780178=
KFCM 110313Z AUTO 01012G23KT 3/4SM -SN BR VV011 M02/M03 A2961 RMK
     AO2 P0000 T10171033=
KGAD 110314Z AUTO 00000KT 7SM OVC010 15/15 A2997 RMK AO2 CIG
     008V013 $=
KGKJ 110313Z AUTO VRB04KT 10SM -RA SCT019 BKN070 OVC110 09/04
     A2981 RMK AO2 RAB0254 PRESFR P0000 T00940044=
KMCW 110313Z AUTO 02019G28KT 2SM BR BKN009 OVC013 M02/M04 A2943
     RMK AO2 PK WND 01028/0254 T10221039 PWINO FZRANO $=
KMSP 110313Z 01016G22KT 1SM R30L/P6000FT -SN BR VV010 M02/M03
     A2962 RMK AO2 P0001 T10171033=
KPMP 110313Z AUTO 09008KT 10SM FEW023 SCT028 SCT037 26/21 A3012
     RMK AO2 T02560211=
KWWD 110314Z AUTO 19004KT 4SM -RA BR BKN004 OVC015 11/10 A3012 RMK
     AO2 P0000 $=
PANI 110314Z AUTO 31008KT 10SM SCT027 M17/M20 A2960 RMK AO2
     FZRANO=
PAGS 110314Z AUTO 11011KT 7SM -SN SCT005 BKN009 OVC080 M01/M02
     A2887 RMK AO2 CIG 007V017 P0000 FZRANO=
PANI 110314Z AUTO 31008KT 10SM SCT027 M17/M20 A2960 RMK AO2
     FZRANO=
PASI 110313Z 09007KT 3SM -SN BKN010 OVC016 01/M02 A2891 RMK AO2
     SNB05 P0000 T00111017 $=


249 
SPUS81 KWBC 110316
SPECI
KPHP 110312Z AUTO 28006KT 10SM FEW005 M07/M08 A2986=


251 
SAUS70 KWBC 110316 RRA
METAR
K82C 110315Z AUTO 05003KT 5SM UP OVC008 00/00 A2942 RMK AO2
     T00031001=
K8B0 110315Z AUTO 00000KT 10SM OVC039 M04/M05 A3011 RMK AO2=
K96D 110315Z AUTO 27009G14KT 10SM CLR M07/M13 A2969 RMK AO2=
K9D7 110315Z AUTO 27006KT 10SM CLR M15/M15 A2972 RMK AO2 TSNO=
KACB 110315Z AUTO 05006KT 5SM UP OVC013 01/00 A2962 RMK AO2
     T00131002=
KACQ 110315Z AUTO 01019KT 1 1/2SM -SN BKN010 OVC017 M02/M03 A2954
     RMK AO2=
KADU 110315Z AUTO 34010G19KT 2 1/2SM -SN BKN012 OVC016 M01/M03
     A2947 RMK AO2=
KAFP 110315Z AUTO 00000KT 3SM BR OVC004 12/11 A3011 RMK AO2
     T01200111=
KAIG 110315Z AUTO 04016KT 2 1/2SM -SN OVC010 M02/M02 A2952 RMK AO2
     T10221025=
KAIK 110315Z AUTO 00000KT 3 1/2SM BR OVC003 12/12 A3012 RMK AO2
     T01250123=
KAIO 110315Z AUTO 33016G21KT 5SM -UP BKN010 OVC014 M01/M01 A2947
     RMK AO2=
KAIT 110315Z AUTO 00000KT 10SM BKN049 M05/M06 A2972 RMK AO2=
KALM 110315Z AUTO 00000KT 10SM CLR 10/M04 A3004 RMK AO2=
KAMN 110315Z AUTO 10007KT 2 1/2SM -RA OVC004 03/03 A2957 RMK AO2
     T00290029=
KAQX 110315Z AUTO 00000KT 3SM BR CLR 14/14 A3012 RMK AO2=
KARW 110315Z AUTO 00000KT 10SM CLR 15/14 A3013 RMK AO2=
KATS 110315Z AUTO 26015KT 10SM CLR 12/M01 A2996 RMK AO2=
KAUM 110315Z AUTO 02012G20KT 2SM -SN OVC009 M01/M02 A2944 RMK
     AO2=
KAWG 110315Z AUTO 00000KT 2 1/2SM BR OVC006 10/10 A2924 RMK
     AO2=
KAXA 110315Z AUTO 01023KT 2SM BR BKN007 BKN012 M02/M02 A2944 RMK
     A01=
KAXV 110315Z AUTO 16012KT 4SM BR OVC003 12/12 A2964 RMK AO2=
KBAX 110315Z AUTO 11010G16KT 3SM -SN BKN007 OVC011 04/04 A2966 RMK
     AO2 T00370037=
KBCB 110315Z AUTO 00000KT 4SM BR SCT008 BKN048 OVC070 07/07 A3007
     RMK AO2 T00700070=
KBKN 110315Z AUTO 30017G24KT 10SM SCT070 04/M03 A2978 RMK AO2=
KBNW 110315Z AUTO 01016G26KT 2SM BR OVC004 M01/M00 A2940 RMK
     AO2=
KBOW 110315Z AUTO 10006KT 10SM CLR 21/19 A3014 RMK AO2=
KBRG 110315Z AUTO 03014KT 10SM SCT048 00/M17 A3016 RMK AO2
     T00001172=
KBVU 110315Z AUTO 02010KT 10SM CLR 07/M13 A3025 RMK AO2=
KBWP 110315Z AUTO 25004KT 10SM FEW120 M04/M05 A2976 RMK AO2=
KBXK 110315Z AUTO 34006KT 10SM 13/02 A3014 RMK A01=
KC29 110315Z AUTO 06009KT 3SM OVC005 02/02 A2936 RMK AO1
     T00220018=
KC35 110315Z AUTO 04007KT 7SM OVC006 00/00 A2941 RMK AO2 P0001
     T00000000 PWINO=
KCBG 110315Z AUTO 35006KT 1 3/4SM -SN VV007 M02/M06 A2970 RMK
     AO2=
KCCY 110315Z AUTO 9SM M01/M01 A2938 RMK AO2=
KCDA 110315Z AUTO 00000KT 10SM OVC050 M02/M04 A3014 RMK AO2
     T10171040=
KCDI 110315Z AUTO 16003KT 10SM OVC014 12/11 A2982 RMK AO2
     T01200110=
KCDN 110315Z AUTO 00000KT 1/2SM BR OVC002 11/11 A3013 RMK AO2=
KCFE 110315Z AUTO 36013KT 1 1/2SM -SN BR SCT003 BKN008 OVC023
     M02/M03 A2968 RMK AO2=
KCFJ 110315Z AUTO 17015G22KT 7SM OVC003 14/14 A2949 RMK AO2 LTG
     DSNT E W AND NW T01380138=
KCGC 110315Z AUTO RMK AO2 PWINO PNO TSNO=
KCGE 110315Z AUTO 12003KT 10SM BKN006 OVC015 09/09 A3010 RMK
     A01=
KCJR 110315Z AUTO 00000KT 10SM OVC020 08/07 A3008 RMK AO2
     T00810065=
KCKC 110315Z AUTO 35003KT 10SM BKN004 BKN090 M07/M08 A2970 RMK
     AO2=
KCKI 110315Z AUTO 00000KT 4SM BR OVC015 12/11 A3014 RMK AO2=
KCKM 110315Z AUTO 18018G25KT 10SM FEW026 SCT030 BKN045 24/21 A2971
     RMK A01=
KCKZ 110315Z AUTO 05004KT 10SM OVC042 05/03 A3010 RMK AO2=
KCLW 110315Z AUTO 00000KT 10SM CLR 20/19 A3012 RMK AO2=
KCMR 110315Z AUTO 10003KT 10SM CLR M06/M10 A3015 RMK AO2=
KCNB 110315Z AUTO 00000KT 5SM -SN SCT021 BKN028 OVC045 M02/M02
     A2976 RMK AO2 T10201025=
KCNC 110315Z AUTO 31016KT 1/4SM -UP OVC002 03/03 A2932 RMK AO2=


254 
SAAW32 KWBC 110300 RRB
METAR
OTBH 110256Z AUTO 31006KT 8000 BR CLR 17/16 A3017=


255 
SAUS70 KWBC 110316 RRC
METAR
KHCD 110315Z AUTO 34014G19KT 1 3/4SM -SN VV007 M01/M02 A2969 RMK
     AO2 T10151020=
KHCO 110315Z AUTO 00000KT 10SM CLR M12/M13 A2971 RMK AO2=
KHNR 110315Z AUTO 34020KT 7SM BKN016 BKN024 OVC035 M02/M02 A2950
     RMK A01=
KHOB 110315Z AUTO 25014G21KT 10SM BKN039 BKN045 12/M01 A2995 RMK
     AO2=
KHRJ 110315Z AUTO 24003KT 10SM OVC015 12/12 A3013 RMK AO2
     T01210121=
KHVS 110315Z AUTO 00000KT 1/2SM FG OVC002 11/11 A3012 RMK AO2=
KHWY 110315Z AUTO 00000KT 10SM OVC023 08/07 A3006 RMK AO2
     T00800066=
KHXD 110315Z AUTO 16004KT 10SM BKN055 17/16 A3014 RMK AO2
     PWINO=
KHYW 110315Z AUTO 00000KT 5SM BR BKN022 OVC029 12/12 A3015 RMK
     AO2=
KHYX 110315Z AUTO 10015G20KT 2 1/2SM -RA OVC005 05/03 A2957 RMK
     AO2 T00460030=
KHZE 110315Z AUTO 23008KT 10SM FEW080 SCT090 M08/M09 A2978 RMK
     AO2=
KHZL 110315Z AUTO 13003KT 10SM BKN031 OVC037 05/00 A3008 RMK
     AO2=
KHZX 110315Z AUTO 10SM BKN045 OVC050 M04/M05 A2972 RMK AO2=
KI67 110315Z AUTO 18009KT 7SM OVC007 15/14 A2968 RMK AO1=
KI68 110315Z AUTO 16010KT 4SM BR OVC003 15/14 A2970 RMK AO1
     T01450143=
KI69 110315Z AUTO 18009G16KT 10SM OVC008 15/14 A2973 RMK AO2
     T01520142=
KICL 110315Z AUTO 33014G22KT 8SM BKN008 OVC011 00/00 A2951 RMK
     AO2=
KIDI 110315Z AUTO 16007KT 10SM FEW050 OVC110 11/04 A2995 RMK
     A01=
KIIB 110315Z AUTO 04013KT 5SM BR OVC006 03/03 A2932 RMK AO2
     T00250025=
KIKV 110315Z AUTO 35012KT 1SM BR OVC004 01/01 A2936 RMK AO2=
KISO 110315Z AUTO 00000KT 10SM RA BKN060 OVC075 12/11 A3013 RMK
     AO2 T01220113=
KIXA 110315Z AUTO 20003KT 1/4SM FG OVC002 08/08 A3011 RMK AO2=
KJAQ 110315Z AUTO 00000KT 10SM CLR 06/02 A3021 RMK AO1
     T00560024=
KJFX 110315Z AUTO VRB06G20KT 10SM BKN015 BKN019 22/22 A2989 RMK
     AO2 PWINO=
KJFZ 110315Z AUTO 16005KT 10SM BKN036 OVC065 14/12 A2997 RMK AO2
     T01430120=
KJGG 110315Z AUTO 18003KT 1/2SM OVC002 11/10 A3011 RMK AO1=
KJKJ 110315Z AUTO 00000KT 10SM CLR M06/M07 A2978 RMK AO2=
KJMR 110315Z AUTO 01004KT 5SM +RA OVC008 M03/M03 A2973 RMK AO2=
KJVW 110315Z AUTO 17009G17KT 10SM BKN026 BKN033 OVC044 23/23 A2986
     RMK AO2=
KKY8 110315Z AUTO 17012G22KT 10SM FEW017 SCT100 20/20 A2960 RMK
     A01=
KL08 110315Z AUTO 00000KT 10SM FEW043 FEW050 SCT055 10/M02 A3016
     RMK AO2=
KL52 110315Z AUTO 00000KT 10SM CLR 11/02 A3019 RMK A01=
KLBE 110315Z AUTO 16004KT 10SM -DZ FEW075 BKN090 14/09 A2990 RMK
     AO2=
KLBO 110315Z AUTO 21015G24KT 10SM CLR 18/12 A2947 RMK AO2=
KLDM 110315Z AUTO 10015G19KT 5SM BR OVC007 02/01 A2946 RMK AO2
     T00190007 P0001=
KLKR 110315Z AUTO 19004KT 2SM BR 11/11 A3011 RMK AO2=
KLKU 110315Z AUTO 00000KT 10SM OVC020 08/07 A3010 RMK AO2
     T00780071=
KLNL 110315Z AUTO 04004KT 1/4SM SN OVC003 M03/M03 A2966 RMK AO2
     T10261033=
KLNP 110315Z AUTO 15007KT 10SM OVC025 13/11 A2997 RMK AO2=
KLRJ 110315Z AUTO 34019G30KT 1 1/4SM -SN OVC003 M02/M03 A2962 RMK
     AO2=
KLRO 110315Z AUTO 00000KT 5SM BR BKN040 OVC049 14/14 A3014 RMK
     AO2=
KLRU 110315Z AUTO 27012KT 10SM CLR 10/00 A3008 RMK AO2
     T00950000=
KLRY 110315Z AUTO 30013G24KT 10SM CLR 07/02 A2951 RMK AO2=
KLUM 110315Z AUTO 01010KT 1SM SN M01/M01 A2958 RMK AO2
     T10061011=
KLWA 110315Z AUTO 13008KT 3SM BR OVC004 11/11 A2940 RMK AO2
     T01050105=
KM40 110315Z AUTO 18014G24KT 10SM BKN021 BKN026 OVC070 23/22 A2985
     RMK AO2=
KMAN 110315Z AUTO 12008KT 10SM 01/01 A3017 RMK A01=
KMCX 110335Z AUTO 16013G19KT 5SM BR OVC003 14/13 A2941 RMK AO2
     T01400133=
KMGN 110315Z AUTO 08013G19KT 4SM -SN OVC018 01/M01 A2969 RMK AO2
     T00111008=
KMJD 110415Z AUTO 00000KT 2 1/2SM OVC006 OVC006 RMK AO2=


257 
SPUS81 KWBC 110316
SPECI
KJBR 110312Z AUTO 20015G27KT 2SM +TSRA BR BKN026 BKN049 OVC070
18/18 A2960=


258 
SAAU31 KWBC 110300 RRA
METAR
YBMA 110300Z AUTO 17006KT 110V190 9999 // NCD 33/M06 Q1009=
YBRM 110300Z AUTO 33010KT 9999 // SCT018 33/27 Q1007=
YPPD 110300Z AUTO 36008KT 9999 // NCD 34/23 Q1006=
YSDU 110300Z AUTO 20006KT 170V260 9999 // NCD 25/11 Q1013=
YSNF 110300Z AUTO 04015KT 9999 // BKN010 25/22 Q1012=
YSRI 110300Z AUTO 18008KT 9999 // OVC055 20/11 Q1014=


259 
SAUS70 KWBC 110316 RRB
METAR
KCOQ 110315Z AUTO 34003KT 10SM BKN065 OVC070 M04/M07 A2970 RMK AO2
     TSNO=
KCPC 110315Z AUTO 00000KT 5SM BR OVC018 14/13 A3016 RMK AO2
     T01350125=
KCPT 110315Z AUTO 24006KT 10SM FEW022 FEW027 FEW032 22/06 A2977
     RMK A01=
KCSQ 110315Z AUTO 32017G22KT 2 1/2SM -UP OVC004 M00/00 A2940 RMK
     AO2=
KCVH 110315Z AUTO 00000KT 10SM CLR 07/00 A3026 RMK A01=
KCXE 110315Z AUTO 00000KT 10SM OVC014 12/09 A3009 RMK AO1
     T01210090=
KD25 110315Z AUTO 03004KT 3/4SM SN OVC005 M03/M03 A2965 RMK AO2
     P0001 T10331033=
KD39 110315Z AUTO 34003KT 10SM SCT005 BKN055 M03/M03 A2973 RMK AO2
     T10331035=
KD57 110315Z AUTO 30007KT 10SM CLR M07/M12 A2977 RMK AO2=
KD60 110315Z AUTO 26010KT 10SM CLR M10/M12 A2972 RMK AO2=
KD95 110315Z AUTO 12007KT 2 1/2SM RA OVC005 04/04 A2966 RMK AO2
     T00410041 P0005=
KDEH 110315Z AUTO 03009G17KT 2 1/2SM -RA OVC004 M00/M00 A2937 RMK
     AO2=
KDNA 110315Z AUTO 28008KT 10SM CLR 09/00 A3008 RMK AO2=
KDNS 110315Z AUTO 35015G21KT 3/4SM +UP OVC003 M02/M02 A2953 RMK
     AO2=
KDRM 110315Z AUTO 10007KT 070V130 10SM SCT027 OVC050 02/M01 A2979
     RMK AO2 T00171006=
KDYB 110315Z AUTO 00000KT 2 1/2SM BR FEW025 BKN031 OVC039 13/13
     A3014 RMK AO2=
KEDE 110315Z AUTO 00000KT 10SM SCT021 SCT026 OVC100 13/13 A3013
     RMK AO2 T01320132=
KEDJ 110315Z AUTO 17012G20KT 1 3/4SM BR OVC004 12/12 A2969 RMK
     A01=
KEFK 110315Z AUTO 17003KT 10SM OVC029 00/M03 A3012 RMK AO2
     T10051029=
KEGV 110315Z AUTO 04010G16KT 1SM -SN OVC004 M03/M03 A2962 RMK AO2
     T10281028=
KELO 110315Z AUTO 14008KT 10SM M07/M08 A2971 RMK AO2=
KEOK 110315Z AUTO 19010KT 10SM BKN055 BKN070 15/15 A2929 RMK
     A01=
KEVM 110315Z AUTO 07004KT 10SM SCT075 OVC085 M06/M07 A2972 RMK
     AO2=
KEVU 110315Z AUTO 30022G27KT 5SM BR OVC004 01/01 A2948 RMK AO2
     T00160009=
KEYF 110315Z AUTO 16006KT 3 1/2SM BR OVC021 13/13 A3014 RMK AO2
     T01280126=
KFDK 110315Z AUTO 00000KT 10SM OVC023 08/03 A3006 RMK AO2=
KFFL 110315Z AUTO 35004KT M1/4SM FG OVC002 08/08 A2926 RMK A01=
KFFM 110315Z AUTO 25003KT 10SM CLR M04/M06 A2973 RMK AO2=
KFFX 110315Z AUTO 10007G15KT 4SM RA OVC005 02/02 A2948 RMK AO2
     T00220015=
KFGN 110315Z AUTO 00000KT 10SM CLR M09/M12 A2969 RMK AO2=
KFIN 110315Z AUTO 00000KT 19/18 A3014 RMK AO2 T01870184 PWINO
     TSNO=
KFKA 110315Z AUTO 03013G18KT 1SM -SN OVC004 M02/M03 A2943 RMK AO2
     T10251033=
KFKN 110315Z AUTO 00000KT 1/4SM FG OVC003 09/09 A3011 RMK AO2
     T00940090 TSNO=
KFSO 110315Z AUTO 00000KT 10SM OVC038 03/M01 A3010 RMK AO2
     T00251008=
KFVX 110315Z AUTO 22003KT 10SM OVC018 12/08 A3007 RMK AO2
     T01170080=
KFWB 110315Z AUTO RMK AO2 PNO PWINO TSNO=
KFXY 110315Z AUTO 02016G24KT 2 1/2SM -SN BKN009 OVC012 M01/M02
     A2944 RMK AO2=
KFYG 110315Z AUTO 21020G30KT 1 3/4SM VCTS RA BR SCT030 SCT044
     BKN075 17/16 A2943 RMK AO2 LTG DSNT ALQDS=
KGDB 110315Z AUTO 35009KT 3SM -SN BKN007 OVC012 M01/M02 A2976 RMK
     AO2 T10071016=
KGHW 110315Z AUTO 00000KT 10SM SCT070 M03/M04 A2973 RMK AO2=
KGLY 110315Z AUTO 30013G21KT 9SM 13/05 A2945 RMK AO2=
KGWR 110315Z AUTO 23007KT 10SM CLR M06/M06 A2976 RMK A01=
KGYH 110315Z AUTO 00000KT 3/4SM DZ BR OVC002 10/10 A3010 RMK A02
     P0001 T01030102=
KGYL 110315Z AUTO 36010G19KT 1 1/2SM -SN OVC008 M02/M03 A2965 RMK
     AO2 T10181029 P0001=
KHAE 110315Z AUTO 19012G18KT 10SM CLR 16/13 A2933 RMK AO2=
KHAF 110315Z AUTO 00000KT 10SM CLR 05/04 A3025 RMK AO2=
KHAI 110315Z AUTO 16013G19KT 2SM -RA OVC002 11/11 A2945 RMK AO2
     T01060106=
KHBI 110315Z AUTO 17003KT 10SM OVC008 12/09 A3012 RMK AO2
     T01150090=


260 
SPXX60 KWBC 110316 CCA
SPECI
KNMM 110309Z AUTO 19009KT 160V220 10SM BKN017 BKN023 OVC046 23/21
     A2992 RMK AO2 T02280206=


264 
SAUS70 KWBC 110316 RRE
METAR
KSJX 110315Z AUTO 08013G19KT 3SM -SN BKN007 OVC010 01/01 A2969 RMK
     AO2 T00110005=
KSLB 110315Z AUTO 3/4SM +UP VV005 M03/M03 A2951 RMK AO2=
KSNK 110315Z AUTO 25015G21KT 10SM CLR 18/00 A2988 RMK AO2
     T01751004=
KSPF 110315Z AUTO 26007KT 10SM CLR M05/M12 A2983 RMK AO2=
KSRR 110315Z AUTO 32013G21KT 10SM CLR 02/M11 A3006 RMK AO2=
KSTF 110315Z AUTO 19013G22KT 10SM BKN019 OVC024 23/20 A2983 RMK
     AO2=
KSUA 110315Z AUTO 00000KT 10SM CLR 22/18 A3015 RMK AO2=
KSUT 110315Z AUTO 27004KT 10SM OVC038 16/13 A3016 RMK AO2
     T01560133=
KSUZ 110315Z AUTO 26012G22KT 220V280 2 1/2SM BR FEW004 SCT023
     BKN036 22/20 A2966 RMK A01=
KSVC 110315Z AUTO 31011KT 10SM CLR 04/M01 A3008 RMK AO2
     T00441012=
KSVH 110315Z AUTO 21003KT 1SM BR OVC003 11/10 A3009 RMK AO2
     T01060101=
KSXU 110315Z AUTO 30021G28KT 10SM CLR 02/M15 A3003 RMK AO2
     T00211150=
KSYM 110315Z AUTO 19009KT 160V220 10SM OVC014 16/14 A2981 RMK
     AO2=
KT69 110315Z AUTO 18006KT 7SM CLR 24/23 A2979 RMK A01=
KTKX 110315Z AUTO 21020G31KT 6SM BR SCT043 BKN060 OVC110 23/21
     A2957 RMK AO2 LTG DSNT ALQDS=
KTME 110315Z AUTO 21010KT 8SM OVC019 26/23 A2984 RMK AO2=
KTNU 110315Z AUTO 36011G17KT 3/4SM BR OVC002 02/02 A2931 RMK
     A01=
KTOB 110315Z AUTO 02019G26KT 2SM M02/M03 A2947 RMK AO2 PWINO=
KTPF 110315Z AUTO 14005KT 7SM BKN046 BKN075 OVC110 24/21 A3013 RMK
     AO2=
KTSP 110315Z AUTO 12008KT 10SM CLR 02/M02 A3021 RMK AO2=
KTVY 110315Z AUTO 19005KT 10SM CLR M07/M09 A3024 RMK AO2=
KTWM 110315Z AUTO 33003KT 10SM OVC080 M04/M07 A2971 RMK AO2=
KUBE 110315Z AUTO 01008G15KT 1 1/4SM -SN OVC011 M01/M02 A2964 RMK
     AO2=
KUKT 110315Z AUTO 00000KT 10SM OVC042 06/02 A3010 RMK A01=
KULM 110315Z AUTO 35010G16KT BKN007 OVC012 M02/M03 A2963 RMK AO2
     PWINO=
KUNV 110315Z AUTO 00000KT 10SM SCT041 05/00 A3000 RMK AO2
     T00521005=
KUOX 110315Z AUTO 19012G21KT 160V220 10SM FEW025 BKN030 OVC047
     23/19 A2977 RMK AO2 PWINO=
KVDF 110315Z AUTO 16003KT 10SM SCT042 23/20 A3014 RMK AO2=
KVER 110315Z AUTO 22005KT 10SM OVC028 18/15 A2936 RMK AO2
     T01770147=
KVGC 110315Z AUTO 11005KT 7SM OVC046 00/M01 A3005 RMK AO2=
KVKS 110315Z AUTO 19014KT 10SM OVC025 24/22 A2983 RMK A01=
KVLL 110315Z AUTO 10006KT 1 1/4SM UP BKN006 BKN013 OVC019 07/06
     A2968 RMK AO2 VIS 3/4V2 1/2 T00660060=
KVNC 110315Z AUTO 06004KT 3SM BR SCT027 BKN036 BKN042 21/21 A3012
     RMK AO2=
KVNW 110315Z AUTO RMK AO2 PWINO=
KVVV 110315Z AUTO 29004KT 10SM OVC085 M03/M03 A2976 RMK AO2=
KW81 110315Z AUTO 17003KT 10SM OVC012 11/07 A3007 RMK AO1
     T01130071=
KX60 110315Z AUTO 10005KT 1/2SM FG VV005 18/18 A3013 RMK AO2
     T01770176=
KY19 110315Z AUTO 27011KT 10SM CLR M06/M08 A2977 RMK AO2=
KY63 110315Z AUTO 27004KT 10SM OVC110 M04/M04 A2976 RMK AO2
     T10451045=


265 
SACA41 KWBC 110300 RRA
METAR
MUCL 110305Z AUTO 07009KT 040V110 26/22 Q1017=


266 
SAAF31 KWBC 110300 RRC
METAR
DXNG 110300Z 08008KT 7000 NSC 21/05 Q1010=


267 
SPCN31 KWBC 110316
SPECI
CYZY 110315Z AUTO 16019G26KT 9SM -SN BKN031 OVC060 M02/M06 A2905
RMK SLP869=


268 
SACA33 KWBC 110300 RRC
METAR
TNCA 110300Z 07007KT 9999 VCSH SCT017 25/23 Q1012 RERA NOSIG=


270 
SAAF32 KWBC 110300 RRB
METAR
FCBB 110300Z 00000KT 9000 FEW020 24/23 Q1009 NOSIG=
FCPP 110300Z 18005KT 7000 FEW008 BKN023 FEW030CB 26/25 Q1007
     NOSIG=
FEFT 110300Z NIL=
FGBT 110300Z NIL=
FGSL 110300Z 24004KT 9999 FEW010 26/24 Q1007 NOSIG=
FKKD 110300Z 00000KT 8000 TS BKN013 SCT016CB 25/24 Q1006 NOSIG=
FKKL 110300Z NIL=
FKKN 110300Z NIL=
FKKR 110300Z NIL=
FOOG 110300Z NIL=
FOOL 110300Z 12003KT 9000 -TSRA SCT012 FEW020CB 24/24 Q1007 BECMG
     NSW=
FOON 110300Z NIL=
FPST 110300Z NIL=


271 
SPXX62 KWBC 110316
SPECI
PMDY 110311Z AUTO 09013KT 10SM SCT017 BKN022 BKN028 25/21 A3003
RMK AO2=


273 
SAAF33 KWBC 110300 RRA
METAR
FNHU 110300Z NIL=
FNLU 110300Z NIL=


274 
SPXX60 KWBC 110316
SPECI
PABI 110313Z 28008KT 2SM -SN OVC025 M14/M17 A2898 RMK AO2 P0000
     T11391167=
PABI 110313Z 28008KT 2SM -SN OVC025 M14/M17 A2898 RMK AO2 P0000
     T11391167=
K79J 110307Z AUTO VRB04KT 10SM FEW009 SCT014 BKN020 23/21 A3004
     RMK AO2 T02330206=
KGUS 110311Z 16020G25KT 3SM BR OVC001 14/13 A2944 RMK AO2A SLP973
     $=
KLSF 110311Z AUTO 15006KT 5/8SM R15/3000V4500FT BR FEW014 18/17
     A3003 RMK AO2 SLP174=
KNMM 110309Z AUTO 19009KT 160V220 10SM BKN017 BKN023 OVC046 23/21
     A2992 RMK AO2 T02280206=
KNMM 110309Z AUTO 19009KT 160V220 10SM BKN017 BKN023 OVC046 23/21
     A2992 RMK AO2 T02280206=
KSSC 110311Z AUTO 00000KT 2 3/4SM BR OVC003 12/11 A3012 RMK AO2
     SLP201=
KTCM 110310Z 19015KT 7SM SCT033 BKN042 07/04 A2987 RMK AO2A
     RAB0257E10RAB10 SLP121 RVRNO $=
PMDY 110311Z AUTO 09013KT 10SM SCT017 BKN022 BKN028 25/21 A3003
     RMK AO2=


275 
SAXX61 KWBC 110300 RRD
METAR
EGUN 110256Z 27007KT 9999 CLR 00/00 A2987=


276 
SAUS70 KWBC 110316
METAR
K1S5 110315Z AUTO 11005KT 10SM SCT080 OVC110 05/00 A3000 RMK AO2
     T00520002=
K20U 110315Z AUTO 26009KT 10SM CLR M07/M10 A2978 RMK AO2=
KAQP 110313Z AUTO 29003KT 10SM OVC006 M02/M03 A2976 RMK AO2=
KARV 110315Z AUTO 03005KT 1SM SN OVC004 M01/M17 A2963 RMK AO2
     P0001 T10151172=
KASJ 110315Z AUTO 00000KT 1/4SM -DZ OVC003 09/09 A3011 RMK AO2
     T00910091=
KBWW 110315Z AUTO 26012KT 10SM CLR M08/M10 A2977 RMK AO2=
KCBF 110315Z AUTO 33017KT 8SM -SN BKN008 OVC012 M01/M01 A2952 RMK
     AO2=
KCDH 110315Z AUTO 19011G23KT 10SM BKN026 OVC032 24/22 A2968 RMK
     AO2=
KCQW 110315Z AUTO 00000KT 3SM BR OVC004 12/11 A3012 RMK AO2
     PWINO=
KEZS 110315Z AUTO 06012G16KT 5SM -SN OVC007 01/01 A2951 RMK AO2
     T00120009=
KFRH 110315Z AUTO 17008KT 141V201 10SM OVC008 17/17 A2959 RMK
     AO1=
KGAF 110315Z AUTO 21005KT 10SM CLR M14/M15 A2973 RMK AO2=
KGEV 110315Z AUTO 00000KT 3SM BR BKN002 06/04 A3005 RMK AO2
     T00580037=
KGGE 110315Z AUTO 00000KT 1SM BR BKN024 BKN085 OVC120 12/11 A3015
     RMK AO2=
KINF 110315Z AUTO 00000KT 4SM BR CLR 18/18 A3014 RMK AO2=
KIPJ 110315Z AUTO 00000KT 1/2SM FG OVC003 11/10 A3009 RMK AO2
     T01050104=
KJXI 110315Z AUTO 17009G17KT 10SM CLR 23/18 A2972 RMK AO2
     T02330175=
KMAW 110315Z AUTO 25018G46KT 2 1/2SM TSRA BKN008 OVC015 A2960 RMK
     AO2 P0020 LTG DSNT ALQS=
KMBY 110315Z AUTO 19010KT 10SM CLR 16/12 A2933 RMK AO2=
KMHL 110315Z AUTO 27015G22KT 10SM CLR 12/07 A2940 RMK AO2=
KMYJ 110315Z AUTO 18015G19KT 10SM SCT065 SCT070 SCT110 15/12 A2936
     RMK AO2=
KOIN 110315Z AUTO 34012KT 10SM OVC050 M02/M04 A2993 RMK AO1
     T10241041=
KOWA 110313Z AUTO 36014G19KT 1 3/4SM -SN BKN010 OVC018 M02/M03
     A2952 RMK AO2=
KRBW 110315Z AUTO 00000KT 7SM SCT065 SCT075 13/13 A3015 RMK
     AO2=
KRCX 110315Z AUTO 02010KT 1SM SN M02/M02 A2962 RMK AO2 P0001
     T10171017=
KSXK 110315Z AUTO 34021G27KT 3/4SM -SN OVC002 M03/M03 A2963 RMK
     AO2=
K04W 110315Z AUTO 00000KT 4SM -SN CLR M02/M02 A2972 RMK AO2=
K06D 110315Z AUTO 24015KT 10SM CLR M08/M11 A2967 RMK AO2=
K0S9 110315Z AUTO 16009G23KT 130V200 10SM BKN013 OVC017 07/05
     A2975 RMK AO2=
K0VG 110315Z AUTO 00000KT 4SM BR 10/10 A2996 RMK AO2 PWINO=
K14Y 110315Z AUTO 33003KT 7SM CLR M03/M04 A2973 RMK AO2=
K21D 110315Z AUTO 01010G17KT 1SM SN VV007 M01/M02 A2963 RMK
     AO2=
K22N 110315Z AUTO 00000KT 10SM OVC046 04/00 A3011 RMK AO2=
K24J 110315Z AUTO 00000KT 1/4SM FG VV002 17/17 A3012 RMK A01=
K28J 110315Z AUTO 16005KT 8SM FEW031 SCT048 18/17 A3014 RMK
     AO2=
K2D5 110315Z AUTO 23004KT 10SM CLR M06/M07 A2977 RMK AO2=
K2G4 110315Z AUTO 14010KT 5SM SCT028 BKN055 OVC065 05/05 A2994 RMK
     AO1=
K2W6 110315Z AUTO 00000KT 10SM OVC024 10/09 A3008 RMK AO1=
K35A 110315Z AUTO 00000KT 1/2SM FG OVC003 10/10 A3014 RMK A02
     T01010101=
K3D2 110315Z AUTO 07012G19KT 1 1/2SM -SN OVC003 00/00 A2953 RMK
     AO2 T00001002=
K3N8 110315Z AUTO 20006KT 10SM CLR M07/M08 A2975 RMK AO2
     T10691084=
K42J 110315Z AUTO 14005KT 7SM OVC038 19/19 A3013 RMK A01=
K46D 110315Z AUTO 26011KT 10SM CLR M10/M12 A2975 RMK AO2=
K4A6 110315Z AUTO 21014G22KT 180V240 10SM BKN012 OVC020 20/20
     A2991 RMK AO2=
K4M9 110315Z AUTO 19021KT 10SM FEW100 20/20 A2953 RMK AO2 LTG DSNT
     ALQDS PWINO=
K54J 110315Z AUTO 18007KT 10SM OVC006 22/21 A3007 RMK AO2
     T02170205=
K5H4 110315Z AUTO 23009KT 10SM FEW070 BKN090 M11/M12 A2975 RMK
     AO2=
K6B9 110315Z AUTO 12007KT 080V140 10SM OVC046 05/02 A2996 RMK
     AO2=
K6L4 110315Z AUTO 18008G13KT 10SM FEW038 BKN045 OVC070 17/15 A2988
     RMK AO2=
K7L2 110315Z AUTO 25004KT 10SM CLR M08/M09 A2979 RMK AO2=


278 
SAXX60 KWBC 110300 RRO
METAR
KBLV 110256Z AUTO 16006G19KT 10SM FEW130 21/18 A2941 RMK AO2 PK
     WND 20028/49 LTG DSNT NE SLP960 60000 T02050177 58021 $=
KFRI 110256Z AUTO 31011G20KT 10SM OVC021 01/M04 A2967 RMK AO2
     SLP052 T00131038 52037=
KGXF 110258Z AUTO 00000KT 10SM CLR 14/10 A3010 RMK AO2 SLP190
     T01400099 52016 $=
KFRI 110256Z AUTO 31011G20KT 10SM OVC021 01/M04 A2967 RMK AO2
     SLP052 T00131038 52037=
PASY 110259Z 24017KT 10SM FEW025 OVC040 04/01 A3043 RMK AO2A
     SLP307 ALSTG/SLP ESTMD WND DATA ESTMD T00440012 56004 RVRNO
     PNO $=


280 
SAUS70 KWBC 110300 RRX
METAR
KNSE 110256Z 17011KT 10SM BKN006 OVC011 23/22 A3004 RMK SLP156
     T02280217 51010=
KNSE 110256Z 17011KT 10SM BKN006 OVC011 23/22 A3004 RMK SLP156
     T02280217 51010=


281 
SAAF34 KWBC 110300 RRC
METAR
FEFF 110300Z 28004KT 8000 NSC 22/19 Q1006 NOSIG=


282 
SAUS70 KWBC 110316 RRD
METAR
KMKJ 110315Z AUTO 08003KT 7SM OVC060 07/06 A3005 RMK AO2
     T00660060=
KMKS 110315Z AUTO 00000KT 4SM BR BKN027 BKN034 BKN042 12/12 A3015
     RMK AO2=
KMOP 110315Z AUTO 09007KT 2SM UP OVC004 02/02 A2956 RMK AO2
     T00220022 P0007=
KMOX 110315Z AUTO 31005KT 10SM OVC006 M03/M03 A2976 RMK AO2=
KMPZ 110315Z AUTO 19008KT 5SM BR CLR 13/13 A2926 RMK AO2=
KMQJ 110315Z AUTO 16014G18KT 7SM OVC003 14/14 A2958 RMK AO1=
KMRN 110315Z AUTO 00000KT 3SM BR OVC005 10/09 A3012 RMK AO2
     T01010093=
KMUT 110315Z AUTO 26011G22KT 10SM FEW008 SCT014 BKN031 14/14 A2929
     RMK AO2=
KMVE 110315Z AUTO 35007KT 10SM BKN006 BKN011 OVC060 M02/M03 A2976
     RMK AO2=
KMWK 110315Z AUTO 00000KT 10SM 10/08 A3010 RMK AO2 T00950076=
KMWM 110315Z AUTO 34025G30KT 1 1/2SM -SN OVC006 M03/M04 A2961 RMK
     AO2=
KMXO 110315Z AUTO 03005KT 10SM FEW005 SCT018 BKN045 03/03 A2930
     RMK AO2=
KMZH 110315Z AUTO 00000KT 10SM OVC033 M02/M05 A2971 RMK AO2=
KN38 110315Z AUTO 20008KT 10SM BKN042 BKN048 02/M01 A2997 RMK
     AO2=
KOEL 110315Z AUTO 33011KT 10SM CLR M03/M05 A2988 RMK AO1
     T10261055=
KOEO 110315Z AUTO 35008KT 2SM -SN 00/00 A2968 RMK AO2
     T00000000=
KOKV 110315Z AUTO 13003KT 10SM BKN031 BKN060 OVC090 07/02 A3001
     RMK AO2=
KOLZ 110315Z AUTO 05016KT 2 1/2SM BR OVC003 01/00 A2932 RMK
     A01=
KONA 110315Z AUTO 02005KT 1 1/2SM -SN BKN006 OVC012 00/M01 A2951
     RMK AO2 P0002=
KORS 110315Z AUTO 16015G24KT 9SM -RA OVC019 08/05 A2973 RMK
     AO2=
KOVL 110315Z AUTO 01011G15KT 320V040 2SM -SN OVC005 M02/M03 A2971
     RMK AO2=
KOXD 110315Z AUTO 17010G14KT 1/2SM VCTSRA OVC002 15/10 A2969 RMK
     AO2 LTG DSNT SW T01450096 P0002=
KOZS 110315Z AUTO 18009KT 10SM CLR 15/12 A2943 RMK AO2=
KPAN 110315Z AUTO 02004KT 10SM CLR 03/M03 A3016 RMK AO2=
KPCZ 110315Z AUTO 04007KT 3SM -SN BKN008 OVC013 01/00 A2948 RMK
     AO2 P0002 T00130000=
KPEA 110315Z AUTO 32012KT 1 3/4SM BR OVC002 03/ A2932 RMK AO2
     T0032////=
KPLR 110315Z AUTO 20008KT 10SM OVC019 21/19 A2997 RMK A01=
KPNM 110315Z AUTO 34008KT 2 1/2SM -SN OVC014 M02/M03 A2971 RMK
     AO2=
KPQN 110315Z AUTO 01010G17KT M03/M03 A2969 RMK AO2 PWINO=
KPSK 110315Z AUTO 00000KT 5SM BR SCT065 SCT120 06/06 A3005 RMK AO2
     T00630063=
KRAW 110315Z AUTO 27016G23KT 10SM CLR 19/11 A2942 RMK AO2
     T01890110=
KRCE 110315Z AUTO 33022G31KT 10SM 07/M03 A2979 RMK AO2=
KRCM 110315Z AUTO 28011G19KT 10SM BKN085 08/03 A2945 RMK AO2=
KRDK 110315Z AUTO 32014G22KT 10SM BKN010 OVC014 00/M00 A2951 RMK
     AO2=
KRGK 110315Z AUTO 05009KT 1 1/2SM -SN OVC006 M02/M03 A2956 RMK
     AO2=
KRMN 110315Z AUTO 00000KT 10SM BKN017 OVC024 10/07 A3011 RMK AO2
     T00960066=
KRNH 110315Z AUTO 02012KT 3/4SM SN VV005 M02/M03 A2962 RMK AO2
     T10201030=
KROX 110315Z AUTO 22004KT 10SM M10/M12 A2971 RMK AO2=
KRPH 110315Z AUTO 27014KT 7SM CLR 24/02 A2974 RMK AO2 SLP670
     T02380020=
KRUG 110315Z AUTO 24009KT 10SM CLR M13/M14 A2972 RMK AO2=
KRVL 110315Z AUTO 01003KT 10SM CLR 05/01 A3002 RMK AO2=
KRZT 110315Z AUTO 15008KT 10SM OVC011 12/12 A2976 RMK AO2 LTG DSNT
     W PWINO=
KS25 110315Z AUTO 27008KT 10SM M06/M11 A2976 RMK AO2=
KSAZ 110315Z AUTO 00000KT 10SM M04/M06 A2973 RMK AO2=
KSDA 110315Z AUTO 31012G18KT 10SM BKN010 OVC015 00/M00 A2953 RMK
     AO2=
KSDC 110315Z AUTO 15004KT 10SM CLR 04/00 A2996 RMK AO2=
KSFQ 110315Z AUTO 00000KT 3SM BR OVC004 11/11 A3012 RMK AO2
     T01100110=
KSGS 110315Z AUTO 01013G19KT 1 1/2SM -SN VV007 M01/M02 A2961 RMK
     AO2 T10121018 P0001=
KSHL 110315Z AUTO 35023G29KT 1 1/4SM -SN BKN003 BKN010 OVC026
     M03/M03 A2961 RMK AO2=


283 
SAUS80 KWBC 110316
METAR
K77S 110315Z AUTO 00000KT 10SM FEW055 FEW065 SCT090 06/05 A3013
     RMK A01=
KVTI 110315Z AUTO 00000KT 5SM BR OVC005 03/03 A2931 RMK AO2
     T00330033=
K9MN 110315Z AUTO 01013G21KT 1 1/4SM OVC005 M02/M02 A2948 RMK AO1
     T10161017 P0004=
KAID 110315Z AUTO 17012G17KT 3SM BR OVC002 14/13 A2958 RMK AO2
     T01400134=
KCKP 110315Z AUTO 36015G26KT 1 3/4SM -SN BKN011 OVC015 M02/M02
     A2955 RMK AO2 T10211025=
KJNX 110315Z AUTO 00000KT 7SM BKN015 OVC022 11/10 A3012 RMK
     AO2=
KLYV 110315Z AUTO 35016G20KT OVC006 M02/M03 A2968 RMK AO2
     PWINO=
KPOV 110315Z AUTO 14008KT 10SM SCT120 10/08 A2975 RMK AO2
     T01020075 PWINO=
KROS 110315Z AUTO 36009KT 2SM UP M03/M04 A2970 RMK AO2 SKY
     OBSCURED T10281037 P0001=
KSNC 110315Z AUTO 10SM SCT055 A3014 RMK AO2=
KSOW 110315Z AUTO 00000KT 10SM CLR M02/M08 A3017 RMK AO2=
KSYN 110315Z AUTO 02017KT 1 3/4SM -SN OVC007 M02/M03 A2954 RMK AO2
     T10161026=
KTKC 110315Z AUTO 35015KT 1 1/2SM -SN OVC005 M02/M04 A2971 RMK AO2
     T10201037=
KTKV 110315Z AUTO 02004KT 1/2SM OVC006 M02/M03 A2958 RMK AO2
     T10221030 PWINO=
KY23 110315Z AUTO 01007KT 3/4SM SN M01/M02 A2961 RMK AO2
     T10111025=


284 
SAAL31 KWBC 110300 CCA
METAR
DABC 110300Z 34018KT 8000 -SHRA SCT013 FEW020CB OVC023 09/07
     Q1012=


285 
SPUS80 KWBC 110316
SPECI
KJBR 110312Z AUTO 20015G27KT 2SM +TSRA BR BKN026 BKN049 OVC070
     18/18 A2960 RMK AO2 PK WND 23029/0258 VIS 3/4V5 LTG DSNT
     ALQDS P0002 T01830178 $=
KPHP 110312Z AUTO 28006KT 10SM FEW005 M07/M08 A2986 RMK AO2
     T10721083 TSNO=
PAYA 110312Z AUTO 07016KT 1/2SM SN FZFG VV005 M01/M01 A2867 RMK
     AO2 P0002 T10111011 TSNO RVRNO=
KFSD 110313Z 35017KT 1SM -SN BR OVC016 M02/M04 A2972 RMK AO2 SFC
     VIS 1 1/4 P0001 T10171044 $=
KSMP 110303Z AUTO 3SM -SN BR BKN004 OVC013 M01/M02 A2982 RMK AO2
     P0000 T10061017=


321 
SABZ35 SBBR 110300
NIL


322 
SPUS81 KWBC 110316
SPECI
KSMP 110303Z AUTO 3SM -SN BR BKN004 OVC013 M01/M02 A2982=


323 
SABZ30 SBBR 110300
NIL


324 
SABZ32 SBBR 110300
NIL


325 
SABZ31 SBBR 110300
NIL


326 
SPUS81 KWBC 110316
SPECI
PAYA 110312Z AUTO 07016KT 1/2SM SN FZFG VV005 M01/M01 A2867=


327 
SABZ33 SBBR 110300
NIL


328 
SABZ34 SBBR 110300
NIL


466 
SAXX70 KAWN 110300 RRH
METAR KQN3 110255Z AUTO 07002KT 8000 HZ CLR 22/M05 A2983 RMK AO2 SLP089
      WND DATA ESTMD T02171050 57018 $=


467 
SPCN47 CWAO 110315
SPECI CYGP 110315Z 26006KT 15SM OVC020 M05/M10 A3012 RMK SC8 SLP203=


489 
SAAP34 FAPR 110300
METAR FVRG 110300Z 07008KT CAVOK 18/12 Q1020 NOSIG=


498 
SACV20 GVNP 110300
METAR GVNP 110300Z 03016KT 9999 FEW020 22/18 Q1011 NOSIG=

511 
SAZZ40 KAWN 110300 RRS
METAR DAOB 110300Z 27013KT 9999 SCT023 08/07 Q1020=
METAR FKKD 110300Z 00000KT 8000 TS BKN013 SCT016CB 25/24 Q1006 NOSIG=
METAR OEGS 110300Z 00000KT CAVOK 07/03 Q1024=
METAR OERF 110300Z 000000KT CAVOK 06/M03 Q1025 NOSIG=
METAR OERR 110300Z 00000KT CAVOK 08/01 Q1024 NOSIG=
METAR OETR 110300Z 12014KT CAVOK 08/04 Q1023 NOSIG=
METAR PASY 110259Z 24017KT 10SM FEW025 OVC040 04/01 A3043 RMK AO2A
      SLP307 ALSTG/SLP ESTMD WND DATA ESTMD T00440012 56004 RVRNO
      PNO $=
METAR PMDY 110311Z AUTO 09013KT 10SM SCT017 BKN022 BKN028 25/21 A3003
      RMK AO2=
METAR SBKG 110300Z 10010KT 9999 SCT012 23/21 Q1012=
METAR SBMK 110300Z 02003KT 9999 SCT004 BKN020 21/21 Q1013=
METAR TAPA 110300Z 08011KT 040V110 9999 SCT016 25/22 Q1014 RESHRA TEMPO
      SHRA=


514 
SPCN52 CWAO 110315
SPECI CZUM 110315Z AUTO 14003KT 2SM -SN OVC023 M17/M19 A2986 RMK VIS VRB 1 1/4-2 1/2 SLP159=


515 
SAKU32 NCRG 110300
METAR NCAI 100300Z AUTO
20002KT //// ////// 29/24 Q1012=
METAR NCAT 110300ZAUTO
30003KT //// ////// ///// Q////=
METAR NCMG 110300ZAUTO
31003KT //// ////// ///// Q////=
METAR NCMH 110300ZAUTO
10004KT //// ////// ///// Q1008=
METAR NCMK 110300ZAUTO
04003KT //// //////  28/25 Q1009=
METAR NCMR 110300ZAUTO
25002KT //// ////// ///// Q1010=
METAR NCNS 110300ZAUTO
08004KT //// ////// 31/24 Q1008=
METAR NCPL 110300ZAUTO
29003KT //// ////// 31/23 Q1011=
METAR NCPY 110300ZAUTO
07008KT //// ////// 29/24 Q1008=
METAR NCPK 110300ZAUTO
NIL=
METAR NCRK 110300ZAUTO
10004KT //// ////// 30/24 Q1008=
METAR NCSW 110300ZAUTO
09004KT //// ////// 29/24 Q1009=


872 
SAUS41 KCAR 110316
MTR40B
METAR K40B 110316Z AUTO 00000KT M06/M08 A3009 RMK AO1 SLP224
     T10621077 50005


921 
SAAB31 LATI 110320
METAR LATI 110320Z 15015KT 9999 BKN034 OVC042 10/06 Q0999 NOSIG=


926 
SAAP37 FAPR 110300 CCA
METAR COR FYGF 110300Z 03004KT 9999 -DZ SCT030 BKN080 20/17 Q1018=


980 
SAIN90 VEBN 110300
METAR VEBN 110300Z 25005KT 1000 BR NSC 15/11 Q1020 BECMG 1500 BR=

981 
SAPS31 NFFN 110300
METAR NCRG 110300Z NIL=
METAR NFFN 110300Z 06008KT 9999 -TSRA FEW018CB SCT026TCU 31/24 Q1009 
TEMPO 5000 TSRA=
METAR NFNA 110300Z 08009KT 9999 SCT020 SCT048 30/23 Q1009=
METAR NFTF 110300Z 10011G21KT 9999 FEW018TCU 29/25 Q1012=
METAR NFTV 110300Z 36008KT 9999 FEW009 BKN016TCU 27/24 Q1011=
METAR NGFU 110300Z 08010KT 9999 -SHRA FEW015CB FEW018TCU OVC100 29/26
 Q1007=
METAR NGTA 110300Z 09010KT 9999 FEW020 BKN300 31/23 Q1006=
METAR NIUE 110300Z AUTO 11008KT // 27/23 Q1012=
METAR NSFA 110300Z NIL=
METAR NVSS 110300Z NIL=
METAR NVVV 110300Z NIL=
METAR PLCH 110300Z 11010KT 9999 FEW019 BKN040 28/23 Q1007=
METAR NFTL 110300Z 11006KT 9999 FEW016 28/22 Q1011=

986 
SAAN40 FNLU 110300
NIL

996 
SAZA31 FAPR 110300 RRA
METAR FALW 110300Z AUTO /////KT //// // ////// 14/13 Q1011=

000 
SAEA20 HKNC 110300
METAR HBBA 110300Z 36004KT 9999 FEW030
20/17 Q1009 NOSIG=
METAR HKEL 110300Z 13011KT 9999 FEW016 BKN230 11/09 Q1022=
METAR HKJK 110300Z 04007KT 9999 SCT018 16/15 Q1021 NOSIG=
METAR HKNW 110300Z 07008KT 9999 BKN019 17/15 Q1020=
METAR HRYR 110300Z 16003KT 130V190 8000 SCT025 BKN100 17/17 Q1017
NOSIG=
METAR HUEN 110300Z 36003KT 9999 FEW020 FEW022CB 21/20 Q1014=

016 
SAIN90 VEBI 110300
METAR VEBI 110300Z 14002KT 2500 HZ FEW018 13/09 Q1022 =

021 
SAMP31 LMMM 110315 RRA
METAR LMML 110315Z 30007KT 260V320 9999 FEW018 SCT030 12/11 Q1006
NOSIG=

192 
SACN93 CWAO 110315
WPF SA 0315 AUTO8 M M M 070/06/04/2403/M/ 6034 08MM=


363 
SAAK41 KNKA 110316
SPECI PAGY 110314Z AUTO 20018G27KT 5SM -SN BR FEW013 FEW026 OVC036 
    01/M01 A2882 RMK AO2 PK WND 21027/0312 SNB0254 P0000 T00111011 
    TSNO $=


644 
SPAK31 KWBC 110317
SPECI
PASI 110313Z 09007KT 3SM -SN BKN010 OVC016 01/M02 A2891=


646 
SPAK32 KWBC 110317
SPECI
PABI 110313Z 28008KT 2SM -SN OVC025 M14/M17 A2898=


700 
SACN95 CWAO 110300 RRB
WXC SA 0300 AUTO8 M M M 201/-07/-08/1704/M/     1017 53MM=


701 
SPUS81 KWBC 110317
SPECI
KFSD 110313Z 35017KT 1SM -SN BR OVC016 M02/M04 A2972=


704 
SACN54 CWAO 110300 RRA
CPY SA 0300 AUTO8 M M M 770/-14/-16/2702/M/M SOG 28 3011 79MM=


705 
SACN94 CWAO 110300 RRA
WQF SA 0300 AUTO8 M M M M/-28/-31/0000/M/ SOG 27 M 02MM=


804 
SACN59 CWAO 110300 RRA
PBH SA 0300 AUTO8 M M M M/-03/M/MMMM/M/ M 9MMM=
PBR SA 0300 AUTO8 M M M M/-02/M/MMMM/M/ M 6MMM=
PCR SA 0300 AUTO8 M M M M/-01/M/MMMM/M/ M 9MMM=
PMR SA 0300 AUTO8 M M M M/-03/M/MMMM/M/ M 9MMM=
PRR SA 0300 AUTO8 M M M M/-04/M/MMMM/M/ M 9MMM=


806 
SACN74 CWAO 110300 RRB
NBI SA 0300 AUTO8 M M M 003/-19/-22/2202/M/     SOG 05 8011 08MM=
NFR SA 0300 AUTO8 M M M 071/-19/M/2501/M/     SOG 36 6004 9MMM=
NGH SA 0300 AUTO8 M M M 051/-20/-22/MMMM/M/     SOG 14 6004 86MM=
NSG SA 0300 AUTO8 M M M 081/-25/-28/1701/M/     SOG 24 6005 49MM=


807 
SACN92 CWAO 110300 RRA
WJN SA 0300 AUTO8 M M M 925/-17/-19/3217+22/M/     PK WND 3125 0229Z 3007 97MM=
WLG SA 0300 AUTO8 M M M 882/-23/-25/3402/M/ 3004 60MM=


808 
SACN96 CWAO 110300 RRB
WZR SA 0300 AUTO8 M M M 898/-16/-21/0303/M/ SOG 22 1021 59MM=


809 
SACN63 CWAO 110300 RRA
NPV SA 0300 AUTO8 M M M 018/-27/-29/0208/M/     SOG 05 6008 74MM=


812 
SACN93 CWAO 110300 RRA
WND SA 0300 AUTO8 M M M 877/-18/-20/3505/M/ 1001 88MM=
WOI SA 0300 AUTO8 M M M 926/-17/-22/0506/M/     SOG 37 1011 81MM=


813 
SACN82 CWAO 110300 RRB
GKM SA 0300 AUTO8 M M M 123/-18/-20/17MM/M/     SOG 22 6018 94MM=
MFJ SA 0300 AUTO8 M M M 065/-07/-11/2616+26/M/     PK WND 2528 0226Z 1023 77MM=
MFX SA 0300 AUTO8 M M M 029/-15/-20/1711+16/M/     SOG 02 8013 79MM=
NSQ SA 0300 AUTO8 M M M 008/-07/-08/2523+30/M/     PK WND 2532 0229Z 1015 94MM=


883 
SARS18 KAWN 110300 RRD
METAR UTSS 110300Z 15004G20KT 9999 NSC 03/M06 Q1024 R09/70D NOSIG=
METAR UTTT 110300Z 00000KT 7000 NSC 03/M04 Q1025 R08R/CLRD70 NOSIG=


885 
SPNA14 KAWN 110317 RRB
SPECI KNMM 110309Z AUTO 19009KT 160V220 10SM BKN017 BKN023 OVC046 23/21
      A2992 RMK AO2 T02280206=
SPECI KNMM 110309Z AUTO 19009KT 160V220 10SM BKN017 BKN023 OVC046 23/21
      A2992 RMK AO2 T02280206=
SPECI KSGH 110310Z AUTO 16011KT 1 1/2SM BR OVC002 13/ A2971 RMK AO2
      PNO $=
SPECI KSSC 110311Z AUTO 00000KT 2 3/4SM BR OVC003 12/11 A3012 RMK AO2
      SLP201=
SPECI KTCM 110310Z 19015KT 7SM SCT033 BKN042 07/04 A2987 RMK AO2A RAB0257E10RAB10
      SLP121 RVRNO $=


886 
SAUS14 KAWN 110300 RRX
METAR KBEA 110315Z AUTO 16006KT 10SM CLR 22/22 A2978 RMK AO2 T02230215=
METAR KBKS 110315Z AUTO 18007KT 10SM CLR 23/21 A2978 RMK AO2 T02270212=
METAR KL18 110315Z AUTO 35005KT 10SM CLR 10/07 A3014 RMK AO2=
METAR KMCJ 110315Z AUTO 22007G14KT 180V300 6SM HZ SCT016 BKN027 OVC050
      25/22 A2983 RMK A01=


887 
SPXX70 KAWN 110300 RRA
SPECI KQBL 110310Z AUTO VRB01KT 4SM BR FEW007 SCT013 BKN021 OVC036
      22/22 A3008 RMK AO2 SLP187 WND DATA ESTMD=


994 
SACN98 CWAO 110300 RRB
XYH SA 0300 AUTO8 M M M 833/-26/-28/0000/M/ SOG 38 6017 85MM=


009 
SACN97 CWAO 110300 RRA
XLL SA 0300 AUTO8 M M M 852/-24/-27/0000/M/     SOG 33 8021 42MM=
XTN SA 0300 AUTO8 M M M 913/-16/-18/0906/M/     SOG 21 8002 53MM=

